{"type": "FeatureCollection", "features": [{"type": "Feature", "properties": {"route_id": "11131214", "route_short_name": "120", "route_long_name": "Minibus 120: Encanto Pampa \u2192 Calle Tupac Katari"}, "geometry": {"type": "LineString", "coordinates": [[-66.222655, -17.320457], [-66.222583, -17.320451], [-66.222586, -17.320861], [-66.2226, -17.321271], [-66.222581, -17.32216], [-66.22258, -17.323049], [-66.222568, -17.323972], [-66.222634, -17.324593], [-66.22268, -17.324886], [-66.222748, -17.325133], [-66.222647, -17.325149], [-66.222567, -17.325172], [-66.222526, -17.325188], [-66.22093, -17.325532], [-66.220659, -17.325589], [-66.22051, -17.325615], [-66.220413, -17.325632], [-66.220322, -17.325668], [-66.220054, -17.325806], [-66.218994, -17.326072], [-66.218188, -17.326282], [-66.217815, -17.326377], [-66.217662, -17.326395], [-66.21737, -17.326415], [-66.217447, -17.326794], [-66.217629, -17.327345], [-66.217799, -17.327878], [-66.218475, -17.329846], [-66.219344, -17.332432], [-66.2195, -17.332907], [-66.219933, -17.334315], [-66.220235, -17.335336], [-66.220373, -17.33573], [-66.220711, -17.336764], [-66.22085, -17.337193], [-66.221062, -17.337846], [-66.221314, -17.338651], [-66.219995, -17.339045], [-66.219278, -17.339343], [-66.219198, -17.33937], [-66.218883, -17.339468], [-66.218288, -17.339616], [-66.21778, -17.339758], [-66.217717, -17.339776], [-66.217654, -17.339797], [-66.216628, -17.340174], [-66.216607, -17.340181], [-66.216575, -17.340191], [-66.216509, -17.340216], [-66.215566, -17.340574], [-66.215497, -17.340604], [-66.215436, -17.340622], [-66.214371, -17.340987], [-66.214326, -17.341006], [-66.214101, -17.341078], [-66.213997, -17.341145], [-66.213814, -17.341224], [-66.213785, -17.341237], [-66.213695, -17.341278], [-66.213614, -17.341307], [-66.213422, -17.341375], [-66.213359, -17.341399], [-66.212911, -17.341572], [-66.212488, -17.341777], [-66.212451, -17.341795], [-66.212404, -17.341814], [-66.212223, -17.341905], [-66.212185, -17.341921], [-66.211608, -17.34222], [-66.211128, -17.342443], [-66.211035, -17.342488], [-66.208597, -17.343578], [-66.207906, -17.343874], [-66.207836, -17.343904], [-66.207248, -17.344152], [-66.206973, -17.344282], [-66.20685, -17.344337], [-66.206444, -17.344501], [-66.20623, -17.344584], [-66.206194, -17.344598], [-66.20613, -17.344625], [-66.205448, -17.344895], [-66.204903, -17.345117], [-66.204339, -17.345351], [-66.20428, -17.345374], [-66.204211, -17.345404], [-66.204156, -17.345429], [-66.203661, -17.345667], [-66.202994, -17.345991], [-66.202706, -17.346128], [-66.202516, -17.34621], [-66.202352, -17.34628], [-66.202283, -17.346304], [-66.20049, -17.347044], [-66.200273, -17.347134], [-66.199964, -17.347248], [-66.199902, -17.347271], [-66.199801, -17.347313], [-66.199686, -17.347358], [-66.199641, -17.347376], [-66.198624, -17.347809], [-66.198355, -17.347913], [-66.197545, -17.348249], [-66.196919, -17.348508], [-66.196677, -17.348621], [-66.196522, -17.348698], [-66.195907, -17.349044], [-66.1947, -17.349671], [-66.194167, -17.349962], [-66.193915, -17.3501], [-66.19352, -17.350316], [-66.193244, -17.350475], [-66.192937, -17.350654], [-66.192621, -17.35086], [-66.192372, -17.351023], [-66.19229, -17.351079], [-66.191998, -17.351275], [-66.191734, -17.351452], [-66.191544, -17.351583], [-66.191332, -17.35174], [-66.190714, -17.352201], [-66.189963, -17.35281], [-66.189896, -17.352864], [-66.189773, -17.352958], [-66.188986, -17.353587], [-66.188921, -17.353639], [-66.188086, -17.354274], [-66.18789, -17.354423], [-66.187854, -17.354462], [-66.187759, -17.354597], [-66.187733, -17.354641], [-66.187706, -17.354659], [-66.187672, -17.354675], [-66.187626, -17.354682], [-66.187543, -17.354729], [-66.187488, -17.354758], [-66.187141, -17.355024], [-66.186476, -17.355535], [-66.185915, -17.355976], [-66.185611, -17.356214], [-66.185144, -17.35655], [-66.184936, -17.35671], [-66.184801, -17.356831], [-66.184719, -17.356927], [-66.184674, -17.356982], [-66.184574, -17.357114], [-66.184219, -17.35763], [-66.183744, -17.358324], [-66.183421, -17.358814], [-66.183236, -17.359028], [-66.183192, -17.359081], [-66.183134, -17.359154], [-66.183059, -17.359261], [-66.183015, -17.359338], [-66.182949, -17.359476], [-66.182649, -17.360126], [-66.182211, -17.361014], [-66.182095, -17.361252], [-66.182057, -17.361311], [-66.181752, -17.361818], [-66.18163, -17.362024], [-66.181481, -17.36223], [-66.181259, -17.36252], [-66.181034, -17.362765], [-66.180824, -17.362991], [-66.180654, -17.36314], [-66.180434, -17.363309], [-66.179986, -17.36366], [-66.179677, -17.3639], [-66.179423, -17.364078], [-66.179134, -17.364237], [-66.178971, -17.364323], [-66.178758, -17.364437], [-66.178623, -17.364489], [-66.178568, -17.364505], [-66.178353, -17.364571], [-66.177977, -17.364683], [-66.176792, -17.365041], [-66.176754, -17.365053], [-66.176655, -17.365083], [-66.176535, -17.365121], [-66.176474, -17.365139], [-66.17516, -17.365542], [-66.175014, -17.365589], [-66.174918, -17.365615], [-66.174781, -17.365645], [-66.173324, -17.36574], [-66.171798, -17.365827], [-66.17156, -17.365844], [-66.171415, -17.365855], [-66.171303, -17.365866], [-66.17115, -17.365898], [-66.170556, -17.366068], [-66.17039, -17.366106], [-66.170215, -17.366125], [-66.169994, -17.366127], [-66.169799, -17.366111], [-66.169604, -17.366074], [-66.169333, -17.365991], [-66.169187, -17.365938], [-66.168955, -17.365866], [-66.168734, -17.36583], [-66.168565, -17.365816], [-66.167953, -17.365761], [-66.167801, -17.365773], [-66.167643, -17.365805], [-66.1675, -17.365855], [-66.166968, -17.366139], [-66.166684, -17.366326], [-66.166331, -17.366568], [-66.166121, -17.366717], [-66.165837, -17.366928], [-66.165123, -17.367435], [-66.164249, -17.368057], [-66.164157, -17.368131], [-66.164089, -17.368196], [-66.164035, -17.368262], [-66.16405, -17.368325], [-66.164055, -17.368424], [-66.164064, -17.368665], [-66.164068, -17.368827], [-66.164069, -17.369024], [-66.164072, -17.369349], [-66.164074, -17.369503], [-66.164083, -17.370432], [-66.164084, -17.370569], [-66.164069, -17.371045], [-66.164036, -17.371296], [-66.163947, -17.371812], [-66.16378, -17.372384], [-66.163746, -17.372486], [-66.163653, -17.372492], [-66.163271, -17.372511], [-66.162777, -17.372543], [-66.162697, -17.372548], [-66.162589, -17.372554], [-66.162498, -17.37256], [-66.160785, -17.372672], [-66.160655, -17.37268], [-66.160595, -17.372683], [-66.160499, -17.37269], [-66.159165, -17.372775], [-66.159078, -17.372781], [-66.158992, -17.372786], [-66.158933, -17.37279], [-66.158869, -17.372794], [-66.157245, -17.372896], [-66.157214, -17.372904], [-66.157168, -17.372945], [-66.157136, -17.373009], [-66.157089, -17.373063], [-66.15705, -17.373092], [-66.157008, -17.373115], [-66.156961, -17.373174], [-66.156925, -17.373219], [-66.156901, -17.373252], [-66.156856, -17.373878], [-66.156884, -17.374518], [-66.156899, -17.374944], [-66.1569, -17.374962], [-66.156902, -17.375057], [-66.156903, -17.375115], [-66.156921, -17.375501], [-66.156944, -17.376374], [-66.156954, -17.377028], [-66.156994, -17.378031], [-66.156999, -17.378121], [-66.157002, -17.378197], [-66.15705, -17.379908], [-66.157083, -17.380028], [-66.157087, -17.38008], [-66.157092, -17.380273], [-66.157093, -17.380338], [-66.157096, -17.38043], [-66.157076, -17.380521], [-66.156992, -17.380888], [-66.156977, -17.380966], [-66.156837, -17.381712], [-66.156825, -17.381786], [-66.156818, -17.38186], [-66.156805, -17.381909], [-66.156782, -17.381949], [-66.156522, -17.382284], [-66.15646, -17.382314], [-66.156166, -17.382697], [-66.156035, -17.382868], [-66.155559, -17.383489], [-66.156404, -17.384058], [-66.156453, -17.384091], [-66.156417, -17.38414], [-66.15526, -17.385724], [-66.15466, -17.386522], [-66.154604, -17.3866], [-66.154569, -17.386683], [-66.154293, -17.387284], [-66.154267, -17.38733], [-66.154237, -17.387386], [-66.154167, -17.387725], [-66.154126, -17.387932], [-66.154029, -17.388432], [-66.152984, -17.388202], [-66.151836, -17.387939], [-66.151771, -17.387925], [-66.15176, -17.388], [-66.151611, -17.388925], [-66.151604, -17.388963], [-66.1516, -17.388988], [-66.151594, -17.389029], [-66.151417, -17.390035], [-66.151233, -17.391123], [-66.151221, -17.391186], [-66.151208, -17.391273], [-66.151198, -17.391337], [-66.151126, -17.391729], [-66.15104, -17.392193], [-66.151028, -17.392245], [-66.151021, -17.392284], [-66.150842, -17.393227], [-66.150832, -17.393279], [-66.150822, -17.393334], [-66.15064, -17.394328], [-66.150442, -17.395355], [-66.150386, -17.395644], [-66.150236, -17.396417], [-66.150023, -17.397561], [-66.150017, -17.397637], [-66.150014, -17.397688], [-66.149949, -17.398476], [-66.149941, -17.398553], [-66.149907, -17.399003], [-66.149849, -17.399867], [-66.149822, -17.399953], [-66.149783, -17.400029], [-66.149902, -17.400467], [-66.149894, -17.400532], [-66.149861, -17.400585], [-66.149711, -17.400749], [-66.149504, -17.400949], [-66.149405, -17.401055], [-66.149353, -17.401126], [-66.149287, -17.40125], [-66.149287, -17.40129], [-66.149291, -17.401328], [-66.149304, -17.401367], [-66.149445, -17.401838], [-66.149458, -17.401883], [-66.149475, -17.401946], [-66.149475, -17.401977], [-66.149468, -17.402008], [-66.14942, -17.402087], [-66.149409, -17.402162], [-66.149509, -17.402087], [-66.149569, -17.401999], [-66.149626, -17.401894], [-66.149765, -17.401396], [-66.149813, -17.40132], [-66.149865, -17.401271], [-66.149943, -17.401227], [-66.150025, -17.401217], [-66.150047, -17.401219], [-66.150099, -17.401225], [-66.15016, -17.401247], [-66.15021, -17.40128], [-66.150242, -17.401317], [-66.150292, -17.401397], [-66.150309, -17.401447], [-66.150319, -17.401529], [-66.150317, -17.401579], [-66.15031, -17.401666], [-66.150292, -17.401733], [-66.150271, -17.401801], [-66.150166, -17.402087], [-66.150131, -17.402155], [-66.150095, -17.402233], [-66.150059, -17.402293], [-66.15003, -17.402341], [-66.150095, -17.402384], [-66.150172, -17.402406], [-66.150428, -17.402394], [-66.150726, -17.402395], [-66.150867, -17.402385]]}}]}