{"type": "FeatureCollection", "features": [{"type": "Feature", "geometry": {"type": "LineString", "coordinates": [[-66.226445, -17.333111], [-66.226173, -17.333121], [-66.226188, -17.333483], [-66.226205, -17.333882], [-66.226165, -17.333964], [-66.226161, -17.334059], [-66.226173, -17.334263], [-66.226184, -17.334695], [-66.226196, -17.335136], [-66.226206, -17.335455], [-66.226212, -17.335805], [-66.225992, -17.335859], [-66.225661, -17.335945], [-66.225422, -17.336007], [-66.224987, -17.336121], [-66.224828, -17.33616], [-66.224416, -17.336259], [-66.223969, -17.336368], [-66.223556, -17.336484], [-66.223064, -17.336621], [-66.222703, -17.33672], [-66.222328, -17.336821], [-66.222149, -17.336871], [-66.221795, -17.336952], [-66.22148, -17.337035], [-66.221268, -17.337086], [-66.22085, -17.337191], [-66.220956, -17.337498], [-66.221096, -17.337913], [-66.221348, -17.338646], [-66.220949, -17.338762], [-66.220597, -17.338868], [-66.2203, -17.338954], [-66.219996, -17.339045], [-66.219592, -17.339206], [-66.21938, -17.33929], [-66.219182, -17.339367], [-66.218863, -17.339477], [-66.218534, -17.339552], [-66.218149, -17.339654], [-66.217782, -17.339756], [-66.217755, -17.339763], [-66.217668, -17.339791], [-66.217208, -17.339959], [-66.216564, -17.340194], [-66.216006, -17.340394], [-66.215562, -17.340558], [-66.215433, -17.340607], [-66.215055, -17.340746], [-66.214532, -17.340938], [-66.214142, -17.341081], [-66.214083, -17.341111], [-66.214001, -17.341174], [-66.213778, -17.341257], [-66.213693, -17.341298], [-66.213403, -17.3414], [-66.213191, -17.341487], [-66.212822, -17.341632], [-66.212432, -17.341798], [-66.212208, -17.341908], [-66.211921, -17.342061], [-66.21163, -17.342221], [-66.211344, -17.342371], [-66.211204, -17.342444], [-66.211026, -17.342538], [-66.210648, -17.342702], [-66.210305, -17.342858], [-66.209875, -17.343052], [-66.209526, -17.34321], [-66.209312, -17.343302], [-66.20888, -17.343498], [-66.208628, -17.343611], [-66.208548, -17.343641], [-66.2079, -17.343912], [-66.207351, -17.344138], [-66.206974, -17.344304], [-66.206847, -17.344354], [-66.206446, -17.344497], [-66.205991, -17.344688], [-66.2056, -17.344874], [-66.205496, -17.344921], [-66.2051, -17.345049], [-66.204868, -17.345142], [-66.204212, -17.345402], [-66.203656, -17.345669], [-66.203287, -17.345849], [-66.202776, -17.346096], [-66.202676, -17.346141], [-66.202369, -17.346271], [-66.201954, -17.346439], [-66.201475, -17.346637], [-66.201079, -17.346797], [-66.200519, -17.347034], [-66.199976, -17.347243], [-66.199523, -17.347436], [-66.19904, -17.347633], [-66.198615, -17.34781], [-66.19822, -17.347971], [-66.197703, -17.348183], [-66.19724, -17.348373], [-66.196777, -17.348573], [-66.196511, -17.348703], [-66.196003, -17.34899], [-66.195484, -17.349265], [-66.19489, -17.34957], [-66.19434, -17.349866], [-66.193848, -17.350137], [-66.193298, -17.350443], [-66.192789, -17.350748], [-66.19229, -17.35108], [-66.191837, -17.351381], [-66.191535, -17.351586], [-66.191176, -17.351856], [-66.190858, -17.352093], [-66.190514, -17.352361], [-66.190141, -17.352664], [-66.189873, -17.352879], [-66.189578, -17.353112], [-66.189225, -17.353395], [-66.188794, -17.353737], [-66.18839, -17.354048], [-66.188053, -17.354306], [-66.187847, -17.354472], [-66.187732, -17.354565], [-66.187653, -17.35462], [-66.187577, -17.354679], [-66.187432, -17.354794], [-66.187105, -17.355051], [-66.186632, -17.355424], [-66.186239, -17.355725], [-66.185898, -17.355991], [-66.18547, -17.356317], [-66.185097, -17.356584], [-66.184907, -17.356737], [-66.184797, -17.356829], [-66.184705, -17.356937], [-66.184638, -17.357024], [-66.184439, -17.357335], [-66.184196, -17.357705], [-66.184065, -17.35791], [-66.183951, -17.358068], [-66.183727, -17.358383], [-66.183519, -17.35867], [-66.183402, -17.358837], [-66.183308, -17.358963], [-66.183245, -17.359035], [-66.183127, -17.359189], [-66.18306, -17.359311], [-66.182963, -17.359504], [-66.182828, -17.359785], [-66.182665, -17.360123], [-66.182552, -17.360357], [-66.182422, -17.360628], [-66.182258, -17.360957], [-66.182162, -17.361161], [-66.182114, -17.361264], [-66.181985, -17.361471], [-66.18187728544754, -17.361643910202638], [-66.18182325912684, -17.361628929383972], [-66.18168030188082, -17.361769306882554], [-66.18145211066025, -17.362022716798634], [-66.18132362417977, -17.362123191089797], [-66.18124591022124, -17.362138461146184], [-66.18112188257189, -17.362188666339353], [-66.1808071523959, -17.362479602496006], [-66.18051642719412, -17.362689485809206], [-66.18034750803653, -17.362775138400163], [-66.18008756897635, -17.36290899798112], [-66.17976372884294, -17.36309400679315], [-66.17934321480658, -17.363356333984754], [-66.1790370966196, -17.363502595841744], [-66.1789220917131, -17.36351874757247], [-66.178605839031, -17.363627172988533], [-66.17842100498623, -17.363671554089514], [-66.17840613110747, -17.363628180567797], [-66.17825720339505, -17.363615424322315], [-66.17803648081222, -17.36363120896152], [-66.17767380394376, -17.363748763574613], [-66.17723890892293, -17.363881427086955], [-66.17688235725844, -17.363989787247093], [-66.1763562894354, -17.364146615394898], [-66.17587635628298, -17.36429278738571], [-66.17525134822714, -17.364479088308588], [-66.17489348414114, -17.364586166661244], [-66.17483193497732, -17.36460502860026], [-66.17474014134547, -17.364634053140136], [-66.17474081701488, -17.36465197572602], [-66.17449900276307, -17.364670384768544], [-66.17384747357566, -17.364714961674554], [-66.17331952817861, -17.36474789640162], [-66.17310128098201, -17.36476134163346], [-66.17250358257938, -17.364792655068232], [-66.17210683628532, -17.36481552750857], [-66.17177549131414, -17.364834233620407], [-66.17143586834925, -17.36486119260228], [-66.17105325138134, -17.364899943972993], [-66.17083674864772, -17.364951670182393], [-66.17054041890306, -17.36503987908776], [-66.17029158644388, -17.365116562037034], [-66.1702416488185, -17.365132556587298], [-66.1702330736374, -17.365148467493317], [-66.17005521137426, -17.365139590601586], [-66.17000093525523, -17.365139796540827], [-66.16991883882488, -17.365124284166434], [-66.16985849346818, -17.365118337761498], [-66.16972979969957, -17.365072869926703], [-66.16960517095856, -17.36502827633833], [-66.16940867810096, -17.364957523355898], [-66.1692762643733, -17.364921318077386], [-66.16907574850718, -17.364879314241513], [-66.16898434393416, -17.364862863972128], [-66.16876214682664, -17.364832600887578], [-66.16863755815075, -17.3648286341824], [-66.16833059857636, -17.364807441988905], [-66.16807652831977, -17.364802136460142], [-66.16782962707506, -17.364841412622255], [-66.16766562386904, -17.364905537811754], [-66.16743568325502, -17.364999359431824], [-66.16733879025215, -17.365083634062096], [-66.167104654368, -17.365234731205664], [-66.16699567393724, -17.365356457069282], [-66.16680292387792, -17.365521941517475], [-66.16665478472024, -17.365666680588735], [-66.16657837234175, -17.365776511146365], [-66.16637113655395, -17.365961427145635], [-66.16623114727658, -17.366128727988052], [-66.16597967530143, -17.36636137243454], [-66.16587738362095, -17.366499348843405], [-66.16570386416343, -17.366695168517456], [-66.16552911983511, -17.36688764780969], [-66.16538186155411, -17.367058220274703], [-66.16514729797854, -17.367291299516655], [-66.16484147113428, -17.367571275496715], [-66.16478754245843, -17.367674397384597], [-66.164529, -17.367858], [-66.164316, -17.368009], [-66.164164, -17.368125], [-66.164087, -17.368199], [-66.164062, -17.368238], [-66.164045, -17.368275], [-66.164052, -17.368317], [-66.164057, -17.368371], [-66.164057, -17.368421], [-66.164053, -17.368464], [-66.164053, -17.368518], [-66.164066, -17.368737], [-66.164072, -17.369072], [-66.164076, -17.369507], [-66.164081, -17.369976], [-66.164084, -17.370446], [-66.164085, -17.37057], [-66.164078, -17.37076], [-66.164073, -17.371033], [-66.16405, -17.371176], [-66.164018, -17.371414], [-66.163976, -17.371631], [-66.16395, -17.371792], [-66.163909, -17.37195], [-66.163845, -17.372162], [-66.163781, -17.372381], [-66.163746, -17.372481], [-66.163494, -17.372499], [-66.163204, -17.372518], [-66.162876, -17.372538], [-66.162693, -17.372549], [-66.162301, -17.372569], [-66.16181, -17.372604], [-66.161453, -17.372627], [-66.161227, -17.372639], [-66.160753, -17.372674], [-66.160602, -17.372679], [-66.160236, -17.372706], [-66.159716, -17.372741], [-66.159355, -17.372762], [-66.15917, -17.372771], [-66.158745, -17.372801], [-66.158425, -17.372817], [-66.157902, -17.372852], [-66.157346, -17.372886], [-66.157262, -17.372893], [-66.157208, -17.372894], [-66.157166, -17.372916], [-66.157148, -17.372934], [-66.157135, -17.372981], [-66.157123, -17.373015], [-66.157094, -17.373044], [-66.157068, -17.37308], [-66.157029, -17.373109], [-66.156993, -17.373132], [-66.156945, -17.37315], [-66.156894, -17.373161], [-66.156871, -17.373168], [-66.156887, -17.373448], [-66.156889, -17.373733], [-66.156902, -17.373991], [-66.156908, -17.374405], [-66.156918, -17.374892], [-66.156929, -17.375194], [-66.15694, -17.375512], [-66.15695, -17.37588], [-66.156955, -17.376111], [-66.156964, -17.376377], [-66.156973, -17.376838], [-66.15698, -17.377007], [-66.156983, -17.377145], [-66.156993, -17.377478], [-66.157004, -17.37783], [-66.15702, -17.378116], [-66.157019, -17.378382], [-66.157032, -17.378761], [-66.157036, -17.379131], [-66.157044, -17.379555], [-66.157051, -17.379916], [-66.157085, -17.380042], [-66.157093, -17.380314], [-66.157095, -17.380439], [-66.157046, -17.380676], [-66.156989, -17.38089], [-66.156937, -17.381191], [-66.156871, -17.381544], [-66.156836, -17.381711], [-66.156824, -17.381822], [-66.156811, -17.381896], [-66.156775, -17.381965], [-66.156618, -17.382162], [-66.156524, -17.382285], [-66.156472, -17.382307], [-66.156317, -17.382515], [-66.156121, -17.382768], [-66.155981, -17.382943], [-66.155715, -17.383287], [-66.155553, -17.383494], [-66.155792, -17.383645], [-66.156076, -17.383835], [-66.156319, -17.383999], [-66.156482, -17.384109], [-66.156326, -17.384322], [-66.156154, -17.384545], [-66.156002, -17.384754], [-66.155784, -17.385041], [-66.155585, -17.385305], [-66.155454, -17.385483], [-66.155245, -17.385756], [-66.155046, -17.386014], [-66.154795, -17.386346], [-66.154688, -17.386492], [-66.154606, -17.386602], [-66.154432, -17.386994], [-66.154286, -17.38732], [-66.154249, -17.387396], [-66.154168, -17.387793], [-66.154088, -17.388196], [-66.154029, -17.388434], [-66.153624, -17.388342], [-66.153206, -17.388247], [-66.152859, -17.388176], [-66.15248, -17.388086], [-66.151903, -17.387954], [-66.151771, -17.387923], [-66.151742, -17.388126], [-66.151677, -17.388531], [-66.151606, -17.38897], [-66.151582, -17.389092], [-66.151507, -17.389527], [-66.15145, -17.389819], [-66.151387, -17.390171], [-66.151347, -17.390466], [-66.151305, -17.390768], [-66.151242, -17.391177], [-66.151165, -17.391545], [-66.151073, -17.392015], [-66.151015, -17.392299], [-66.150956, -17.392635], [-66.150886, -17.393005], [-66.150815, -17.393377], [-66.150721, -17.393944], [-66.150674, -17.39425], [-66.150624, -17.394478], [-66.150549, -17.394869], [-66.150458, -17.39527], [-66.150372, -17.395719], [-66.150293, -17.396125], [-66.150218, -17.396538], [-66.150177, -17.396767], [-66.150108, -17.397176], [-66.150023, -17.397634], [-66.15001, -17.397692], [-66.149978, -17.398133], [-66.149939, -17.398645], [-66.149899, -17.39913], [-66.149861, -17.399716], [-66.149848, -17.39996], [-66.149785, -17.400026], [-66.149892, -17.400431], [-66.149903, -17.40048], [-66.149894, -17.400535], [-66.149857, -17.400603], [-66.149708, -17.400732], [-66.149507, -17.400913], [-66.14944, -17.400973], [-66.149367, -17.401063], [-66.149318, -17.401145], [-66.149267, -17.401249], [-66.149281, -17.401368], [-66.14934, -17.401595], [-66.149369, -17.401727], [-66.149377, -17.401771], [-66.14938, -17.401843], [-66.149403, -17.401934], [-66.149407, -17.401989], [-66.149383, -17.402044], [-66.149365, -17.402086], [-66.149367, -17.402116], [-66.149387, -17.402143], [-66.149426, -17.402103], [-66.149494, -17.402019], [-66.149526, -17.401949], [-66.149564, -17.401874], [-66.149607, -17.40173], [-66.149648, -17.40157], [-66.149672, -17.40146], [-66.149699, -17.40139], [-66.149768, -17.401308], [-66.149828, -17.401255], [-66.14988, -17.401224], [-66.149952, -17.401219], [-66.150024, -17.401222], [-66.150094, -17.401247], [-66.150156, -17.401295], [-66.150211, -17.401374], [-66.150251, -17.40146], [-66.150255, -17.401556], [-66.150248, -17.401669], [-66.150212, -17.401797], [-66.150151, -17.401953], [-66.150092, -17.402113], [-66.150007, -17.40228], [-66.149973, -17.402335], [-66.150056, -17.402372], [-66.15017, -17.402408], [-66.150293, -17.402404], [-66.150452, -17.402397], [-66.150539, -17.402403], [-66.150661, -17.402408], [-66.150743, -17.402408], [-66.150795, -17.402415], [-66.150835, -17.402433]]}, "properties": {}}]}