{"type": "FeatureCollection", "features": [{"type": "Feature", "properties": {"route_id": "10631287", "route_short_name": "51", "route_long_name": "MiniBus 51: Avenida Autonom\u00eda \u2192 Villa San Alfonso"}, "geometry": {"type": "LineString", "coordinates": [[-66.135607, -17.47043], [-66.135662, -17.470042], [-66.135677, -17.469885], [-66.135674, -17.46951], [-66.135685, -17.469343], [-66.135685, -17.468813], [-66.135668, -17.468368], [-66.135584, -17.468325], [-66.135462, -17.468268], [-66.135417, -17.468241], [-66.135378, -17.468201], [-66.135348, -17.468138], [-66.135341, -17.468081], [-66.135336, -17.468021], [-66.135329, -17.467971], [-66.135307, -17.467901], [-66.135299, -17.467847], [-66.135301, -17.467796], [-66.135315, -17.467745], [-66.135346, -17.467662], [-66.135428, -17.467489], [-66.135667, -17.466988], [-66.135923, -17.466466], [-66.136059, -17.466141], [-66.136089, -17.466035], [-66.136156, -17.465773], [-66.136187, -17.465704], [-66.136244, -17.465639], [-66.136574, -17.465387], [-66.136596, -17.465346], [-66.136595, -17.465306], [-66.136546, -17.465225], [-66.136533, -17.465184], [-66.136539, -17.465152], [-66.136565, -17.465116], [-66.136918, -17.464843], [-66.136297, -17.464043], [-66.136081, -17.46376], [-66.135779, -17.463394], [-66.135549, -17.463138], [-66.13548, -17.463085], [-66.135436, -17.463054], [-66.135377, -17.463025], [-66.135333, -17.463005], [-66.135288, -17.46297], [-66.135248, -17.462916], [-66.135211, -17.462823], [-66.135073, -17.46232], [-66.134787, -17.461268], [-66.134653, -17.460804], [-66.13449, -17.46024], [-66.134378, -17.459881], [-66.134382, -17.459671], [-66.134481, -17.4595], [-66.134592, -17.459346], [-66.134643, -17.459284], [-66.13467, -17.459243], [-66.134699, -17.459193], [-66.134712, -17.459148], [-66.134742, -17.458901], [-66.134771, -17.458685], [-66.134842, -17.458395], [-66.134894, -17.458202], [-66.134918, -17.458153], [-66.134965, -17.458142], [-66.135038, -17.458129], [-66.135177, -17.458125], [-66.135231, -17.458117], [-66.135291, -17.458104], [-66.135347, -17.458055], [-66.135769, -17.457123], [-66.135823, -17.457054], [-66.137185, -17.457114], [-66.138411, -17.457062], [-66.138515, -17.45703], [-66.138685, -17.456891], [-66.138755, -17.456835], [-66.139172, -17.456514], [-66.139303, -17.456434], [-66.139506, -17.456351], [-66.139828, -17.456285], [-66.140547, -17.456147], [-66.14183, -17.455901], [-66.142786, -17.455718], [-66.142517, -17.45466], [-66.141953, -17.45271], [-66.141736, -17.451916], [-66.141734, -17.451871], [-66.14177, -17.451785], [-66.1418, -17.451713], [-66.141812, -17.451628], [-66.141807, -17.451561], [-66.141757, -17.451241], [-66.141737, -17.451204], [-66.141702, -17.45117], [-66.141676, -17.451152], [-66.14163, -17.451141], [-66.14131, -17.451137], [-66.141273, -17.451132], [-66.141237, -17.451117], [-66.141201, -17.451081], [-66.141179, -17.451033], [-66.141105, -17.450265], [-66.140998, -17.449217], [-66.140953, -17.448713], [-66.140931, -17.448221], [-66.140939, -17.448146], [-66.140996, -17.447589], [-66.140977, -17.447559], [-66.140947, -17.447545], [-66.140907, -17.447543], [-66.140846, -17.44754], [-66.140816, -17.447535], [-66.140798, -17.447527], [-66.140781, -17.447514], [-66.140768, -17.447499], [-66.140758, -17.447475], [-66.140755, -17.447451], [-66.14076, -17.447427], [-66.140771, -17.447406], [-66.140787, -17.447388], [-66.140808, -17.447375], [-66.140875, -17.446244], [-66.140889, -17.446129], [-66.14092, -17.445951], [-66.141008, -17.445663], [-66.141061, -17.445521], [-66.141112, -17.445418], [-66.14121, -17.445265], [-66.141536, -17.44494], [-66.141631, -17.444825], [-66.141654, -17.444729], [-66.141642, -17.444605], [-66.141578, -17.444521], [-66.141423, -17.444337], [-66.141366, -17.444254], [-66.141161, -17.444032], [-66.140861, -17.443759], [-66.140833, -17.443738], [-66.140792, -17.443733], [-66.140753, -17.443741], [-66.140492, -17.443942], [-66.140133, -17.444192], [-66.139695, -17.444458], [-66.138894, -17.4449], [-66.137138, -17.445871], [-66.136239, -17.446378], [-66.136209, -17.446395], [-66.135402, -17.446839], [-66.13521, -17.446931], [-66.135111, -17.446995], [-66.134951, -17.447129], [-66.134885, -17.447183], [-66.134761, -17.447272], [-66.134687, -17.447315], [-66.134653, -17.447324], [-66.134618, -17.447321], [-66.134586, -17.447308], [-66.134559, -17.447287], [-66.134542, -17.447258], [-66.134535, -17.447225], [-66.134539, -17.447192], [-66.134554, -17.447162], [-66.134577, -17.447132], [-66.134636, -17.447098], [-66.134763, -17.44703], [-66.134881, -17.446972], [-66.135221, -17.446811], [-66.135289, -17.446792], [-66.135333, -17.44678], [-66.135387, -17.446752], [-66.135619, -17.446631], [-66.135901, -17.446479], [-66.136955, -17.445887], [-66.137257, -17.445718], [-66.13744, -17.445616], [-66.138862, -17.444822], [-66.139624, -17.444395], [-66.140103, -17.444109], [-66.140457, -17.443862], [-66.140692, -17.443673], [-66.140781, -17.443601], [-66.14103, -17.443375], [-66.142246, -17.442256], [-66.14231, -17.442201], [-66.142369, -17.44213], [-66.142401, -17.442078], [-66.142428, -17.442036], [-66.142501, -17.441906], [-66.142527, -17.44187], [-66.14259, -17.441802], [-66.142675, -17.441719], [-66.142714, -17.441686], [-66.142785, -17.441626], [-66.14298, -17.441488], [-66.143297, -17.441275], [-66.143397, -17.441185], [-66.143469, -17.441114], [-66.143557, -17.441029], [-66.143597, -17.440978], [-66.143624, -17.440944], [-66.14382, -17.440699], [-66.143995, -17.440435], [-66.144193, -17.440106], [-66.144212, -17.440072], [-66.144457, -17.439626], [-66.144856, -17.438912], [-66.144978, -17.438688], [-66.145084, -17.438519], [-66.145178, -17.438354], [-66.14525, -17.438213], [-66.145299, -17.438096], [-66.145345, -17.437993], [-66.145387, -17.437914], [-66.145442, -17.437807], [-66.145486, -17.437727], [-66.145575, -17.437613], [-66.145697, -17.437464], [-66.145918, -17.437209], [-66.146114, -17.436949], [-66.147339, -17.4353], [-66.147476, -17.435112], [-66.147932, -17.434489], [-66.148213, -17.434112], [-66.148527, -17.43369], [-66.148831, -17.433281], [-66.14923, -17.432744], [-66.149392, -17.432521], [-66.150031, -17.431682], [-66.150076, -17.431623], [-66.150243, -17.431364], [-66.150367, -17.431185], [-66.150423, -17.431105], [-66.150532, -17.430913], [-66.150748, -17.430506], [-66.150812, -17.430366], [-66.150909, -17.430102], [-66.150968, -17.429915], [-66.15102, -17.429817], [-66.151054, -17.429752], [-66.151107, -17.429634], [-66.151205, -17.429472], [-66.151295, -17.429342], [-66.151366, -17.429247], [-66.151432, -17.429182], [-66.151507, -17.429114], [-66.152039, -17.428621], [-66.152461, -17.42822], [-66.1527, -17.427972], [-66.152909, -17.427711], [-66.153068, -17.427467], [-66.153295, -17.427048], [-66.153379, -17.426876], [-66.153435, -17.426736], [-66.153524, -17.426482], [-66.153587, -17.426263], [-66.153693, -17.425864], [-66.153745, -17.425652], [-66.153775, -17.425501], [-66.15379, -17.425373], [-66.153814, -17.424963], [-66.153816, -17.424643], [-66.153814, -17.424367], [-66.153794, -17.423956], [-66.153761, -17.423641], [-66.153701, -17.42324], [-66.153533, -17.422413], [-66.153476, -17.422187], [-66.153432, -17.42206], [-66.15339, -17.421973], [-66.153312, -17.421854], [-66.153211, -17.421764], [-66.153182, -17.42174], [-66.153087, -17.421646], [-66.153042, -17.421593], [-66.153019, -17.421547], [-66.153006, -17.421501], [-66.153007, -17.421454], [-66.153021, -17.421409], [-66.153036, -17.421351], [-66.153057, -17.421267], [-66.153065, -17.421166], [-66.153057, -17.421039], [-66.153031, -17.420896], [-66.152931, -17.420655], [-66.152796, -17.420382], [-66.152612, -17.419982], [-66.152597, -17.419952], [-66.152478, -17.419719], [-66.152314, -17.419402], [-66.152183, -17.419166], [-66.151813, -17.418523], [-66.151701, -17.418313], [-66.151593, -17.418084], [-66.151559, -17.417976], [-66.151539, -17.417899], [-66.151529, -17.417838], [-66.151521, -17.417765], [-66.151517, -17.417669], [-66.151517, -17.417625], [-66.151519, -17.417497], [-66.151536, -17.417316], [-66.151545, -17.417199], [-66.15157, -17.417081], [-66.151569, -17.417045], [-66.151577, -17.417011], [-66.151572, -17.416849], [-66.151556, -17.416545], [-66.151454, -17.415614], [-66.151448, -17.415552], [-66.151276, -17.414022], [-66.151261, -17.413878], [-66.151179, -17.413273], [-66.151109, -17.412696], [-66.151068, -17.412381], [-66.150996, -17.411915], [-66.150954, -17.411529], [-66.150836, -17.410495], [-66.150872, -17.410433], [-66.150924, -17.410392], [-66.150976, -17.41038], [-66.151028, -17.410396], [-66.151799, -17.410919], [-66.152629, -17.411454], [-66.153291, -17.411875], [-66.153365, -17.411899], [-66.153431, -17.411905], [-66.153471, -17.411895], [-66.1535, -17.411849], [-66.153561, -17.411786], [-66.153604, -17.411771], [-66.153639, -17.411785], [-66.153653, -17.411827], [-66.153664, -17.411966], [-66.153688, -17.412037], [-66.153745, -17.412092], [-66.153869, -17.412158], [-66.153899, -17.412175], [-66.154605, -17.412548], [-66.154925, -17.412748], [-66.15524, -17.412919], [-66.155336, -17.41299], [-66.155595, -17.413077], [-66.155655, -17.413095], [-66.155687, -17.412961], [-66.155779, -17.412296], [-66.15582, -17.412159], [-66.155828, -17.412033], [-66.155875, -17.411548], [-66.155925, -17.411204], [-66.155961, -17.411004], [-66.155973, -17.410807], [-66.155994, -17.410651], [-66.156059, -17.410112], [-66.156188, -17.40929], [-66.156209, -17.409158], [-66.156324, -17.408398], [-66.156391, -17.407897], [-66.156402, -17.407758], [-66.156408, -17.407674], [-66.156417, -17.407578], [-66.156419, -17.407471], [-66.156393, -17.407327], [-66.156186, -17.406089], [-66.155968, -17.40497], [-66.155783, -17.404114], [-66.155649, -17.403486], [-66.155537, -17.402966], [-66.155537, -17.402826], [-66.155513, -17.402717], [-66.155497, -17.402642], [-66.155476, -17.402549], [-66.155468, -17.402503], [-66.155452, -17.402434], [-66.155439, -17.402374], [-66.15542, -17.402301], [-66.155316, -17.402192], [-66.155307, -17.401651], [-66.155285, -17.401299], [-66.155201, -17.400649], [-66.155177, -17.40015], [-66.155175, -17.400035], [-66.155179, -17.39997], [-66.155189, -17.399895], [-66.155283, -17.399341], [-66.155304, -17.399247], [-66.15547, -17.39841], [-66.155586, -17.397868], [-66.155693, -17.397366], [-66.15678, -17.397562], [-66.157828, -17.397769], [-66.157881, -17.397779], [-66.157889, -17.39773], [-66.158032, -17.396755], [-66.158039, -17.396701], [-66.158045, -17.396656], [-66.158192, -17.395699], [-66.158199, -17.395655], [-66.158205, -17.395615], [-66.158379, -17.394609], [-66.158578, -17.393617], [-66.158584, -17.393568], [-66.15859, -17.393498], [-66.158596, -17.393464], [-66.158758, -17.392695], [-66.15877, -17.392632], [-66.158786, -17.392542], [-66.158796, -17.392491], [-66.159011, -17.391503], [-66.159019, -17.391465], [-66.158963, -17.391457], [-66.158535, -17.391385], [-66.157962, -17.391288], [-66.157761, -17.392314], [-66.157753, -17.392363], [-66.157797, -17.392371], [-66.158706, -17.392529], [-66.158786, -17.392542], [-66.158879, -17.392559], [-66.15894, -17.39257], [-66.159876, -17.392724], [-66.15992, -17.392731], [-66.159972, -17.39274], [-66.161004, -17.392913], [-66.161061, -17.392926], [-66.161129, -17.392944], [-66.161993, -17.393095], [-66.162063, -17.393107], [-66.163928, -17.393418], [-66.164921, -17.393602], [-66.165917, -17.393779], [-66.166231, -17.39383], [-66.166439, -17.393829], [-66.16661, -17.393841], [-66.166791, -17.393901], [-66.166842, -17.393916], [-66.166937, -17.393937], [-66.167351, -17.393978], [-66.167446, -17.393974], [-66.167566, -17.393955], [-66.167642, -17.393945], [-66.167797, -17.393916], [-66.167983, -17.393884], [-66.168452, -17.39386], [-66.168603, -17.393852], [-66.168686, -17.393847], [-66.16904, -17.393829], [-66.170294, -17.393778], [-66.170407, -17.393766], [-66.170544, -17.393744], [-66.170598, -17.393719], [-66.170657, -17.393711], [-66.170715, -17.393721], [-66.170768, -17.393749], [-66.170889, -17.393784], [-66.17108, -17.393821], [-66.171181, -17.393835], [-66.17129, -17.393838], [-66.173912, -17.39372], [-66.174359, -17.393702], [-66.174412, -17.3937], [-66.176206, -17.39362], [-66.176443, -17.39361], [-66.176576, -17.393604], [-66.176802, -17.393594], [-66.177511, -17.393564], [-66.178586, -17.393512], [-66.179906, -17.393454], [-66.179978, -17.393452], [-66.180952, -17.393404], [-66.181751, -17.393373], [-66.182342, -17.393271], [-66.183099, -17.393242], [-66.183751, -17.393215], [-66.18395, -17.393209], [-66.184016, -17.393196], [-66.184075, -17.393166], [-66.184088, -17.39315], [-66.184119, -17.393124], [-66.184159, -17.3931], [-66.18421, -17.393081], [-66.184264, -17.393073], [-66.184318, -17.393075], [-66.184357, -17.393083], [-66.184412, -17.393107], [-66.184448, -17.393131], [-66.184514, -17.393158], [-66.18458, -17.393171], [-66.184755, -17.393166], [-66.185423, -17.393143], [-66.185764, -17.393131], [-66.186412, -17.393171], [-66.186639, -17.393159], [-66.187412, -17.393127], [-66.188857, -17.393063], [-66.189274, -17.393044], [-66.191125, -17.392965], [-66.192135, -17.39292], [-66.193899, -17.392841], [-66.194723, -17.392809], [-66.19693, -17.392708], [-66.197091, -17.392701], [-66.198926, -17.392621], [-66.199474, -17.392591], [-66.199594, -17.392585], [-66.199678, -17.39258], [-66.199816, -17.392573], [-66.200191, -17.392555], [-66.203618, -17.392406], [-66.205091, -17.392353], [-66.207361, -17.39225], [-66.208005, -17.392221], [-66.208092, -17.392218], [-66.20809, -17.392053], [-66.208025, -17.390823], [-66.207958, -17.389771], [-66.20794, -17.389542], [-66.207916, -17.388276], [-66.207905, -17.387571], [-66.2079, -17.387217], [-66.207885, -17.386318], [-66.207886, -17.385359], [-66.207878, -17.384433], [-66.207879, -17.384368], [-66.207932, -17.384375], [-66.207982, -17.384372], [-66.208006, -17.384368], [-66.208541, -17.38431], [-66.208937, -17.384266], [-66.209062, -17.384248], [-66.209068, -17.384335], [-66.208933, -17.384351]]}}]}