{"type":"FeatureCollection","features":[{"type":"Feature","properties":{},"geometry":{"type":"LineString","coordinates":[[-66.226445,-17.333111],[-66.226173,-17.333121],[-66.226188,-17.333483],[-66.226205,-17.333882],[-66.226165,-17.333964],[-66.226161,-17.334059],[-66.226173,-17.334263],[-66.226184,-17.334695],[-66.226196,-17.335136],[-66.226206,-17.335455],[-66.226212,-17.335805],[-66.225992,-17.335859],[-66.225661,-17.335945],[-66.225422,-17.336007],[-66.224987,-17.336121],[-66.224828,-17.33616],[-66.224416,-17.336259],[-66.223969,-17.336368],[-66.223556,-17.336484],[-66.223064,-17.336621],[-66.222703,-17.33672],[-66.222328,-17.336821],[-66.222149,-17.336871],[-66.221795,-17.336952],[-66.22148,-17.337035],[-66.221268,-17.337086],[-66.22085,-17.337191],[-66.220956,-17.337498],[-66.221096,-17.337913],[-66.221348,-17.338646],[-66.220949,-17.338762],[-66.220597,-17.338868],[-66.2203,-17.338954],[-66.219996,-17.339045],[-66.219592,-17.339206],[-66.21938,-17.33929],[-66.219182,-17.339367],[-66.218863,-17.339477],[-66.218534,-17.339552],[-66.218149,-17.339654],[-66.217782,-17.339756],[-66.217755,-17.339763],[-66.217668,-17.339791],[-66.217208,-17.339959],[-66.216564,-17.340194],[-66.216006,-17.340394],[-66.215562,-17.340558],[-66.215433,-17.340607],[-66.215055,-17.340746],[-66.214532,-17.340938],[-66.214142,-17.341081],[-66.214083,-17.341111],[-66.214001,-17.341174],[-66.213778,-17.341257],[-66.213693,-17.341298],[-66.213403,-17.3414],[-66.213191,-17.341487],[-66.212822,-17.341632],[-66.212432,-17.341798],[-66.212208,-17.341908],[-66.211921,-17.342061],[-66.21163,-17.342221],[-66.211344,-17.342371],[-66.211204,-17.342444],[-66.211026,-17.342538],[-66.210648,-17.342702],[-66.210305,-17.342858],[-66.209875,-17.343052],[-66.209526,-17.34321],[-66.209312,-17.343302],[-66.20888,-17.343498],[-66.208628,-17.343611],[-66.208548,-17.343641],[-66.2079,-17.343912],[-66.207351,-17.344138],[-66.206974,-17.344304],[-66.206847,-17.344354],[-66.206446,-17.344497],[-66.205991,-17.344688],[-66.2056,-17.344874],[-66.205496,-17.344921],[-66.2051,-17.345049],[-66.204868,-17.345142],[-66.204212,-17.345402],[-66.203656,-17.345669],[-66.203287,-17.345849],[-66.202776,-17.346096],[-66.202676,-17.346141],[-66.202369,-17.346271],[-66.201954,-17.346439],[-66.201475,-17.346637],[-66.201079,-17.346797],[-66.200519,-17.347034],[-66.199976,-17.347243],[-66.199523,-17.347436],[-66.19904,-17.347633],[-66.198615,-17.34781],[-66.19822,-17.347971],[-66.197703,-17.348183],[-66.19724,-17.348373],[-66.196777,-17.348573],[-66.196511,-17.348703],[-66.196003,-17.34899],[-66.195484,-17.349265],[-66.19489,-17.34957],[-66.19434,-17.349866],[-66.193848,-17.350137],[-66.193298,-17.350443],[-66.192789,-17.350748],[-66.19229,-17.35108],[-66.191837,-17.351381],[-66.191535,-17.351586],[-66.191176,-17.351856],[-66.190858,-17.352093],[-66.190514,-17.352361],[-66.190141,-17.352664],[-66.189873,-17.352879],[-66.189578,-17.353112],[-66.189225,-17.353395],[-66.188794,-17.353737],[-66.18839,-17.354048],[-66.188053,-17.354306],[-66.187847,-17.354472],[-66.187732,-17.354565],[-66.187653,-17.35462],[-66.187577,-17.354679],[-66.187432,-17.354794],[-66.187105,-17.355051],[-66.186632,-17.355424],[-66.186239,-17.355725],[-66.185898,-17.355991],[-66.18547,-17.356317],[-66.185097,-17.356584],[-66.184907,-17.356737],[-66.184797,-17.356829],[-66.184705,-17.356937],[-66.184638,-17.357024],[-66.184439,-17.357335],[-66.184196,-17.357705],[-66.184065,-17.35791],[-66.183951,-17.358068],[-66.183727,-17.358383],[-66.183519,-17.35867],[-66.183402,-17.358837],[-66.183308,-17.358963],[-66.183245,-17.359035],[-66.183127,-17.359189],[-66.18306,-17.359311],[-66.182963,-17.359504],[-66.182828,-17.359785],[-66.182665,-17.360123],[-66.182552,-17.360357],[-66.182422,-17.360628],[-66.182258,-17.360957],[-66.182162,-17.361161],[-66.182114,-17.361264],[-66.181985,-17.361471],[-66.181871,-17.361654],[-66.181773,-17.361824],[-66.181591,-17.362105],[-66.181498,-17.362248],[-66.181443,-17.362318],[-66.181376,-17.362385],[-66.18108,-17.362734],[-66.180819,-17.362989],[-66.180656,-17.363139],[-66.180432,-17.363312],[-66.180143,-17.363537],[-66.179725,-17.363863],[-66.179438,-17.36406],[-66.179293,-17.364155],[-66.179003,-17.364309],[-66.178758,-17.364439],[-66.178658,-17.364479],[-66.178569,-17.364503],[-66.178369,-17.364567],[-66.177989,-17.36469],[-66.177553,-17.364823],[-66.177191,-17.364933],[-66.176671,-17.365088],[-66.176185,-17.365236],[-66.175561,-17.365422],[-66.17521,-17.365527],[-66.175148,-17.365546],[-66.175014,-17.365587],[-66.174823,-17.365637],[-66.174573,-17.365656],[-66.173915,-17.365701],[-66.173386,-17.365734],[-66.173158,-17.365748],[-66.172566,-17.365779],[-66.172167,-17.365802],[-66.171861,-17.365819],[-66.171507,-17.365847],[-66.171294,-17.365861],[-66.171145,-17.365895],[-66.170846,-17.365984],[-66.170517,-17.366081],[-66.170362,-17.366114],[-66.170174,-17.366135],[-66.169954,-17.366123],[-66.169794,-17.366108],[-66.169681,-17.366086],[-66.169499,-17.366045],[-66.169366,-17.365998],[-66.169232,-17.36595],[-66.169091,-17.365898],[-66.169052,-17.365886],[-66.168882,-17.36585],[-66.168772,-17.36583],[-66.168722,-17.36582],[-66.16856,-17.365814],[-66.168295,-17.365795],[-66.16796,-17.365784],[-66.167886,-17.365776],[-66.167795,-17.365781],[-66.167691,-17.365795],[-66.167626,-17.365814],[-66.167492,-17.365862],[-66.167348,-17.365943],[-66.167136,-17.366059],[-66.166982,-17.366146],[-66.166863,-17.36622],[-66.166668,-17.366334],[-66.166482,-17.366469],[-66.166208,-17.366653],[-66.166079,-17.366745],[-66.165869,-17.366902],[-66.16566,-17.367054],[-66.16548,-17.367183],[-66.165212,-17.367375],[-66.164874,-17.367613],[-66.164529,-17.367858],[-66.164316,-17.368009],[-66.164164,-17.368125],[-66.164087,-17.368199],[-66.164062,-17.368238],[-66.164045,-17.368275],[-66.164052,-17.368317],[-66.164057,-17.368371],[-66.164057,-17.368421],[-66.164053,-17.368464],[-66.164053,-17.368518],[-66.164066,-17.368737],[-66.164072,-17.369072],[-66.164076,-17.369507],[-66.164081,-17.369976],[-66.164084,-17.370446],[-66.164085,-17.37057],[-66.164078,-17.37076],[-66.164073,-17.371033],[-66.16405,-17.371176],[-66.164018,-17.371414],[-66.163976,-17.371631],[-66.16395,-17.371792],[-66.163909,-17.37195],[-66.163845,-17.372162],[-66.163781,-17.372381],[-66.163746,-17.372481],[-66.163494,-17.372499],[-66.163204,-17.372518],[-66.162876,-17.372538],[-66.162693,-17.372549],[-66.162301,-17.372569],[-66.16181,-17.372604],[-66.161453,-17.372627],[-66.161227,-17.372639],[-66.160753,-17.372674],[-66.160602,-17.372679],[-66.160236,-17.372706],[-66.159716,-17.372741],[-66.159355,-17.372762],[-66.15917,-17.372771],[-66.158745,-17.372801],[-66.158425,-17.372817],[-66.157902,-17.372852],[-66.157346,-17.372886],[-66.157262,-17.372893],[-66.157208,-17.372894],[-66.157166,-17.372916],[-66.157148,-17.372934],[-66.157135,-17.372981],[-66.157123,-17.373015],[-66.157094,-17.373044],[-66.157068,-17.37308],[-66.157029,-17.373109],[-66.156993,-17.373132],[-66.156945,-17.37315],[-66.156894,-17.373161],[-66.156871,-17.373168],[-66.156887,-17.373448],[-66.156889,-17.373733],[-66.156902,-17.373991],[-66.156908,-17.374405],[-66.156918,-17.374892],[-66.156929,-17.375194],[-66.15694,-17.375512],[-66.15695,-17.37588],[-66.156955,-17.376111],[-66.156964,-17.376377],[-66.156973,-17.376838],[-66.15698,-17.377007],[-66.156983,-17.377145],[-66.156993,-17.377478],[-66.157004,-17.37783],[-66.15702,-17.378116],[-66.157019,-17.378382],[-66.157032,-17.378761],[-66.157036,-17.379131],[-66.157044,-17.379555],[-66.157051,-17.379916],[-66.157085,-17.380042],[-66.157093,-17.380314],[-66.157095,-17.380439],[-66.157046,-17.380676],[-66.156989,-17.38089],[-66.156937,-17.381191],[-66.156871,-17.381544],[-66.156836,-17.381711],[-66.156824,-17.381822],[-66.156811,-17.381896],[-66.156775,-17.381965],[-66.156618,-17.382162],[-66.156524,-17.382285],[-66.156472,-17.382307],[-66.156317,-17.382515],[-66.156121,-17.382768],[-66.155981,-17.382943],[-66.155715,-17.383287],[-66.155553,-17.383494],[-66.155792,-17.383645],[-66.156076,-17.383835],[-66.156319,-17.383999],[-66.156482,-17.384109],[-66.156326,-17.384322],[-66.156154,-17.384545],[-66.156002,-17.384754],[-66.155784,-17.385041],[-66.155585,-17.385305],[-66.155454,-17.385483],[-66.155245,-17.385756],[-66.155046,-17.386014],[-66.154795,-17.386346],[-66.154688,-17.386492],[-66.154606,-17.386602],[-66.154432,-17.386994],[-66.154286,-17.38732],[-66.154249,-17.387396],[-66.154168,-17.387793],[-66.154088,-17.388196],[-66.154029,-17.388434],[-66.153624,-17.388342],[-66.153206,-17.388247],[-66.152859,-17.388176],[-66.15248,-17.388086],[-66.151903,-17.387954],[-66.151771,-17.387923],[-66.151742,-17.388126],[-66.151677,-17.388531],[-66.151606,-17.38897],[-66.151582,-17.389092],[-66.151507,-17.389527],[-66.15145,-17.389819],[-66.151387,-17.390171],[-66.151347,-17.390466],[-66.151305,-17.390768],[-66.151242,-17.391177],[-66.151165,-17.391545],[-66.151073,-17.392015],[-66.151015,-17.392299],[-66.150956,-17.392635],[-66.150886,-17.393005],[-66.150815,-17.393377],[-66.150721,-17.393944],[-66.150674,-17.39425],[-66.150624,-17.394478],[-66.150549,-17.394869],[-66.150458,-17.39527],[-66.150372,-17.395719],[-66.150293,-17.396125],[-66.150218,-17.396538],[-66.150177,-17.396767],[-66.150108,-17.397176],[-66.150023,-17.397634],[-66.15001,-17.397692],[-66.149978,-17.398133],[-66.149939,-17.398645],[-66.149899,-17.39913],[-66.149861,-17.399716],[-66.149848,-17.39996],[-66.149785,-17.400026],[-66.149892,-17.400431],[-66.149903,-17.40048],[-66.149894,-17.400535],[-66.149857,-17.400603],[-66.149708,-17.400732],[-66.149507,-17.400913],[-66.14944,-17.400973],[-66.149367,-17.401063],[-66.149318,-17.401145],[-66.149267,-17.401249],[-66.149281,-17.401368],[-66.14934,-17.401595],[-66.149369,-17.401727],[-66.149377,-17.401771],[-66.14938,-17.401843],[-66.149403,-17.401934],[-66.149407,-17.401989],[-66.149383,-17.402044],[-66.149365,-17.402086],[-66.149367,-17.402116],[-66.149387,-17.402143],[-66.149426,-17.402103],[-66.149494,-17.402019],[-66.149526,-17.401949],[-66.149564,-17.401874],[-66.149607,-17.40173],[-66.149648,-17.40157],[-66.149672,-17.40146],[-66.149699,-17.40139],[-66.149768,-17.401308],[-66.149828,-17.401255],[-66.14988,-17.401224],[-66.149952,-17.401219],[-66.150024,-17.401222],[-66.150094,-17.401247],[-66.150156,-17.401295],[-66.150211,-17.401374],[-66.150251,-17.40146],[-66.150255,-17.401556],[-66.150248,-17.401669],[-66.150212,-17.401797],[-66.150151,-17.401953],[-66.150092,-17.402113],[-66.150007,-17.40228],[-66.149973,-17.402335],[-66.150056,-17.402372],[-66.15017,-17.402408],[-66.150293,-17.402404],[-66.150452,-17.402397],[-66.150539,-17.402403],[-66.150661,-17.402408],[-66.150743,-17.402408],[-66.150795,-17.402415],[-66.150835,-17.402433]]}}]}