{"type":"FeatureCollection","features":[{"type":"Feature","properties":{},"geometry":{"type":"LineString","coordinates":[[-66.239576,-17.393429],[-66.238782,-17.391084],[-66.238739,-17.3911],[-66.238668,-17.391084],[-66.238613,-17.391037],[-66.238584,-17.390988],[-66.238581,-17.390927],[-66.238603,-17.390866],[-66.238635,-17.390835],[-66.238694,-17.390804],[-66.238679,-17.390741],[-66.238085,-17.388909],[-66.236969,-17.38542],[-66.23587,-17.382077],[-66.235805,-17.3819],[-66.234807,-17.37889],[-66.233997,-17.376341],[-66.231755,-17.369798],[-66.231047,-17.367617],[-66.230328,-17.365415],[-66.229185,-17.361918],[-66.228805,-17.360705]]}}]}