{"type":"FeatureCollection","features":[{"type":"Feature","properties":{},"geometry":{"type":"LineString","coordinates":[[-66.183937,-17.396168],[-66.184806,-17.396173],[-66.184999,-17.396096],[-66.185122,-17.396035],[-66.18524,-17.396035],[-66.185326,-17.396096],[-66.185787,-17.396168],[-66.187531,-17.396393],[-66.188759,-17.396557],[-66.189741,-17.396644],[-66.191248,-17.396721],[-66.192042,-17.396746],[-66.194317,-17.39689],[-66.197594,-17.397064],[-66.198072,-17.397089],[-66.199933,-17.397171],[-66.201172,-17.397233],[-66.203275,-17.397038],[-66.204906,-17.396977],[-66.206827,-17.397018],[-66.209632,-17.397069],[-66.210372,-17.397079],[-66.212277,-17.39711],[-66.214149,-17.397094],[-66.214482,-17.397038],[-66.215742,-17.397023],[-66.218333,-17.396982],[-66.218634,-17.396977],[-66.219857,-17.396787],[-66.221133,-17.396618],[-66.222024,-17.39647],[-66.222453,-17.396326],[-66.223902,-17.395748],[-66.224749,-17.395431],[-66.225763,-17.395083],[-66.226391,-17.394888],[-66.226525,-17.394857],[-66.226997,-17.39476],[-66.227372,-17.394653],[-66.229266,-17.393931],[-66.230747,-17.393583],[-66.231744,-17.393316],[-66.233686,-17.393255],[-66.236197,-17.393194],[-66.237109,-17.393245],[-66.238214,-17.393403],[-66.239185,-17.39347],[-66.239587,-17.39346],[-66.23878,-17.391084],[-66.238718,-17.391092],[-66.238638,-17.391072],[-66.238592,-17.390992],[-66.238584,-17.390905],[-66.23863,-17.390844],[-66.238697,-17.390795]]}}]}