{"type":"FeatureCollection","features":[{"type":"Feature","properties":{},"geometry":{"type":"LineString","coordinates":[[-66.157629,-17.399336],[-66.158198,-17.395733],[-66.158777,-17.392549],[-66.163938,-17.393429],[-66.16573,-17.393744],[-66.166164,-17.393823],[-66.166309,-17.393823],[-66.166467,-17.393823],[-66.166604,-17.393841],[-66.166762,-17.39388],[-66.166913,-17.393931],[-66.167342,-17.393977],[-66.167543,-17.393961],[-66.167784,-17.393918],[-66.167967,-17.39388],[-66.16809,-17.393874],[-66.168112,-17.394166],[-66.167921,-17.394164],[-66.167833,-17.39422],[-66.167752,-17.394271],[-66.167715,-17.394348],[-66.167723,-17.394509],[-66.167739,-17.39478],[-66.167744,-17.394865],[-66.167739,-17.395036],[-66.167841,-17.395615],[-66.167924,-17.396068],[-66.168015,-17.396259],[-66.168067,-17.396329],[-66.168213,-17.396426],[-66.16826,-17.396458],[-66.168358,-17.396495],[-66.168454,-17.396522],[-66.16853,-17.396535],[-66.168686,-17.396554],[-66.168762,-17.396566],[-66.168934,-17.396536],[-66.169057,-17.396526],[-66.169292,-17.396513],[-66.169488,-17.396509],[-66.170786,-17.396475],[-66.173559,-17.396408],[-66.175198,-17.396365],[-66.17545,-17.396357],[-66.17615,-17.396342],[-66.181297,-17.396255],[-66.181705,-17.396239],[-66.182319,-17.396232],[-66.184492,-17.396181],[-66.184768,-17.396181],[-66.184883,-17.396158],[-66.185015,-17.396096],[-66.185085,-17.396058],[-66.185146,-17.396035],[-66.185221,-17.396045],[-66.18531,-17.396091],[-66.185406,-17.396114],[-66.185487,-17.396129],[-66.1862,-17.396229],[-66.186922,-17.396326]]}}]}