{"type":"FeatureCollection","features":[{"type":"Feature","properties":{},"geometry":{"type":"LineString","coordinates":[[-66.189988,-17.398932],[-66.189129,-17.398999],[-66.188545,-17.397637],[-66.188394,-17.397355],[-66.188212,-17.396726],[-66.188212,-17.396644],[-66.185535,-17.396255],[-66.185374,-17.396291],[-66.185303,-17.396328],[-66.185251,-17.396352],[-66.185189,-17.396376],[-66.185114,-17.39637],[-66.185052,-17.396342],[-66.185018,-17.396297],[-66.184992,-17.396234],[-66.184993,-17.396175],[-66.185003,-17.396131],[-66.185005,-17.396021],[-66.184869,-17.395607],[-66.184727,-17.395272],[-66.184728,-17.395176],[-66.184564,-17.394681],[-66.184385,-17.394092],[-66.184237,-17.393611],[-66.184205,-17.393557],[-66.184094,-17.393505],[-66.184051,-17.393439],[-66.18402,-17.393331],[-66.18403,-17.393238],[-66.184089,-17.393142],[-66.184096,-17.393084],[-66.184098,-17.393026],[-66.184077,-17.392943],[-66.183981,-17.392693],[-66.183778,-17.392174],[-66.183636,-17.391731],[-66.183621,-17.391689],[-66.183564,-17.391543],[-66.18352,-17.391435],[-66.183466,-17.391275],[-66.183455,-17.391133],[-66.183392,-17.390945],[-66.183259,-17.390583],[-66.183045,-17.390007],[-66.182785,-17.389235],[-66.182597,-17.388684],[-66.182418,-17.38816],[-66.182275,-17.387728],[-66.182205,-17.387616],[-66.182169,-17.387536],[-66.182093,-17.387396],[-66.182094,-17.387338],[-66.182109,-17.38728],[-66.182133,-17.38718],[-66.182145,-17.387081],[-66.182121,-17.386862],[-66.182056,-17.386403],[-66.181983,-17.385827],[-66.181898,-17.385191],[-66.181816,-17.384579],[-66.181741,-17.383988],[-66.18171,-17.383774],[-66.181616,-17.383219],[-66.181587,-17.382894],[-66.181566,-17.382688],[-66.181525,-17.382115],[-66.18148,-17.381469],[-66.18143,-17.380906],[-66.181388,-17.380407],[-66.181344,-17.379839],[-66.181329,-17.379612],[-66.181229,-17.379054],[-66.18112,-17.378443],[-66.181024,-17.377894],[-66.18097,-17.377578],[-66.180848,-17.376885],[-66.18082,-17.376754],[-66.180781,-17.376275],[-66.180734,-17.375762],[-66.180672,-17.375091],[-66.180631,-17.374757],[-66.180597,-17.374587],[-66.180473,-17.374046],[-66.180356,-17.373516],[-66.180262,-17.373113],[-66.180204,-17.372871],[-66.180109,-17.372432],[-66.17999,-17.371866],[-66.179899,-17.371455],[-66.179274,-17.37149],[-66.178437,-17.37154],[-66.177648,-17.371592],[-66.176711,-17.371647],[-66.175897,-17.371698],[-66.175265,-17.371739],[-66.174629,-17.371775],[-66.173826,-17.371829],[-66.17295,-17.371885],[-66.172296,-17.371929],[-66.172253,-17.371934],[-66.17217,-17.371954],[-66.172112,-17.37199],[-66.172029,-17.372009],[-66.171936,-17.372],[-66.171892,-17.371968],[-66.171809,-17.371961],[-66.171598,-17.371976],[-66.171208,-17.372007],[-66.170387,-17.372055],[-66.169534,-17.372109],[-66.168522,-17.372174],[-66.168476,-17.372227],[-66.168436,-17.372255],[-66.168373,-17.372262],[-66.168327,-17.372245],[-66.168282,-17.372199]]}},{"type":"Feature","properties":{},"geometry":{"type":"LineString","coordinates":[[-66.168279,-17.372194],[-66.167937,-17.372212],[-66.167622,-17.372236],[-66.166911,-17.372281],[-66.166091,-17.372329],[-66.165567,-17.372369],[-66.164444,-17.372437],[-66.163497,-17.372497],[-66.162773,-17.372548],[-66.162698,-17.372542],[-66.16257,-17.372556],[-66.162508,-17.372557],[-66.162471,-17.372564],[-66.162255,-17.372571],[-66.161241,-17.372642],[-66.160845,-17.372666],[-66.160588,-17.372677],[-66.160513,-17.372689],[-66.160101,-17.372715],[-66.159271,-17.372768],[-66.158649,-17.372803],[-66.157902,-17.372853],[-66.157243,-17.372889],[-66.157198,-17.3729],[-66.157144,-17.372927],[-66.157131,-17.372989],[-66.157105,-17.373032],[-66.157072,-17.373072],[-66.157042,-17.373102],[-66.157007,-17.373128],[-66.156937,-17.373156],[-66.156868,-17.373169],[-66.156782,-17.373159],[-66.156709,-17.373122],[-66.156665,-17.373086],[-66.156626,-17.373047],[-66.156593,-17.372996],[-66.156563,-17.372942],[-66.156339,-17.372955],[-66.155697,-17.373001],[-66.154946,-17.373051],[-66.154424,-17.373085],[-66.153675,-17.373117],[-66.152756,-17.373183],[-66.152152,-17.373221],[-66.151334,-17.373279],[-66.151143,-17.373288],[-66.150956,-17.373303],[-66.150907,-17.373311],[-66.150428,-17.373335],[-66.14981,-17.373372],[-66.149756,-17.373384],[-66.149725,-17.373399],[-66.149704,-17.373424],[-66.149682,-17.373445],[-66.149647,-17.373463],[-66.149594,-17.37348],[-66.149537,-17.373465],[-66.14949,-17.373443],[-66.149466,-17.373411],[-66.1494,-17.373406],[-66.149363,-17.373398],[-66.148994,-17.373425],[-66.148506,-17.373458],[-66.147621,-17.373507],[-66.146754,-17.37357],[-66.146616,-17.373576],[-66.145993,-17.373618],[-66.145855,-17.373626],[-66.145455,-17.37365],[-66.144854,-17.373691],[-66.144378,-17.373723],[-66.14402,-17.373745],[-66.143403,-17.373787],[-66.143349,-17.373803],[-66.143284,-17.373842],[-66.143258,-17.373907],[-66.143231,-17.373951],[-66.143183,-17.373996],[-66.143143,-17.374032],[-66.143093,-17.374064],[-66.143015,-17.374084],[-66.14294,-17.374093],[-66.14282,-17.374079],[-66.142733,-17.374024],[-66.142647,-17.373951],[-66.142602,-17.373875],[-66.142597,-17.373846],[-66.142466,-17.373828],[-66.142405,-17.373826],[-66.14212,-17.373842],[-66.141563,-17.37387],[-66.140957,-17.373905],[-66.14019,-17.373956],[-66.1399,-17.373971],[-66.138972,-17.374029],[-66.138591,-17.374051],[-66.138464,-17.37406],[-66.138118,-17.374079],[-66.137512,-17.374117],[-66.137372,-17.374133],[-66.137288,-17.374151],[-66.137147,-17.374192]]}},{"type":"Feature","properties":{},"geometry":{"type":"LineString","coordinates":[[-66.137137,-17.37419],[-66.137035,-17.374221],[-66.136974,-17.3743],[-66.136858,-17.374306],[-66.136789,-17.374247],[-66.136746,-17.374057],[-66.136789,-17.373535],[-66.136832,-17.373105],[-66.136826,-17.372997],[-66.13681,-17.372926],[-66.136765,-17.372864],[-66.136687,-17.372816],[-66.13663,-17.37278],[-66.136448,-17.3728],[-66.135938,-17.372864],[-66.135743,-17.372864],[-66.134348,-17.372616],[-66.133337,-17.372414],[-66.13317,-17.372416],[-66.133058,-17.372432],[-66.132672,-17.372537],[-66.13224,-17.372654],[-66.13187,-17.372747],[-66.131537,-17.372859],[-66.130893,-17.373182],[-66.130716,-17.373197],[-66.130309,-17.373233],[-66.129965,-17.373248],[-66.129515,-17.37334],[-66.129069,-17.373506],[-66.128878,-17.373549],[-66.128919,-17.373849],[-66.128983,-17.374327],[-66.129032,-17.374659],[-66.129061,-17.374774],[-66.129115,-17.374866],[-66.12923,-17.374917],[-66.129308,-17.374956],[-66.129348,-17.375033],[-66.129362,-17.37513],[-66.129324,-17.375194],[-66.12919,-17.375268],[-66.129059,-17.375286],[-66.128887,-17.375309],[-66.128739,-17.375391],[-66.128493,-17.375557],[-66.127538,-17.376233],[-66.126315,-17.377086],[-66.124982,-17.378022],[-66.123901,-17.378752],[-66.122718,-17.379504],[-66.121387,-17.380385],[-66.120923,-17.380695],[-66.120771,-17.380856],[-66.120663,-17.380999],[-66.120516,-17.381199],[-66.120358,-17.381371],[-66.120041,-17.381478],[-66.119725,-17.381504],[-66.119287,-17.381591],[-66.118547,-17.381895],[-66.117718,-17.382162],[-66.117101,-17.382305],[-66.115961,-17.38254],[-66.114915,-17.38276],[-66.113797,-17.382978],[-66.112574,-17.383242],[-66.111176,-17.383534],[-66.109717,-17.383828],[-66.109701,-17.383905],[-66.109645,-17.383974],[-66.10957,-17.384025],[-66.10943,-17.384017],[-66.109369,-17.383984],[-66.109334,-17.383917],[-66.108277,-17.384112],[-66.107199,-17.38434],[-66.105723,-17.384624],[-66.104777,-17.384811],[-66.103055,-17.385169],[-66.099683,-17.385853],[-66.099286,-17.385975],[-66.09787,-17.386303],[-66.096936,-17.386467],[-66.096421,-17.386457],[-66.0911,-17.387552],[-66.086519,-17.388504],[-66.085746,-17.388771],[-66.084845,-17.388934],[-66.083783,-17.389139],[-66.079899,-17.389887],[-66.075071,-17.390951],[-66.068494,-17.392231],[-66.063999,-17.393142],[-66.062883,-17.39348],[-66.061875,-17.393675],[-66.060308,-17.394238],[-66.058871,-17.395077],[-66.057771,-17.395786],[-66.056904,-17.396273],[-66.055797,-17.396961],[-66.055212,-17.397321],[-66.053088,-17.398604],[-66.051977,-17.399275],[-66.051189,-17.399587],[-66.051119,-17.3997],[-66.050647,-17.399797],[-66.049971,-17.400089],[-66.048115,-17.400898],[-66.045728,-17.401937],[-66.045202,-17.402157],[-66.045084,-17.402172],[-66.043062,-17.403022],[-66.041635,-17.403662],[-66.040652,-17.404047],[-66.040538,-17.404069],[-66.040154,-17.404242],[-66.040047,-17.40435]]}}]}