{
  "type": "FeatureCollection",
  "features": [
    {
      "type": "Feature",
      "properties": {
        "route_id": "9405802",
        "route_short_name": "016",
        "route_long_name": "Trufi 016: Puente Khora \u2192 Calle Litoral"
      },
      "geometry": {
        "type": "LineString",
        "coordinates": [
          [
            -66.213422,
            -17.341375
          ],
          [
            -66.213359,
            -17.341399
          ],
          [
            -66.212911,
            -17.341572
          ],
          [
            -66.212488,
            -17.341777
          ],
          [
            -66.212451,
            -17.341795
          ],
          [
            -66.212404,
            -17.341814
          ],
          [
            -66.212223,
            -17.341905
          ],
          [
            -66.212185,
            -17.341921
          ],
          [
            -66.211608,
            -17.34222
          ],
          [
            -66.211128,
            -17.342443
          ],
          [
            -66.211035,
            -17.342488
          ],
          [
            -66.208597,
            -17.343578
          ],
          [
            -66.207906,
            -17.343874
          ],
          [
            -66.207836,
            -17.343904
          ],
          [
            -66.207248,
            -17.344152
          ],
          [
            -66.206973,
            -17.344282
          ],
          [
            -66.20685,
            -17.344337
          ],
          [
            -66.206444,
            -17.344501
          ],
          [
            -66.20623,
            -17.344584
          ],
          [
            -66.206194,
            -17.344598
          ],
          [
            -66.20613,
            -17.344625
          ],
          [
            -66.205448,
            -17.344895
          ],
          [
            -66.204903,
            -17.345117
          ],
          [
            -66.204339,
            -17.345351
          ],
          [
            -66.20428,
            -17.345374
          ],
          [
            -66.204211,
            -17.345404
          ],
          [
            -66.204156,
            -17.345429
          ],
          [
            -66.203661,
            -17.345667
          ],
          [
            -66.202994,
            -17.345991
          ],
          [
            -66.202706,
            -17.346128
          ],
          [
            -66.202516,
            -17.34621
          ],
          [
            -66.202352,
            -17.34628
          ],
          [
            -66.202283,
            -17.346304
          ],
          [
            -66.20049,
            -17.347044
          ],
          [
            -66.200273,
            -17.347134
          ],
          [
            -66.199964,
            -17.347248
          ],
          [
            -66.199902,
            -17.347271
          ],
          [
            -66.199801,
            -17.347313
          ],
          [
            -66.199686,
            -17.347358
          ],
          [
            -66.199641,
            -17.347376
          ],
          [
            -66.198624,
            -17.347809
          ],
          [
            -66.198355,
            -17.347913
          ],
          [
            -66.197545,
            -17.348249
          ],
          [
            -66.196919,
            -17.348508
          ],
          [
            -66.196677,
            -17.348621
          ],
          [
            -66.196522,
            -17.348698
          ],
          [
            -66.195907,
            -17.349044
          ],
          [
            -66.1947,
            -17.349671
          ],
          [
            -66.194167,
            -17.349962
          ],
          [
            -66.193915,
            -17.3501
          ],
          [
            -66.19352,
            -17.350316
          ],
          [
            -66.193244,
            -17.350475
          ],
          [
            -66.192937,
            -17.350654
          ],
          [
            -66.192621,
            -17.35086
          ],
          [
            -66.192372,
            -17.351023
          ],
          [
            -66.19229,
            -17.351079
          ],
          [
            -66.191998,
            -17.351275
          ],
          [
            -66.191734,
            -17.351452
          ],
          [
            -66.191544,
            -17.351583
          ],
          [
            -66.191332,
            -17.35174
          ],
          [
            -66.190714,
            -17.352201
          ],
          [
            -66.189963,
            -17.35281
          ],
          [
            -66.189896,
            -17.352864
          ],
          [
            -66.189773,
            -17.352958
          ],
          [
            -66.188986,
            -17.353587
          ],
          [
            -66.188921,
            -17.353639
          ],
          [
            -66.188086,
            -17.354274
          ],
          [
            -66.18789,
            -17.354423
          ],
          [
            -66.187854,
            -17.354462
          ],
          [
            -66.187759,
            -17.354597
          ],
          [
            -66.187733,
            -17.354641
          ],
          [
            -66.187706,
            -17.354659
          ],
          [
            -66.187672,
            -17.354675
          ],
          [
            -66.187626,
            -17.354682
          ],
          [
            -66.187543,
            -17.354729
          ],
          [
            -66.187488,
            -17.354758
          ],
          [
            -66.187141,
            -17.355024
          ],
          [
            -66.186476,
            -17.355535
          ],
          [
            -66.185915,
            -17.355976
          ],
          [
            -66.185611,
            -17.356214
          ],
          [
            -66.185144,
            -17.35655
          ],
          [
            -66.184936,
            -17.35671
          ],
          [
            -66.184801,
            -17.356831
          ],
          [
            -66.184719,
            -17.356927
          ],
          [
            -66.184674,
            -17.356982
          ],
          [
            -66.184574,
            -17.357114
          ],
          [
            -66.184219,
            -17.35763
          ],
          [
            -66.183744,
            -17.358324
          ],
          [
            -66.183421,
            -17.358814
          ],
          [
            -66.183236,
            -17.359028
          ],
          [
            -66.183192,
            -17.359081
          ],
          [
            -66.183134,
            -17.359154
          ],
          [
            -66.183059,
            -17.359261
          ],
          [
            -66.183015,
            -17.359338
          ],
          [
            -66.182949,
            -17.359476
          ],
          [
            -66.182649,
            -17.360126
          ],
          [
            -66.182211,
            -17.361014
          ],
          [
            -66.182095,
            -17.361252
          ],
          [
            -66.182057,
            -17.361311
          ],
          [
            -66.181752,
            -17.361818
          ],
          [
            -66.18163,
            -17.362024
          ],
          [
            -66.181481,
            -17.36223
          ],
          [
            -66.181259,
            -17.36252
          ],
          [
            -66.181034,
            -17.362765
          ],
          [
            -66.180824,
            -17.362991
          ],
          [
            -66.180654,
            -17.36314
          ],
          [
            -66.180434,
            -17.363309
          ],
          [
            -66.179986,
            -17.36366
          ],
          [
            -66.179677,
            -17.3639
          ],
          [
            -66.179423,
            -17.364078
          ],
          [
            -66.179134,
            -17.364237
          ],
          [
            -66.178971,
            -17.364323
          ],
          [
            -66.178758,
            -17.364437
          ],
          [
            -66.178623,
            -17.364489
          ],
          [
            -66.178568,
            -17.364505
          ],
          [
            -66.178353,
            -17.364571
          ],
          [
            -66.177977,
            -17.364683
          ],
          [
            -66.176792,
            -17.365041
          ],
          [
            -66.176754,
            -17.365053
          ],
          [
            -66.176655,
            -17.365083
          ],
          [
            -66.176535,
            -17.365121
          ],
          [
            -66.176474,
            -17.365139
          ],
          [
            -66.17516,
            -17.365542
          ],
          [
            -66.175014,
            -17.365589
          ],
          [
            -66.174918,
            -17.365615
          ],
          [
            -66.174781,
            -17.365645
          ],
          [
            -66.173324,
            -17.36574
          ],
          [
            -66.171798,
            -17.365827
          ],
          [
            -66.17156,
            -17.365844
          ],
          [
            -66.171415,
            -17.365855
          ],
          [
            -66.171303,
            -17.365866
          ],
          [
            -66.17115,
            -17.365898
          ],
          [
            -66.170556,
            -17.366068
          ],
          [
            -66.17039,
            -17.366106
          ],
          [
            -66.170215,
            -17.366125
          ],
          [
            -66.169994,
            -17.366127
          ],
          [
            -66.169799,
            -17.366111
          ],
          [
            -66.169604,
            -17.366074
          ],
          [
            -66.169333,
            -17.365991
          ],
          [
            -66.169187,
            -17.365938
          ],
          [
            -66.168955,
            -17.365866
          ],
          [
            -66.168734,
            -17.36583
          ],
          [
            -66.168565,
            -17.365816
          ],
          [
            -66.167953,
            -17.365761
          ],
          [
            -66.167801,
            -17.365773
          ],
          [
            -66.167643,
            -17.365805
          ],
          [
            -66.1675,
            -17.365855
          ],
          [
            -66.166968,
            -17.366139
          ],
          [
            -66.166684,
            -17.366326
          ],
          [
            -66.166331,
            -17.366568
          ],
          [
            -66.166121,
            -17.366717
          ],
          [
            -66.165837,
            -17.366928
          ],
          [
            -66.165123,
            -17.367435
          ],
          [
            -66.164249,
            -17.368057
          ],
          [
            -66.164157,
            -17.368131
          ],
          [
            -66.164089,
            -17.368196
          ],
          [
            -66.164035,
            -17.368262
          ],
          [
            -66.16405,
            -17.368325
          ],
          [
            -66.164055,
            -17.368424
          ],
          [
            -66.164041,
            -17.368517
          ],
          [
            -66.164022,
            -17.368577
          ],
          [
            -66.163988,
            -17.368632
          ],
          [
            -66.163927,
            -17.368708
          ],
          [
            -66.163883,
            -17.368751
          ],
          [
            -66.163826,
            -17.368816
          ],
          [
            -66.163797,
            -17.368861
          ],
          [
            -66.163757,
            -17.368921
          ],
          [
            -66.163734,
            -17.368975
          ],
          [
            -66.163589,
            -17.369499
          ],
          [
            -66.16331,
            -17.370427
          ],
          [
            -66.162963,
            -17.371627
          ],
          [
            -66.16275,
            -17.372366
          ],
          [
            -66.162724,
            -17.372453
          ],
          [
            -66.162697,
            -17.372548
          ],
          [
            -66.162668,
            -17.372642
          ],
          [
            -66.162647,
            -17.372715
          ],
          [
            -66.16198,
            -17.375005
          ],
          [
            -66.161913,
            -17.37522
          ],
          [
            -66.161886,
            -17.375306
          ],
          [
            -66.161849,
            -17.375428
          ],
          [
            -66.161827,
            -17.375498
          ],
          [
            -66.161548,
            -17.376453
          ],
          [
            -66.161352,
            -17.377128
          ],
          [
            -66.161152,
            -17.377817
          ],
          [
            -66.1611,
            -17.377993
          ],
          [
            -66.161078,
            -17.378075
          ],
          [
            -66.161027,
            -17.378256
          ],
          [
            -66.160737,
            -17.379244
          ],
          [
            -66.160421,
            -17.380327
          ],
          [
            -66.160388,
            -17.380454
          ],
          [
            -66.160384,
            -17.380521
          ],
          [
            -66.160395,
            -17.380571
          ],
          [
            -66.160434,
            -17.380703
          ],
          [
            -66.160445,
            -17.380747
          ],
          [
            -66.160451,
            -17.380788
          ],
          [
            -66.160449,
            -17.380831
          ],
          [
            -66.160432,
            -17.380879
          ],
          [
            -66.160394,
            -17.380945
          ],
          [
            -66.160348,
            -17.381026
          ],
          [
            -66.160324,
            -17.381095
          ],
          [
            -66.160303,
            -17.381155
          ],
          [
            -66.160284,
            -17.381209
          ],
          [
            -66.160265,
            -17.381271
          ],
          [
            -66.160255,
            -17.381306
          ],
          [
            -66.160149,
            -17.381663
          ],
          [
            -66.160139,
            -17.381699
          ],
          [
            -66.160118,
            -17.381778
          ],
          [
            -66.160107,
            -17.381844
          ],
          [
            -66.1601,
            -17.381917
          ],
          [
            -66.160102,
            -17.382008
          ],
          [
            -66.160124,
            -17.382136
          ],
          [
            -66.160147,
            -17.382213
          ],
          [
            -66.160147,
            -17.382293
          ],
          [
            -66.160134,
            -17.382365
          ],
          [
            -66.160105,
            -17.382433
          ],
          [
            -66.160049,
            -17.382493
          ],
          [
            -66.159948,
            -17.382564
          ],
          [
            -66.159811,
            -17.382667
          ],
          [
            -66.159744,
            -17.382741
          ],
          [
            -66.1597,
            -17.382801
          ],
          [
            -66.159604,
            -17.382936
          ],
          [
            -66.159491,
            -17.383083
          ],
          [
            -66.159325,
            -17.383296
          ],
          [
            -66.159292,
            -17.383339
          ],
          [
            -66.159241,
            -17.383405
          ],
          [
            -66.15909,
            -17.383596
          ],
          [
            -66.158875,
            -17.383893
          ],
          [
            -66.158834,
            -17.383948
          ],
          [
            -66.158793,
            -17.384001
          ],
          [
            -66.158446,
            -17.38444
          ],
          [
            -66.158365,
            -17.384554
          ],
          [
            -66.158256,
            -17.384691
          ],
          [
            -66.158175,
            -17.384799
          ],
          [
            -66.158068,
            -17.38494
          ],
          [
            -66.158018,
            -17.385084
          ],
          [
            -66.157978,
            -17.385289
          ],
          [
            -66.157952,
            -17.385397
          ],
          [
            -66.158003,
            -17.385422
          ],
          [
            -66.158876,
            -17.385882
          ],
          [
            -66.158914,
            -17.3859
          ],
          [
            -66.15896,
            -17.385913
          ],
          [
            -66.160067,
            -17.386105
          ],
          [
            -66.16014,
            -17.386116
          ],
          [
            -66.160222,
            -17.386128
          ],
          [
            -66.161089,
            -17.386281
          ],
          [
            -66.161784,
            -17.386392
          ],
          [
            -66.162184,
            -17.386458
          ],
          [
            -66.162217,
            -17.386531
          ],
          [
            -66.162238,
            -17.386608
          ],
          [
            -66.162228,
            -17.386678
          ],
          [
            -66.162034,
            -17.387663
          ],
          [
            -66.162024,
            -17.387715
          ],
          [
            -66.162011,
            -17.387779
          ],
          [
            -66.161854,
            -17.388552
          ],
          [
            -66.161843,
            -17.388614
          ],
          [
            -66.161831,
            -17.388672
          ],
          [
            -66.161662,
            -17.389563
          ],
          [
            -66.161625,
            -17.389739
          ],
          [
            -66.161421,
            -17.390773
          ],
          [
            -66.161241,
            -17.39182
          ],
          [
            -66.161071,
            -17.392859
          ],
          [
            -66.161061,
            -17.392926
          ],
          [
            -66.161047,
            -17.393009
          ],
          [
            -66.161038,
            -17.393062
          ],
          [
            -66.160992,
            -17.393344
          ],
          [
            -66.160862,
            -17.393944
          ],
          [
            -66.160635,
            -17.395006
          ],
          [
            -66.160432,
            -17.396064
          ],
          [
            -66.160232,
            -17.397084
          ],
          [
            -66.160069,
            -17.398173
          ],
          [
            -66.160322,
            -17.398222
          ],
          [
            -66.160321,
            -17.398393
          ],
          [
            -66.160315,
            -17.399319
          ],
          [
            -66.160307,
            -17.399387
          ],
          [
            -66.160299,
            -17.399444
          ],
          [
            -66.160295,
            -17.39948
          ],
          [
            -66.160284,
            -17.399505
          ],
          [
            -66.160262,
            -17.399524
          ],
          [
            -66.160224,
            -17.399539
          ],
          [
            -66.160128,
            -17.399539
          ],
          [
            -66.160063,
            -17.399539
          ],
          [
            -66.160006,
            -17.39954
          ],
          [
            -66.159251,
            -17.399522
          ],
          [
            -66.158666,
            -17.399515
          ],
          [
            -66.15781,
            -17.399491
          ],
          [
            -66.157729,
            -17.399487
          ],
          [
            -66.157636,
            -17.399482
          ],
          [
            -66.157568,
            -17.399479
          ],
          [
            -66.156846,
            -17.399579
          ],
          [
            -66.156742,
            -17.399592
          ],
          [
            -66.156599,
            -17.399596
          ],
          [
            -66.156402,
            -17.399592
          ],
          [
            -66.155335,
            -17.399349
          ],
          [
            -66.155283,
            -17.399341
          ],
          [
            -66.155229,
            -17.399325
          ],
          [
            -66.154206,
            -17.399084
          ],
          [
            -66.153184,
            -17.398846
          ],
          [
            -66.153125,
            -17.39883
          ],
          [
            -66.152748,
            -17.398736
          ],
          [
            -66.15272,
            -17.398727
          ],
          [
            -66.152659,
            -17.398707
          ],
          [
            -66.152219,
            -17.398546
          ],
          [
            -66.152079,
            -17.398505
          ],
          [
            -66.151998,
            -17.398495
          ],
          [
            -66.151842,
            -17.398499
          ],
          [
            -66.151085,
            -17.39854
          ],
          [
            -66.150657,
            -17.398596
          ],
          [
            -66.150467,
            -17.398591
          ],
          [
            -66.149941,
            -17.398553
          ],
          [
            -66.148493,
            -17.398455
          ],
          [
            -66.148328,
            -17.398445
          ],
          [
            -66.148149,
            -17.398422
          ],
          [
            -66.147977,
            -17.398394
          ],
          [
            -66.147828,
            -17.398358
          ],
          [
            -66.147654,
            -17.398294
          ],
          [
            -66.147434,
            -17.398206
          ],
          [
            -66.147362,
            -17.398568
          ],
          [
            -66.147197,
            -17.399392
          ],
          [
            -66.147129,
            -17.399727
          ],
          [
            -66.14708,
            -17.39972
          ],
          [
            -66.14678,
            -17.399681
          ],
          [
            -66.146342,
            -17.399625
          ],
          [
            -66.146322,
            -17.399622
          ],
          [
            -66.146259,
            -17.399614
          ],
          [
            -66.146137,
            -17.399597
          ],
          [
            -66.14609,
            -17.39959
          ],
          [
            -66.145795,
            -17.399548
          ],
          [
            -66.145575,
            -17.399516
          ],
          [
            -66.144511,
            -17.399374
          ],
          [
            -66.143966,
            -17.399299
          ],
          [
            -66.143166,
            -17.39919
          ],
          [
            -66.142946,
            -17.400136
          ]
        ]
      }
    }
  ]
}