{
  "type": "FeatureCollection",
  "features": [
    {
      "type": "Feature",
      "properties": {
        "route_id": "9124161",
        "route_short_name": "1",
        "route_long_name": "MiniBus 1: Avenida Humberto Asin \u2192 Calle Ciudad del ni\u00f1o"
      },
      "geometry": {
        "type": "LineString",
        "coordinates": [
          [
            -66.11662,
            -17.441595
          ],
          [
            -66.11815,
            -17.441744
          ],
          [
            -66.118898,
            -17.441864
          ],
          [
            -66.120082,
            -17.441978
          ],
          [
            -66.12008,
            -17.442032
          ],
          [
            -66.120268,
            -17.442048
          ],
          [
            -66.120258,
            -17.442641
          ],
          [
            -66.121954,
            -17.443033
          ],
          [
            -66.122065,
            -17.442903
          ],
          [
            -66.122084,
            -17.443064
          ],
          [
            -66.12213,
            -17.443446
          ],
          [
            -66.122409,
            -17.443431
          ],
          [
            -66.123043,
            -17.443576
          ],
          [
            -66.123215,
            -17.44362
          ],
          [
            -66.123777,
            -17.443789
          ],
          [
            -66.12393,
            -17.443802
          ],
          [
            -66.124141,
            -17.443791
          ],
          [
            -66.12514,
            -17.443611
          ],
          [
            -66.125213,
            -17.443602
          ],
          [
            -66.125219,
            -17.444555
          ],
          [
            -66.125221,
            -17.444639
          ],
          [
            -66.125265,
            -17.44652
          ],
          [
            -66.125815,
            -17.446678
          ],
          [
            -66.126222,
            -17.446797
          ],
          [
            -66.126754,
            -17.446943
          ],
          [
            -66.127269,
            -17.447094
          ],
          [
            -66.127332,
            -17.446973
          ],
          [
            -66.127431,
            -17.446876
          ],
          [
            -66.127556,
            -17.446813
          ],
          [
            -66.127695,
            -17.44679
          ],
          [
            -66.127836,
            -17.446809
          ],
          [
            -66.128244,
            -17.445384
          ],
          [
            -66.129168,
            -17.445646
          ],
          [
            -66.130146,
            -17.445915
          ],
          [
            -66.131583,
            -17.446302
          ],
          [
            -66.13272,
            -17.446624
          ],
          [
            -66.132843,
            -17.446659
          ],
          [
            -66.134303,
            -17.447049
          ],
          [
            -66.134401,
            -17.447076
          ],
          [
            -66.134469,
            -17.447084
          ],
          [
            -66.134525,
            -17.447089
          ],
          [
            -66.134636,
            -17.447098
          ],
          [
            -66.134763,
            -17.44703
          ],
          [
            -66.134881,
            -17.446972
          ],
          [
            -66.135221,
            -17.446811
          ],
          [
            -66.135289,
            -17.446792
          ],
          [
            -66.135333,
            -17.44678
          ],
          [
            -66.135387,
            -17.446752
          ],
          [
            -66.135619,
            -17.446631
          ],
          [
            -66.135901,
            -17.446479
          ],
          [
            -66.136955,
            -17.445887
          ],
          [
            -66.137257,
            -17.445718
          ],
          [
            -66.13744,
            -17.445616
          ],
          [
            -66.138862,
            -17.444822
          ],
          [
            -66.139624,
            -17.444395
          ],
          [
            -66.140103,
            -17.444109
          ],
          [
            -66.140457,
            -17.443862
          ],
          [
            -66.140692,
            -17.443673
          ],
          [
            -66.140781,
            -17.443601
          ],
          [
            -66.14103,
            -17.443375
          ],
          [
            -66.142246,
            -17.442256
          ],
          [
            -66.14231,
            -17.442201
          ],
          [
            -66.142369,
            -17.44213
          ],
          [
            -66.142401,
            -17.442078
          ],
          [
            -66.142428,
            -17.442036
          ],
          [
            -66.142501,
            -17.441906
          ],
          [
            -66.142527,
            -17.44187
          ],
          [
            -66.14259,
            -17.441802
          ],
          [
            -66.142675,
            -17.441719
          ],
          [
            -66.142714,
            -17.441686
          ],
          [
            -66.142785,
            -17.441626
          ],
          [
            -66.14298,
            -17.441488
          ],
          [
            -66.143297,
            -17.441275
          ],
          [
            -66.143397,
            -17.441185
          ],
          [
            -66.143469,
            -17.441114
          ],
          [
            -66.143557,
            -17.441029
          ],
          [
            -66.143597,
            -17.440978
          ],
          [
            -66.143624,
            -17.440944
          ],
          [
            -66.14382,
            -17.440699
          ],
          [
            -66.143995,
            -17.440435
          ],
          [
            -66.144193,
            -17.440106
          ],
          [
            -66.144212,
            -17.440072
          ],
          [
            -66.144457,
            -17.439626
          ],
          [
            -66.144856,
            -17.438912
          ],
          [
            -66.144978,
            -17.438688
          ],
          [
            -66.145084,
            -17.438519
          ],
          [
            -66.145178,
            -17.438354
          ],
          [
            -66.14525,
            -17.438213
          ],
          [
            -66.145299,
            -17.438096
          ],
          [
            -66.145345,
            -17.437993
          ],
          [
            -66.145387,
            -17.437914
          ],
          [
            -66.145442,
            -17.437807
          ],
          [
            -66.145486,
            -17.437727
          ],
          [
            -66.145575,
            -17.437613
          ],
          [
            -66.145697,
            -17.437464
          ],
          [
            -66.145918,
            -17.437209
          ],
          [
            -66.146114,
            -17.436949
          ],
          [
            -66.147339,
            -17.4353
          ],
          [
            -66.147476,
            -17.435112
          ],
          [
            -66.147932,
            -17.434489
          ],
          [
            -66.148213,
            -17.434112
          ],
          [
            -66.148527,
            -17.43369
          ],
          [
            -66.148831,
            -17.433281
          ],
          [
            -66.14923,
            -17.432744
          ],
          [
            -66.149392,
            -17.432521
          ],
          [
            -66.150031,
            -17.431682
          ],
          [
            -66.150076,
            -17.431623
          ],
          [
            -66.150243,
            -17.431364
          ],
          [
            -66.150367,
            -17.431185
          ],
          [
            -66.150423,
            -17.431105
          ],
          [
            -66.150532,
            -17.430913
          ],
          [
            -66.150748,
            -17.430506
          ],
          [
            -66.150812,
            -17.430366
          ],
          [
            -66.150909,
            -17.430102
          ],
          [
            -66.150968,
            -17.429915
          ],
          [
            -66.15102,
            -17.429817
          ],
          [
            -66.151054,
            -17.429752
          ],
          [
            -66.151107,
            -17.429634
          ],
          [
            -66.151205,
            -17.429472
          ],
          [
            -66.151295,
            -17.429342
          ],
          [
            -66.151366,
            -17.429247
          ],
          [
            -66.151432,
            -17.429182
          ],
          [
            -66.151507,
            -17.429114
          ],
          [
            -66.152039,
            -17.428621
          ],
          [
            -66.152461,
            -17.42822
          ],
          [
            -66.1527,
            -17.427972
          ],
          [
            -66.152909,
            -17.427711
          ],
          [
            -66.153068,
            -17.427467
          ],
          [
            -66.153295,
            -17.427048
          ],
          [
            -66.153379,
            -17.426876
          ],
          [
            -66.153435,
            -17.426736
          ],
          [
            -66.153524,
            -17.426482
          ],
          [
            -66.153587,
            -17.426263
          ],
          [
            -66.153693,
            -17.425864
          ],
          [
            -66.153745,
            -17.425652
          ],
          [
            -66.153775,
            -17.425501
          ],
          [
            -66.15379,
            -17.425373
          ],
          [
            -66.153814,
            -17.424963
          ],
          [
            -66.153816,
            -17.424643
          ],
          [
            -66.153814,
            -17.424367
          ],
          [
            -66.153794,
            -17.423956
          ],
          [
            -66.153761,
            -17.423641
          ],
          [
            -66.153701,
            -17.42324
          ],
          [
            -66.153533,
            -17.422413
          ],
          [
            -66.153476,
            -17.422187
          ],
          [
            -66.153432,
            -17.42206
          ],
          [
            -66.15339,
            -17.421973
          ],
          [
            -66.153312,
            -17.421854
          ],
          [
            -66.153211,
            -17.421764
          ],
          [
            -66.153182,
            -17.42174
          ],
          [
            -66.153087,
            -17.421646
          ],
          [
            -66.153042,
            -17.421593
          ],
          [
            -66.153019,
            -17.421547
          ],
          [
            -66.153006,
            -17.421501
          ],
          [
            -66.153007,
            -17.421454
          ],
          [
            -66.153021,
            -17.421409
          ],
          [
            -66.153036,
            -17.421351
          ],
          [
            -66.153057,
            -17.421267
          ],
          [
            -66.153065,
            -17.421166
          ],
          [
            -66.153057,
            -17.421039
          ],
          [
            -66.153031,
            -17.420896
          ],
          [
            -66.152931,
            -17.420655
          ],
          [
            -66.152796,
            -17.420382
          ],
          [
            -66.152612,
            -17.419982
          ],
          [
            -66.152597,
            -17.419952
          ],
          [
            -66.152478,
            -17.419719
          ],
          [
            -66.152314,
            -17.419402
          ],
          [
            -66.152183,
            -17.419166
          ],
          [
            -66.151813,
            -17.418523
          ],
          [
            -66.151701,
            -17.418313
          ],
          [
            -66.151593,
            -17.418084
          ],
          [
            -66.151559,
            -17.417976
          ],
          [
            -66.151539,
            -17.417899
          ],
          [
            -66.151529,
            -17.417838
          ],
          [
            -66.151521,
            -17.417765
          ],
          [
            -66.151517,
            -17.417669
          ],
          [
            -66.151517,
            -17.417625
          ],
          [
            -66.151519,
            -17.417497
          ],
          [
            -66.151536,
            -17.417316
          ],
          [
            -66.151545,
            -17.417199
          ],
          [
            -66.15157,
            -17.417081
          ],
          [
            -66.151569,
            -17.417045
          ],
          [
            -66.151577,
            -17.417011
          ],
          [
            -66.151592,
            -17.416976
          ],
          [
            -66.151615,
            -17.416945
          ],
          [
            -66.151644,
            -17.41692
          ],
          [
            -66.151679,
            -17.416901
          ],
          [
            -66.151717,
            -17.41689
          ],
          [
            -66.15181,
            -17.416842
          ],
          [
            -66.151894,
            -17.416791
          ],
          [
            -66.151961,
            -17.416725
          ],
          [
            -66.152028,
            -17.416647
          ],
          [
            -66.15289,
            -17.415552
          ],
          [
            -66.153037,
            -17.415364
          ],
          [
            -66.153134,
            -17.415198
          ],
          [
            -66.15322,
            -17.415029
          ],
          [
            -66.153287,
            -17.414889
          ],
          [
            -66.153372,
            -17.414695
          ],
          [
            -66.153436,
            -17.41453
          ],
          [
            -66.153501,
            -17.414285
          ],
          [
            -66.153537,
            -17.414151
          ],
          [
            -66.153591,
            -17.413929
          ],
          [
            -66.153605,
            -17.413722
          ],
          [
            -66.153612,
            -17.413154
          ],
          [
            -66.153569,
            -17.411149
          ],
          [
            -66.153499,
            -17.410295
          ],
          [
            -66.153484,
            -17.409979
          ],
          [
            -66.153479,
            -17.409859
          ],
          [
            -66.153411,
            -17.408299
          ],
          [
            -66.153385,
            -17.407559
          ],
          [
            -66.153376,
            -17.407055
          ],
          [
            -66.153342,
            -17.406101
          ],
          [
            -66.153317,
            -17.405283
          ],
          [
            -66.153303,
            -17.404861
          ],
          [
            -66.153302,
            -17.404799
          ],
          [
            -66.153296,
            -17.403607
          ],
          [
            -66.153297,
            -17.403542
          ],
          [
            -66.153293,
            -17.403209
          ],
          [
            -66.153319,
            -17.403127
          ],
          [
            -66.15332,
            -17.403075
          ],
          [
            -66.15332,
            -17.402958
          ],
          [
            -66.15332,
            -17.402878
          ],
          [
            -66.15332,
            -17.40281
          ],
          [
            -66.153319,
            -17.402737
          ],
          [
            -66.153322,
            -17.402658
          ],
          [
            -66.153323,
            -17.402572
          ],
          [
            -66.153325,
            -17.402501
          ],
          [
            -66.153323,
            -17.402429
          ],
          [
            -66.153324,
            -17.402364
          ],
          [
            -66.153324,
            -17.40229
          ],
          [
            -66.153295,
            -17.401383
          ],
          [
            -66.15325,
            -17.400725
          ],
          [
            -66.153227,
            -17.399898
          ],
          [
            -66.153197,
            -17.399102
          ],
          [
            -66.153192,
            -17.398998
          ],
          [
            -66.153184,
            -17.398846
          ],
          [
            -66.153188,
            -17.398769
          ],
          [
            -66.153253,
            -17.398424
          ],
          [
            -66.153322,
            -17.398064
          ],
          [
            -66.153532,
            -17.397006
          ],
          [
            -66.153732,
            -17.395947
          ],
          [
            -66.153922,
            -17.394892
          ],
          [
            -66.154001,
            -17.394466
          ],
          [
            -66.154011,
            -17.394412
          ],
          [
            -66.154112,
            -17.393861
          ],
          [
            -66.154297,
            -17.392943
          ],
          [
            -66.154313,
            -17.392865
          ],
          [
            -66.154321,
            -17.392824
          ],
          [
            -66.154328,
            -17.392791
          ],
          [
            -66.154493,
            -17.391925
          ],
          [
            -66.1545,
            -17.391876
          ],
          [
            -66.154518,
            -17.391787
          ],
          [
            -66.154529,
            -17.391726
          ],
          [
            -66.154722,
            -17.39071
          ],
          [
            -66.154916,
            -17.38972
          ],
          [
            -66.154921,
            -17.389693
          ],
          [
            -66.155119,
            -17.388731
          ],
          [
            -66.155132,
            -17.388666
          ],
          [
            -66.155149,
            -17.388571
          ],
          [
            -66.155222,
            -17.388161
          ],
          [
            -66.155316,
            -17.387676
          ],
          [
            -66.155337,
            -17.387584
          ],
          [
            -66.155523,
            -17.387616
          ],
          [
            -66.155582,
            -17.387609
          ],
          [
            -66.155628,
            -17.387594
          ],
          [
            -66.155683,
            -17.387569
          ],
          [
            -66.155811,
            -17.38741
          ],
          [
            -66.156447,
            -17.386541
          ],
          [
            -66.156503,
            -17.386465
          ],
          [
            -66.156608,
            -17.386333
          ],
          [
            -66.157584,
            -17.385016
          ],
          [
            -66.157653,
            -17.384924
          ],
          [
            -66.157692,
            -17.38487
          ],
          [
            -66.157773,
            -17.384766
          ],
          [
            -66.158485,
            -17.383789
          ],
          [
            -66.158529,
            -17.383729
          ],
          [
            -66.158565,
            -17.383682
          ],
          [
            -66.159147,
            -17.382915
          ],
          [
            -66.159366,
            -17.382617
          ],
          [
            -66.159389,
            -17.382586
          ],
          [
            -66.159408,
            -17.382554
          ],
          [
            -66.159444,
            -17.382482
          ],
          [
            -66.159455,
            -17.382366
          ],
          [
            -66.159451,
            -17.382231
          ],
          [
            -66.159457,
            -17.382162
          ],
          [
            -66.159487,
            -17.382101
          ],
          [
            -66.159538,
            -17.382038
          ],
          [
            -66.159627,
            -17.381971
          ],
          [
            -66.159723,
            -17.381927
          ],
          [
            -66.159806,
            -17.38188
          ],
          [
            -66.159864,
            -17.381847
          ],
          [
            -66.159926,
            -17.381785
          ],
          [
            -66.159974,
            -17.381712
          ],
          [
            -66.159998,
            -17.381654
          ],
          [
            -66.160007,
            -17.381625
          ],
          [
            -66.160104,
            -17.381266
          ],
          [
            -66.160113,
            -17.381231
          ],
          [
            -66.160118,
            -17.381162
          ],
          [
            -66.160104,
            -17.381052
          ],
          [
            -66.160081,
            -17.380973
          ],
          [
            -66.160052,
            -17.380923
          ],
          [
            -66.160035,
            -17.380896
          ],
          [
            -66.160023,
            -17.380862
          ],
          [
            -66.160015,
            -17.380781
          ],
          [
            -66.160025,
            -17.380729
          ],
          [
            -66.160048,
            -17.38068
          ],
          [
            -66.160084,
            -17.38064
          ],
          [
            -66.160117,
            -17.380616
          ],
          [
            -66.160157,
            -17.380586
          ],
          [
            -66.160216,
            -17.380543
          ],
          [
            -66.160249,
            -17.380499
          ],
          [
            -66.160273,
            -17.380442
          ],
          [
            -66.160915,
            -17.378227
          ],
          [
            -66.160967,
            -17.378046
          ],
          [
            -66.160991,
            -17.377965
          ],
          [
            -66.161051,
            -17.377775
          ],
          [
            -66.161244,
            -17.377126
          ],
          [
            -66.161454,
            -17.376395
          ],
          [
            -66.1616,
            -17.375896
          ],
          [
            -66.161744,
            -17.375403
          ],
          [
            -66.161782,
            -17.375272
          ],
          [
            -66.161874,
            -17.374972
          ],
          [
            -66.162213,
            -17.373859
          ],
          [
            -66.162557,
            -17.372644
          ],
          [
            -66.162589,
            -17.372554
          ],
          [
            -66.162617,
            -17.372462
          ],
          [
            -66.162644,
            -17.37237
          ],
          [
            -66.162862,
            -17.371602
          ],
          [
            -66.162892,
            -17.371488
          ],
          [
            -66.163178,
            -17.370513
          ],
          [
            -66.163209,
            -17.370401
          ],
          [
            -66.163643,
            -17.368907
          ],
          [
            -66.163656,
            -17.368839
          ],
          [
            -66.163652,
            -17.36877
          ],
          [
            -66.163641,
            -17.368715
          ],
          [
            -66.16361,
            -17.368654
          ],
          [
            -66.163599,
            -17.368603
          ],
          [
            -66.163597,
            -17.368544
          ],
          [
            -66.163609,
            -17.368453
          ],
          [
            -66.163635,
            -17.368365
          ],
          [
            -66.163688,
            -17.36826
          ],
          [
            -66.163736,
            -17.36821
          ],
          [
            -66.163775,
            -17.36818
          ],
          [
            -66.163812,
            -17.368165
          ],
          [
            -66.163843,
            -17.36816
          ],
          [
            -66.163881,
            -17.368155
          ],
          [
            -66.163994,
            -17.368121
          ],
          [
            -66.164094,
            -17.368062
          ],
          [
            -66.164202,
            -17.367973
          ],
          [
            -66.165083,
            -17.36733
          ],
          [
            -66.166042,
            -17.366621
          ],
          [
            -66.166281,
            -17.366457
          ],
          [
            -66.166947,
            -17.366025
          ],
          [
            -66.167439,
            -17.365767
          ],
          [
            -66.167605,
            -17.365694
          ],
          [
            -66.167682,
            -17.365671
          ],
          [
            -66.167708,
            -17.365666
          ],
          [
            -66.16782,
            -17.365648
          ],
          [
            -66.168051,
            -17.365659
          ],
          [
            -66.168816,
            -17.365709
          ],
          [
            -66.168951,
            -17.365751
          ],
          [
            -66.169075,
            -17.365787
          ],
          [
            -66.169367,
            -17.365895
          ],
          [
            -66.169715,
            -17.365992
          ],
          [
            -66.16995,
            -17.366025
          ],
          [
            -66.170106,
            -17.366032
          ],
          [
            -66.1703,
            -17.366016
          ],
          [
            -66.170572,
            -17.365957
          ],
          [
            -66.17113,
            -17.365807
          ],
          [
            -66.17128,
            -17.365767
          ],
          [
            -66.171375,
            -17.365758
          ],
          [
            -66.171529,
            -17.365748
          ],
          [
            -66.171794,
            -17.365732
          ],
          [
            -66.173236,
            -17.365636
          ],
          [
            -66.173318,
            -17.365633
          ],
          [
            -66.173547,
            -17.365617
          ],
          [
            -66.17464,
            -17.365552
          ],
          [
            -66.174764,
            -17.365544
          ],
          [
            -66.174864,
            -17.365525
          ],
          [
            -66.174954,
            -17.365494
          ],
          [
            -66.175136,
            -17.365442
          ],
          [
            -66.175967,
            -17.365188
          ],
          [
            -66.176444,
            -17.365045
          ],
          [
            -66.176503,
            -17.365027
          ],
          [
            -66.176627,
            -17.36499
          ],
          [
            -66.176716,
            -17.36496
          ],
          [
            -66.17685,
            -17.364915
          ],
          [
            -66.177597,
            -17.364694
          ],
          [
            -66.177944,
            -17.364588
          ],
          [
            -66.178292,
            -17.364488
          ],
          [
            -66.178522,
            -17.364416
          ],
          [
            -66.178603,
            -17.364394
          ],
          [
            -66.178945,
            -17.364236
          ],
          [
            -66.179273,
            -17.364055
          ],
          [
            -66.179434,
            -17.363964
          ],
          [
            -66.179623,
            -17.363833
          ],
          [
            -66.179921,
            -17.363592
          ],
          [
            -66.180404,
            -17.363218
          ],
          [
            -66.180751,
            -17.362922
          ],
          [
            -66.18086,
            -17.362816
          ],
          [
            -66.180991,
            -17.362677
          ],
          [
            -66.18116,
            -17.362483
          ],
          [
            -66.181314,
            -17.36229
          ],
          [
            -66.181471,
            -17.36208
          ],
          [
            -66.181621,
            -17.361856
          ],
          [
            -66.18175,
            -17.36165
          ],
          [
            -66.181987,
            -17.361245
          ],
          [
            -66.182041,
            -17.361158
          ],
          [
            -66.18259,
            -17.36001
          ],
          [
            -66.182914,
            -17.359321
          ],
          [
            -66.182983,
            -17.359202
          ],
          [
            -66.183103,
            -17.359029
          ],
          [
            -66.183168,
            -17.358939
          ],
          [
            -66.183286,
            -17.358804
          ],
          [
            -66.183652,
            -17.358271
          ],
          [
            -66.183971,
            -17.3578
          ],
          [
            -66.184073,
            -17.357658
          ],
          [
            -66.184264,
            -17.357374
          ],
          [
            -66.18457,
            -17.356931
          ],
          [
            -66.184664,
            -17.356821
          ],
          [
            -66.184745,
            -17.356728
          ],
          [
            -66.184859,
            -17.35664
          ],
          [
            -66.185012,
            -17.356524
          ],
          [
            -66.185585,
            -17.356099
          ],
          [
            -66.186068,
            -17.355738
          ],
          [
            -66.186781,
            -17.355177
          ],
          [
            -66.187394,
            -17.354697
          ],
          [
            -66.187467,
            -17.354635
          ],
          [
            -66.187493,
            -17.354603
          ],
          [
            -66.187509,
            -17.354567
          ],
          [
            -66.187525,
            -17.354519
          ],
          [
            -66.18754,
            -17.354492
          ],
          [
            -66.187583,
            -17.354458
          ],
          [
            -66.187623,
            -17.354447
          ],
          [
            -66.187654,
            -17.354443
          ],
          [
            -66.187691,
            -17.354425
          ],
          [
            -66.187782,
            -17.35438
          ],
          [
            -66.187855,
            -17.354334
          ],
          [
            -66.188304,
            -17.353989
          ],
          [
            -66.188618,
            -17.353737
          ],
          [
            -66.188772,
            -17.353617
          ],
          [
            -66.188858,
            -17.35355
          ],
          [
            -66.189701,
            -17.352895
          ],
          [
            -66.1898,
            -17.352818
          ],
          [
            -66.189729,
            -17.352669
          ],
          [
            -66.189559,
            -17.352053
          ],
          [
            -66.189371,
            -17.351499
          ],
          [
            -66.189079,
            -17.350569
          ],
          [
            -66.188609,
            -17.349102
          ],
          [
            -66.188587,
            -17.349029
          ],
          [
            -66.188723,
            -17.348996
          ],
          [
            -66.188527,
            -17.3482
          ],
          [
            -66.18827,
            -17.347125
          ],
          [
            -66.18898,
            -17.346917
          ],
          [
            -66.189837,
            -17.346632
          ],
          [
            -66.190705,
            -17.346317
          ]
        ]
      }
    }
  ]
}