{
  "type": "FeatureCollection",
  "features": [
    {
      "type": "Feature",
      "properties": {
        "route_id": "9184014",
        "route_short_name": "10",
        "route_long_name": "MiniBus 10: Cerro Calomani \u2192 Calle Faustino Suarez"
      },
      "geometry": {
        "type": "LineString",
        "coordinates": [
          [
            -66.155943,
            -17.471035
          ],
          [
            -66.155903,
            -17.47042
          ],
          [
            -66.155861,
            -17.469796
          ],
          [
            -66.155817,
            -17.469152
          ],
          [
            -66.154996,
            -17.469231
          ],
          [
            -66.153832,
            -17.469325
          ],
          [
            -66.152723,
            -17.469395
          ],
          [
            -66.152651,
            -17.468791
          ],
          [
            -66.152584,
            -17.468133
          ],
          [
            -66.15273,
            -17.468108
          ],
          [
            -66.1534,
            -17.467988
          ],
          [
            -66.15374,
            -17.467922
          ],
          [
            -66.153926,
            -17.467898
          ],
          [
            -66.154007,
            -17.467894
          ],
          [
            -66.154132,
            -17.467865
          ],
          [
            -66.154224,
            -17.467827
          ],
          [
            -66.154892,
            -17.467698
          ],
          [
            -66.155038,
            -17.46765
          ],
          [
            -66.154873,
            -17.467011
          ],
          [
            -66.154798,
            -17.466719
          ],
          [
            -66.155326,
            -17.466559
          ],
          [
            -66.155842,
            -17.466426
          ],
          [
            -66.15565,
            -17.465776
          ],
          [
            -66.155611,
            -17.465741
          ],
          [
            -66.155559,
            -17.465721
          ],
          [
            -66.155494,
            -17.465715
          ],
          [
            -66.155246,
            -17.465721
          ],
          [
            -66.155086,
            -17.465731
          ],
          [
            -66.154984,
            -17.465741
          ],
          [
            -66.154762,
            -17.465751
          ],
          [
            -66.154649,
            -17.465765
          ],
          [
            -66.154493,
            -17.465799
          ],
          [
            -66.154348,
            -17.46582
          ],
          [
            -66.154134,
            -17.465837
          ],
          [
            -66.15406,
            -17.46585
          ],
          [
            -66.153931,
            -17.465895
          ],
          [
            -66.153869,
            -17.465932
          ],
          [
            -66.153817,
            -17.465993
          ],
          [
            -66.153783,
            -17.466054
          ],
          [
            -66.153752,
            -17.466126
          ],
          [
            -66.153631,
            -17.466365
          ],
          [
            -66.153597,
            -17.466399
          ],
          [
            -66.153509,
            -17.466374
          ],
          [
            -66.153396,
            -17.466153
          ],
          [
            -66.153226,
            -17.465824
          ],
          [
            -66.152974,
            -17.465233
          ],
          [
            -66.153133,
            -17.465163
          ],
          [
            -66.153196,
            -17.46511
          ],
          [
            -66.153238,
            -17.46458
          ],
          [
            -66.153164,
            -17.464582
          ],
          [
            -66.153089,
            -17.464594
          ],
          [
            -66.152995,
            -17.464625
          ],
          [
            -66.152612,
            -17.464799
          ],
          [
            -66.152394,
            -17.464297
          ],
          [
            -66.152347,
            -17.464183
          ],
          [
            -66.152291,
            -17.463604
          ],
          [
            -66.152846,
            -17.463515
          ],
          [
            -66.152849,
            -17.463547
          ],
          [
            -66.154015,
            -17.463397
          ],
          [
            -66.155261,
            -17.463237
          ],
          [
            -66.156343,
            -17.463094
          ],
          [
            -66.15759,
            -17.462891
          ],
          [
            -66.15748,
            -17.462338
          ],
          [
            -66.157401,
            -17.461793
          ],
          [
            -66.15787,
            -17.461717
          ],
          [
            -66.157763,
            -17.461225
          ],
          [
            -66.157743,
            -17.461127
          ],
          [
            -66.157719,
            -17.461005
          ],
          [
            -66.15769,
            -17.460867
          ],
          [
            -66.157494,
            -17.460041
          ],
          [
            -66.157403,
            -17.459625
          ],
          [
            -66.157267,
            -17.459011
          ],
          [
            -66.158712,
            -17.458744
          ],
          [
            -66.159304,
            -17.45863
          ],
          [
            -66.159855,
            -17.458526
          ],
          [
            -66.160171,
            -17.45846
          ],
          [
            -66.160381,
            -17.458432
          ],
          [
            -66.160528,
            -17.458409
          ],
          [
            -66.160616,
            -17.458385
          ],
          [
            -66.16068,
            -17.458342
          ],
          [
            -66.160723,
            -17.458279
          ],
          [
            -66.160859,
            -17.458024
          ],
          [
            -66.160946,
            -17.45786
          ],
          [
            -66.160987,
            -17.457765
          ],
          [
            -66.161004,
            -17.457661
          ],
          [
            -66.161002,
            -17.457556
          ],
          [
            -66.160975,
            -17.457424
          ],
          [
            -66.160945,
            -17.457309
          ],
          [
            -66.160824,
            -17.456879
          ],
          [
            -66.160799,
            -17.456415
          ],
          [
            -66.160338,
            -17.456499
          ],
          [
            -66.159875,
            -17.456583
          ],
          [
            -66.159475,
            -17.456656
          ],
          [
            -66.159131,
            -17.456719
          ],
          [
            -66.158944,
            -17.456753
          ],
          [
            -66.158685,
            -17.456799
          ],
          [
            -66.158243,
            -17.45688
          ],
          [
            -66.15794,
            -17.456935
          ],
          [
            -66.157588,
            -17.456999
          ],
          [
            -66.156886,
            -17.457126
          ],
          [
            -66.156592,
            -17.45589
          ],
          [
            -66.156247,
            -17.454403
          ],
          [
            -66.156212,
            -17.454246
          ],
          [
            -66.156048,
            -17.45361
          ],
          [
            -66.155978,
            -17.453314
          ],
          [
            -66.155932,
            -17.452906
          ],
          [
            -66.155852,
            -17.452281
          ],
          [
            -66.155755,
            -17.451769
          ],
          [
            -66.155682,
            -17.451372
          ],
          [
            -66.155664,
            -17.451195
          ],
          [
            -66.15565,
            -17.450995
          ],
          [
            -66.155632,
            -17.450551
          ],
          [
            -66.155605,
            -17.449893
          ],
          [
            -66.155566,
            -17.449156
          ],
          [
            -66.155504,
            -17.448481
          ],
          [
            -66.155489,
            -17.448322
          ],
          [
            -66.155425,
            -17.447627
          ],
          [
            -66.155382,
            -17.447156
          ],
          [
            -66.155378,
            -17.447026
          ],
          [
            -66.155378,
            -17.446971
          ],
          [
            -66.155373,
            -17.445951
          ],
          [
            -66.155372,
            -17.445906
          ],
          [
            -66.155329,
            -17.444843
          ],
          [
            -66.155268,
            -17.443344
          ],
          [
            -66.155274,
            -17.44297
          ],
          [
            -66.15528,
            -17.442861
          ],
          [
            -66.15529,
            -17.442763
          ],
          [
            -66.155347,
            -17.442606
          ],
          [
            -66.155329,
            -17.442362
          ],
          [
            -66.155341,
            -17.442234
          ],
          [
            -66.155386,
            -17.44209
          ],
          [
            -66.155548,
            -17.441774
          ],
          [
            -66.15558,
            -17.441623
          ],
          [
            -66.1556,
            -17.44111
          ],
          [
            -66.155654,
            -17.440583
          ],
          [
            -66.155649,
            -17.440047
          ],
          [
            -66.155689,
            -17.438995
          ],
          [
            -66.155689,
            -17.438986
          ],
          [
            -66.15569,
            -17.438961
          ],
          [
            -66.155748,
            -17.43785
          ],
          [
            -66.156347,
            -17.437866
          ],
          [
            -66.156404,
            -17.436796
          ],
          [
            -66.156441,
            -17.435912
          ],
          [
            -66.156447,
            -17.435713
          ],
          [
            -66.156473,
            -17.435147
          ],
          [
            -66.156499,
            -17.434645
          ],
          [
            -66.155814,
            -17.434614
          ],
          [
            -66.155173,
            -17.434591
          ],
          [
            -66.155214,
            -17.434157
          ],
          [
            -66.155277,
            -17.433508
          ],
          [
            -66.155306,
            -17.433208
          ],
          [
            -66.155309,
            -17.43317
          ],
          [
            -66.155317,
            -17.433096
          ],
          [
            -66.155334,
            -17.43291
          ],
          [
            -66.155367,
            -17.432571
          ],
          [
            -66.155501,
            -17.43098
          ],
          [
            -66.15558,
            -17.429923
          ],
          [
            -66.155615,
            -17.429833
          ],
          [
            -66.155876,
            -17.429596
          ],
          [
            -66.156018,
            -17.429458
          ],
          [
            -66.156039,
            -17.429217
          ],
          [
            -66.15601,
            -17.429216
          ],
          [
            -66.155924,
            -17.42921
          ],
          [
            -66.155773,
            -17.429204
          ],
          [
            -66.155715,
            -17.429199
          ],
          [
            -66.154756,
            -17.429122
          ],
          [
            -66.15392,
            -17.429039
          ],
          [
            -66.153063,
            -17.428958
          ],
          [
            -66.152908,
            -17.428951
          ],
          [
            -66.152772,
            -17.428962
          ],
          [
            -66.152714,
            -17.428985
          ],
          [
            -66.152651,
            -17.428987
          ],
          [
            -66.152589,
            -17.428977
          ],
          [
            -66.152534,
            -17.428946
          ],
          [
            -66.152492,
            -17.428899
          ],
          [
            -66.152468,
            -17.428843
          ],
          [
            -66.152463,
            -17.428782
          ],
          [
            -66.152479,
            -17.428723
          ],
          [
            -66.152513,
            -17.428671
          ],
          [
            -66.152549,
            -17.428641
          ],
          [
            -66.152673,
            -17.428522
          ],
          [
            -66.152741,
            -17.42845
          ],
          [
            -66.152833,
            -17.428343
          ],
          [
            -66.152987,
            -17.428166
          ],
          [
            -66.153034,
            -17.428104
          ],
          [
            -66.153101,
            -17.428013
          ],
          [
            -66.153201,
            -17.427849
          ],
          [
            -66.153277,
            -17.42771
          ],
          [
            -66.153542,
            -17.427222
          ],
          [
            -66.153596,
            -17.427101
          ],
          [
            -66.153772,
            -17.426666
          ],
          [
            -66.153934,
            -17.426224
          ],
          [
            -66.153983,
            -17.426083
          ],
          [
            -66.154021,
            -17.425953
          ],
          [
            -66.154111,
            -17.425598
          ],
          [
            -66.154125,
            -17.42554
          ],
          [
            -66.154343,
            -17.424782
          ],
          [
            -66.154427,
            -17.424491
          ],
          [
            -66.154463,
            -17.424368
          ],
          [
            -66.154572,
            -17.423934
          ],
          [
            -66.154605,
            -17.423761
          ],
          [
            -66.154622,
            -17.423645
          ],
          [
            -66.154635,
            -17.423428
          ],
          [
            -66.154697,
            -17.421653
          ],
          [
            -66.154747,
            -17.42062
          ],
          [
            -66.154791,
            -17.419598
          ],
          [
            -66.154817,
            -17.418612
          ],
          [
            -66.154858,
            -17.417597
          ],
          [
            -66.154892,
            -17.416788
          ],
          [
            -66.154905,
            -17.416571
          ],
          [
            -66.154923,
            -17.41626
          ],
          [
            -66.154951,
            -17.416114
          ],
          [
            -66.155063,
            -17.415629
          ],
          [
            -66.155077,
            -17.415565
          ],
          [
            -66.155305,
            -17.414598
          ],
          [
            -66.155386,
            -17.414261
          ],
          [
            -66.155391,
            -17.414161
          ],
          [
            -66.155563,
            -17.413411
          ],
          [
            -66.155588,
            -17.413321
          ],
          [
            -66.155624,
            -17.413205
          ],
          [
            -66.155655,
            -17.413095
          ],
          [
            -66.155687,
            -17.412961
          ],
          [
            -66.155779,
            -17.412296
          ],
          [
            -66.15582,
            -17.412159
          ],
          [
            -66.155828,
            -17.412033
          ],
          [
            -66.155875,
            -17.411548
          ],
          [
            -66.155925,
            -17.411204
          ],
          [
            -66.155961,
            -17.411004
          ],
          [
            -66.155973,
            -17.410807
          ],
          [
            -66.155994,
            -17.410651
          ],
          [
            -66.156059,
            -17.410112
          ],
          [
            -66.156188,
            -17.40929
          ],
          [
            -66.156209,
            -17.409158
          ],
          [
            -66.156324,
            -17.408398
          ],
          [
            -66.156391,
            -17.407897
          ],
          [
            -66.156402,
            -17.407758
          ],
          [
            -66.156408,
            -17.407674
          ],
          [
            -66.156417,
            -17.407578
          ],
          [
            -66.156419,
            -17.407471
          ],
          [
            -66.156393,
            -17.407327
          ],
          [
            -66.156186,
            -17.406089
          ],
          [
            -66.155968,
            -17.40497
          ],
          [
            -66.155783,
            -17.404114
          ],
          [
            -66.155649,
            -17.403486
          ],
          [
            -66.155537,
            -17.402966
          ],
          [
            -66.155537,
            -17.402826
          ],
          [
            -66.155513,
            -17.402717
          ],
          [
            -66.155497,
            -17.402642
          ],
          [
            -66.155476,
            -17.402549
          ],
          [
            -66.155468,
            -17.402503
          ],
          [
            -66.155452,
            -17.402434
          ],
          [
            -66.155439,
            -17.402374
          ],
          [
            -66.15542,
            -17.402301
          ],
          [
            -66.155316,
            -17.402192
          ],
          [
            -66.155307,
            -17.401651
          ],
          [
            -66.155285,
            -17.401299
          ],
          [
            -66.153977,
            -17.401365
          ],
          [
            -66.15364,
            -17.401374
          ],
          [
            -66.153295,
            -17.401383
          ],
          [
            -66.15325,
            -17.400725
          ],
          [
            -66.153227,
            -17.399898
          ],
          [
            -66.153197,
            -17.399102
          ],
          [
            -66.153192,
            -17.398998
          ],
          [
            -66.153184,
            -17.398846
          ],
          [
            -66.153188,
            -17.398769
          ],
          [
            -66.153253,
            -17.398424
          ],
          [
            -66.153322,
            -17.398064
          ],
          [
            -66.153532,
            -17.397006
          ],
          [
            -66.153732,
            -17.395947
          ],
          [
            -66.152617,
            -17.395754
          ],
          [
            -66.151505,
            -17.395543
          ],
          [
            -66.151571,
            -17.395216
          ],
          [
            -66.151709,
            -17.394524
          ],
          [
            -66.151906,
            -17.393465
          ],
          [
            -66.150832,
            -17.393279
          ],
          [
            -66.150181,
            -17.393163
          ],
          [
            -66.149622,
            -17.393063
          ],
          [
            -66.149597,
            -17.393059
          ],
          [
            -66.149557,
            -17.393052
          ],
          [
            -66.14957,
            -17.392986
          ],
          [
            -66.149753,
            -17.392078
          ],
          [
            -66.149763,
            -17.392027
          ],
          [
            -66.149774,
            -17.391967
          ],
          [
            -66.149858,
            -17.391506
          ],
          [
            -66.149937,
            -17.391102
          ],
          [
            -66.149952,
            -17.391033
          ],
          [
            -66.149959,
            -17.390989
          ],
          [
            -66.149967,
            -17.390948
          ],
          [
            -66.149981,
            -17.390874
          ],
          [
            -66.150176,
            -17.389914
          ],
          [
            -66.15019,
            -17.389847
          ],
          [
            -66.150207,
            -17.389771
          ],
          [
            -66.150253,
            -17.389682
          ],
          [
            -66.150419,
            -17.38887
          ],
          [
            -66.150432,
            -17.388802
          ],
          [
            -66.150445,
            -17.388739
          ],
          [
            -66.150562,
            -17.388206
          ],
          [
            -66.150656,
            -17.387762
          ],
          [
            -66.15067,
            -17.387699
          ],
          [
            -66.150702,
            -17.387525
          ],
          [
            -66.150731,
            -17.387361
          ],
          [
            -66.150889,
            -17.386601
          ],
          [
            -66.150898,
            -17.386546
          ],
          [
            -66.150909,
            -17.386499
          ],
          [
            -66.151101,
            -17.385603
          ],
          [
            -66.151116,
            -17.385522
          ],
          [
            -66.151174,
            -17.385223
          ],
          [
            -66.151186,
            -17.385158
          ],
          [
            -66.151199,
            -17.385048
          ],
          [
            -66.151218,
            -17.384914
          ],
          [
            -66.151285,
            -17.38454
          ],
          [
            -66.151401,
            -17.38402
          ],
          [
            -66.151409,
            -17.383994
          ],
          [
            -66.151422,
            -17.383932
          ],
          [
            -66.151437,
            -17.383856
          ],
          [
            -66.15162,
            -17.382975
          ],
          [
            -66.15164,
            -17.382875
          ],
          [
            -66.151659,
            -17.382745
          ],
          [
            -66.151563,
            -17.382723
          ],
          [
            -66.151471,
            -17.382674
          ],
          [
            -66.151387,
            -17.382619
          ],
          [
            -66.151301,
            -17.382543
          ],
          [
            -66.151259,
            -17.382496
          ],
          [
            -66.151231,
            -17.382448
          ],
          [
            -66.151205,
            -17.382372
          ],
          [
            -66.151182,
            -17.382259
          ],
          [
            -66.151177,
            -17.382144
          ],
          [
            -66.151188,
            -17.382059
          ],
          [
            -66.15121,
            -17.381992
          ],
          [
            -66.151225,
            -17.381956
          ],
          [
            -66.151271,
            -17.381872
          ],
          [
            -66.151354,
            -17.381774
          ],
          [
            -66.151417,
            -17.38173
          ],
          [
            -66.151487,
            -17.381692
          ],
          [
            -66.151599,
            -17.381651
          ],
          [
            -66.151707,
            -17.381638
          ],
          [
            -66.15174,
            -17.381625
          ],
          [
            -66.151778,
            -17.38159
          ],
          [
            -66.151794,
            -17.381555
          ],
          [
            -66.151805,
            -17.3815
          ],
          [
            -66.151838,
            -17.381187
          ],
          [
            -66.151875,
            -17.381005
          ],
          [
            -66.151887,
            -17.380939
          ],
          [
            -66.151923,
            -17.380784
          ],
          [
            -66.151926,
            -17.380725
          ],
          [
            -66.151929,
            -17.380676
          ],
          [
            -66.151928,
            -17.380555
          ],
          [
            -66.151923,
            -17.380447
          ],
          [
            -66.151903,
            -17.380352
          ],
          [
            -66.151875,
            -17.380226
          ],
          [
            -66.151854,
            -17.380171
          ],
          [
            -66.151825,
            -17.380118
          ],
          [
            -66.151802,
            -17.380066
          ],
          [
            -66.151801,
            -17.37998
          ],
          [
            -66.15181,
            -17.379921
          ],
          [
            -66.151857,
            -17.379848
          ],
          [
            -66.151946,
            -17.379776
          ],
          [
            -66.151999,
            -17.379714
          ],
          [
            -66.152012,
            -17.379693
          ],
          [
            -66.152021,
            -17.37967
          ],
          [
            -66.152113,
            -17.379303
          ],
          [
            -66.152118,
            -17.379286
          ],
          [
            -66.15213,
            -17.37923
          ],
          [
            -66.152133,
            -17.379177
          ],
          [
            -66.152134,
            -17.37912
          ],
          [
            -66.152129,
            -17.378966
          ],
          [
            -66.15212,
            -17.378807
          ],
          [
            -66.152116,
            -17.378747
          ],
          [
            -66.152108,
            -17.378594
          ],
          [
            -66.152093,
            -17.378567
          ],
          [
            -66.152073,
            -17.378543
          ],
          [
            -66.152047,
            -17.378516
          ],
          [
            -66.152011,
            -17.378482
          ],
          [
            -66.151981,
            -17.378446
          ],
          [
            -66.151962,
            -17.378416
          ],
          [
            -66.151949,
            -17.378359
          ],
          [
            -66.151954,
            -17.378315
          ],
          [
            -66.151976,
            -17.378265
          ],
          [
            -66.152012,
            -17.378223
          ],
          [
            -66.152059,
            -17.378195
          ],
          [
            -66.152113,
            -17.378183
          ],
          [
            -66.152168,
            -17.378188
          ],
          [
            -66.152219,
            -17.37821
          ],
          [
            -66.152239,
            -17.378228
          ],
          [
            -66.15226,
            -17.378246
          ],
          [
            -66.152288,
            -17.378287
          ],
          [
            -66.152299,
            -17.378305
          ],
          [
            -66.152329,
            -17.378353
          ],
          [
            -66.152358,
            -17.378384
          ],
          [
            -66.152393,
            -17.378404
          ],
          [
            -66.152427,
            -17.378416
          ],
          [
            -66.152467,
            -17.378424
          ],
          [
            -66.152547,
            -17.378427
          ],
          [
            -66.153034,
            -17.378402
          ],
          [
            -66.153999,
            -17.378335
          ],
          [
            -66.154068,
            -17.378328
          ],
          [
            -66.154162,
            -17.378323
          ],
          [
            -66.15552,
            -17.37822
          ],
          [
            -66.155815,
            -17.378199
          ],
          [
            -66.15627,
            -17.378168
          ],
          [
            -66.156921,
            -17.378127
          ],
          [
            -66.156999,
            -17.378121
          ],
          [
            -66.156994,
            -17.378031
          ],
          [
            -66.156954,
            -17.377028
          ],
          [
            -66.156944,
            -17.376374
          ],
          [
            -66.156921,
            -17.375501
          ],
          [
            -66.156903,
            -17.375115
          ],
          [
            -66.156902,
            -17.375057
          ],
          [
            -66.1569,
            -17.374962
          ],
          [
            -66.156899,
            -17.374944
          ],
          [
            -66.156884,
            -17.374518
          ],
          [
            -66.156856,
            -17.373878
          ],
          [
            -66.156901,
            -17.373252
          ],
          [
            -66.156886,
            -17.373222
          ],
          [
            -66.156851,
            -17.373185
          ],
          [
            -66.156796,
            -17.373128
          ],
          [
            -66.156725,
            -17.373097
          ],
          [
            -66.156666,
            -17.37305
          ],
          [
            -66.156621,
            -17.372989
          ],
          [
            -66.156592,
            -17.372913
          ],
          [
            -66.156587,
            -17.372831
          ],
          [
            -66.156606,
            -17.372751
          ],
          [
            -66.156636,
            -17.372696
          ],
          [
            -66.156678,
            -17.372649
          ],
          [
            -66.15673,
            -17.372611
          ],
          [
            -66.15679,
            -17.372585
          ],
          [
            -66.156819,
            -17.372548
          ],
          [
            -66.156837,
            -17.37252
          ],
          [
            -66.156861,
            -17.372474
          ],
          [
            -66.156771,
            -17.371878
          ],
          [
            -66.156734,
            -17.370838
          ],
          [
            -66.156727,
            -17.370613
          ],
          [
            -66.1567,
            -17.370123
          ],
          [
            -66.156695,
            -17.370031
          ],
          [
            -66.156692,
            -17.369978
          ],
          [
            -66.156689,
            -17.369891
          ],
          [
            -66.156683,
            -17.369831
          ],
          [
            -66.156667,
            -17.369678
          ],
          [
            -66.156655,
            -17.369559
          ],
          [
            -66.156626,
            -17.369272
          ],
          [
            -66.156583,
            -17.368898
          ],
          [
            -66.156524,
            -17.368198
          ],
          [
            -66.156479,
            -17.367695
          ],
          [
            -66.156475,
            -17.367649
          ],
          [
            -66.156469,
            -17.367599
          ],
          [
            -66.156425,
            -17.367044
          ],
          [
            -66.156399,
            -17.366761
          ],
          [
            -66.156382,
            -17.366577
          ],
          [
            -66.156376,
            -17.366521
          ],
          [
            -66.156366,
            -17.366418
          ],
          [
            -66.156461,
            -17.366408
          ],
          [
            -66.156841,
            -17.36636
          ],
          [
            -66.156909,
            -17.366347
          ],
          [
            -66.156995,
            -17.366317
          ],
          [
            -66.15708,
            -17.36627
          ],
          [
            -66.157589,
            -17.365977
          ],
          [
            -66.157741,
            -17.365891
          ],
          [
            -66.157857,
            -17.365842
          ],
          [
            -66.15744,
            -17.364835
          ],
          [
            -66.157231,
            -17.364299
          ],
          [
            -66.157013,
            -17.363769
          ],
          [
            -66.156708,
            -17.36327
          ],
          [
            -66.15657,
            -17.363012
          ],
          [
            -66.156544,
            -17.362894
          ],
          [
            -66.156447,
            -17.36231
          ],
          [
            -66.156348,
            -17.361695
          ],
          [
            -66.157509,
            -17.361316
          ],
          [
            -66.157296,
            -17.360734
          ],
          [
            -66.157101,
            -17.360145
          ],
          [
            -66.157632,
            -17.359971
          ],
          [
            -66.157442,
            -17.359377
          ],
          [
            -66.158136,
            -17.35916
          ],
          [
            -66.158448,
            -17.359066
          ],
          [
            -66.158652,
            -17.358987
          ],
          [
            -66.158653,
            -17.358954
          ],
          [
            -66.158654,
            -17.358909
          ],
          [
            -66.159807,
            -17.358518
          ],
          [
            -66.159593,
            -17.357834
          ],
          [
            -66.15921,
            -17.356921
          ],
          [
            -66.158822,
            -17.356037
          ],
          [
            -66.158441,
            -17.355133
          ],
          [
            -66.158102,
            -17.354307
          ],
          [
            -66.158086,
            -17.354239
          ],
          [
            -66.158135,
            -17.354217
          ],
          [
            -66.158701,
            -17.353962
          ],
          [
            -66.158741,
            -17.353923
          ],
          [
            -66.158819,
            -17.353784
          ],
          [
            -66.158915,
            -17.353656
          ],
          [
            -66.158861,
            -17.353535
          ],
          [
            -66.158817,
            -17.353437
          ],
          [
            -66.158906,
            -17.353379
          ],
          [
            -66.159974,
            -17.352682
          ],
          [
            -66.160894,
            -17.352104
          ],
          [
            -66.160946,
            -17.352196
          ]
        ]
      }
    }
  ]
}