{
  "type": "FeatureCollection",
  "features": [
    {
      "type": "Feature",
      "properties": {
        "route_id": "9342277",
        "route_short_name": "11",
        "route_long_name": "MiniBus 11: Calle Viena \u2192 Los Ceibos"
      },
      "geometry": {
        "type": "LineString",
        "coordinates": [
          [
            -66.129614,
            -17.444299
          ],
          [
            -66.130009,
            -17.444826
          ],
          [
            -66.130221,
            -17.44508
          ],
          [
            -66.130338,
            -17.445174
          ],
          [
            -66.130446,
            -17.445228
          ],
          [
            -66.130531,
            -17.445292
          ],
          [
            -66.130611,
            -17.445377
          ],
          [
            -66.130756,
            -17.445516
          ],
          [
            -66.130833,
            -17.445566
          ],
          [
            -66.131045,
            -17.445671
          ],
          [
            -66.13126,
            -17.445736
          ],
          [
            -66.131375,
            -17.445755
          ],
          [
            -66.131736,
            -17.445795
          ],
          [
            -66.131792,
            -17.445617
          ],
          [
            -66.132983,
            -17.445513
          ],
          [
            -66.132975,
            -17.44541
          ],
          [
            -66.133067,
            -17.444907
          ],
          [
            -66.133914,
            -17.444787
          ],
          [
            -66.134488,
            -17.444705
          ],
          [
            -66.134507,
            -17.44404
          ],
          [
            -66.134811,
            -17.443976
          ],
          [
            -66.134912,
            -17.443958
          ],
          [
            -66.135356,
            -17.443846
          ],
          [
            -66.136304,
            -17.443601
          ],
          [
            -66.137141,
            -17.443317
          ],
          [
            -66.137722,
            -17.443167
          ],
          [
            -66.13828,
            -17.443041
          ],
          [
            -66.138495,
            -17.442975
          ],
          [
            -66.13868,
            -17.442965
          ],
          [
            -66.138928,
            -17.442979
          ],
          [
            -66.139371,
            -17.44304
          ],
          [
            -66.140093,
            -17.443119
          ],
          [
            -66.140712,
            -17.443189
          ],
          [
            -66.140828,
            -17.443217
          ],
          [
            -66.140907,
            -17.443261
          ],
          [
            -66.14103,
            -17.443375
          ],
          [
            -66.142246,
            -17.442256
          ],
          [
            -66.14231,
            -17.442201
          ],
          [
            -66.142369,
            -17.44213
          ],
          [
            -66.142401,
            -17.442078
          ],
          [
            -66.142428,
            -17.442036
          ],
          [
            -66.142501,
            -17.441906
          ],
          [
            -66.142527,
            -17.44187
          ],
          [
            -66.14259,
            -17.441802
          ],
          [
            -66.142675,
            -17.441719
          ],
          [
            -66.142714,
            -17.441686
          ],
          [
            -66.142785,
            -17.441626
          ],
          [
            -66.14298,
            -17.441488
          ],
          [
            -66.143297,
            -17.441275
          ],
          [
            -66.143397,
            -17.441185
          ],
          [
            -66.143469,
            -17.441114
          ],
          [
            -66.143557,
            -17.441029
          ],
          [
            -66.143597,
            -17.440978
          ],
          [
            -66.143624,
            -17.440944
          ],
          [
            -66.14382,
            -17.440699
          ],
          [
            -66.143995,
            -17.440435
          ],
          [
            -66.144193,
            -17.440106
          ],
          [
            -66.144212,
            -17.440072
          ],
          [
            -66.144457,
            -17.439626
          ],
          [
            -66.144856,
            -17.438912
          ],
          [
            -66.144978,
            -17.438688
          ],
          [
            -66.145084,
            -17.438519
          ],
          [
            -66.145178,
            -17.438354
          ],
          [
            -66.14525,
            -17.438213
          ],
          [
            -66.145299,
            -17.438096
          ],
          [
            -66.145345,
            -17.437993
          ],
          [
            -66.145387,
            -17.437914
          ],
          [
            -66.145442,
            -17.437807
          ],
          [
            -66.145486,
            -17.437727
          ],
          [
            -66.145575,
            -17.437613
          ],
          [
            -66.145697,
            -17.437464
          ],
          [
            -66.145918,
            -17.437209
          ],
          [
            -66.146114,
            -17.436949
          ],
          [
            -66.147339,
            -17.4353
          ],
          [
            -66.147476,
            -17.435112
          ],
          [
            -66.147932,
            -17.434489
          ],
          [
            -66.148213,
            -17.434112
          ],
          [
            -66.148527,
            -17.43369
          ],
          [
            -66.148831,
            -17.433281
          ],
          [
            -66.14923,
            -17.432744
          ],
          [
            -66.149392,
            -17.432521
          ],
          [
            -66.150031,
            -17.431682
          ],
          [
            -66.150076,
            -17.431623
          ],
          [
            -66.150243,
            -17.431364
          ],
          [
            -66.150367,
            -17.431185
          ],
          [
            -66.150423,
            -17.431105
          ],
          [
            -66.150532,
            -17.430913
          ],
          [
            -66.150748,
            -17.430506
          ],
          [
            -66.150812,
            -17.430366
          ],
          [
            -66.150909,
            -17.430102
          ],
          [
            -66.150968,
            -17.429915
          ],
          [
            -66.15102,
            -17.429817
          ],
          [
            -66.151054,
            -17.429752
          ],
          [
            -66.151091,
            -17.429739
          ],
          [
            -66.15113,
            -17.429734
          ],
          [
            -66.151172,
            -17.429742
          ],
          [
            -66.151215,
            -17.429765
          ],
          [
            -66.151255,
            -17.429804
          ],
          [
            -66.151298,
            -17.429843
          ],
          [
            -66.1514,
            -17.429858
          ],
          [
            -66.151443,
            -17.429848
          ],
          [
            -66.15148,
            -17.429813
          ],
          [
            -66.151501,
            -17.429744
          ],
          [
            -66.151535,
            -17.429659
          ],
          [
            -66.151618,
            -17.42951
          ],
          [
            -66.15167,
            -17.429427
          ],
          [
            -66.151763,
            -17.429306
          ],
          [
            -66.151822,
            -17.429236
          ],
          [
            -66.151868,
            -17.429187
          ],
          [
            -66.151924,
            -17.429134
          ],
          [
            -66.152009,
            -17.429067
          ],
          [
            -66.152269,
            -17.428862
          ],
          [
            -66.152408,
            -17.428751
          ],
          [
            -66.152513,
            -17.428671
          ],
          [
            -66.152549,
            -17.428641
          ],
          [
            -66.152673,
            -17.428522
          ],
          [
            -66.152741,
            -17.42845
          ],
          [
            -66.152833,
            -17.428343
          ],
          [
            -66.152987,
            -17.428166
          ],
          [
            -66.153034,
            -17.428104
          ],
          [
            -66.153101,
            -17.428013
          ],
          [
            -66.153201,
            -17.427849
          ],
          [
            -66.153277,
            -17.42771
          ],
          [
            -66.153542,
            -17.427222
          ],
          [
            -66.153596,
            -17.427101
          ],
          [
            -66.153772,
            -17.426666
          ],
          [
            -66.153934,
            -17.426224
          ],
          [
            -66.153983,
            -17.426083
          ],
          [
            -66.154021,
            -17.425953
          ],
          [
            -66.154111,
            -17.425598
          ],
          [
            -66.154125,
            -17.42554
          ],
          [
            -66.154343,
            -17.424782
          ],
          [
            -66.154427,
            -17.424491
          ],
          [
            -66.154463,
            -17.424368
          ],
          [
            -66.154572,
            -17.423934
          ],
          [
            -66.154605,
            -17.423761
          ],
          [
            -66.154622,
            -17.423645
          ],
          [
            -66.154635,
            -17.423428
          ],
          [
            -66.154697,
            -17.421653
          ],
          [
            -66.154747,
            -17.42062
          ],
          [
            -66.154791,
            -17.419598
          ],
          [
            -66.154817,
            -17.418612
          ],
          [
            -66.154858,
            -17.417597
          ],
          [
            -66.154892,
            -17.416788
          ],
          [
            -66.154905,
            -17.416571
          ],
          [
            -66.154923,
            -17.41626
          ],
          [
            -66.154951,
            -17.416114
          ],
          [
            -66.155063,
            -17.415629
          ],
          [
            -66.155077,
            -17.415565
          ],
          [
            -66.155305,
            -17.414598
          ],
          [
            -66.155386,
            -17.414261
          ],
          [
            -66.155391,
            -17.414161
          ],
          [
            -66.155563,
            -17.413411
          ],
          [
            -66.155588,
            -17.413321
          ],
          [
            -66.155624,
            -17.413205
          ],
          [
            -66.155655,
            -17.413095
          ],
          [
            -66.155687,
            -17.412961
          ],
          [
            -66.155779,
            -17.412296
          ],
          [
            -66.15582,
            -17.412159
          ],
          [
            -66.155828,
            -17.412033
          ],
          [
            -66.155875,
            -17.411548
          ],
          [
            -66.155925,
            -17.411204
          ],
          [
            -66.155961,
            -17.411004
          ],
          [
            -66.155973,
            -17.410807
          ],
          [
            -66.155994,
            -17.410651
          ],
          [
            -66.156059,
            -17.410112
          ],
          [
            -66.156188,
            -17.40929
          ],
          [
            -66.156209,
            -17.409158
          ],
          [
            -66.156324,
            -17.408398
          ],
          [
            -66.156391,
            -17.407897
          ],
          [
            -66.156402,
            -17.407758
          ],
          [
            -66.156408,
            -17.407674
          ],
          [
            -66.156417,
            -17.407578
          ],
          [
            -66.156419,
            -17.407471
          ],
          [
            -66.156451,
            -17.407307
          ],
          [
            -66.156568,
            -17.406875
          ],
          [
            -66.156627,
            -17.406555
          ],
          [
            -66.156675,
            -17.406292
          ],
          [
            -66.15688,
            -17.405149
          ],
          [
            -66.156981,
            -17.404592
          ],
          [
            -66.157069,
            -17.404069
          ],
          [
            -66.157077,
            -17.404014
          ],
          [
            -66.157252,
            -17.40291
          ],
          [
            -66.15734,
            -17.402237
          ],
          [
            -66.157356,
            -17.402108
          ],
          [
            -66.157459,
            -17.401163
          ],
          [
            -66.157479,
            -17.40097
          ],
          [
            -66.157628,
            -17.399698
          ],
          [
            -66.157634,
            -17.399554
          ],
          [
            -66.157636,
            -17.399482
          ],
          [
            -66.157636,
            -17.399359
          ],
          [
            -66.157637,
            -17.399303
          ],
          [
            -66.157688,
            -17.398891
          ],
          [
            -66.157872,
            -17.397844
          ],
          [
            -66.157881,
            -17.397779
          ],
          [
            -66.157889,
            -17.39773
          ],
          [
            -66.158032,
            -17.396755
          ],
          [
            -66.158039,
            -17.396701
          ],
          [
            -66.158045,
            -17.396656
          ],
          [
            -66.158192,
            -17.395699
          ],
          [
            -66.158199,
            -17.395655
          ],
          [
            -66.158205,
            -17.395615
          ],
          [
            -66.158379,
            -17.394609
          ],
          [
            -66.158578,
            -17.393617
          ],
          [
            -66.158584,
            -17.393568
          ],
          [
            -66.15859,
            -17.393498
          ],
          [
            -66.158596,
            -17.393464
          ],
          [
            -66.158758,
            -17.392695
          ],
          [
            -66.15877,
            -17.392632
          ],
          [
            -66.158786,
            -17.392542
          ],
          [
            -66.158796,
            -17.392491
          ],
          [
            -66.159011,
            -17.391503
          ],
          [
            -66.159019,
            -17.391465
          ],
          [
            -66.159035,
            -17.391385
          ],
          [
            -66.159196,
            -17.390491
          ],
          [
            -66.159211,
            -17.39042
          ],
          [
            -66.159214,
            -17.390385
          ],
          [
            -66.159411,
            -17.389392
          ],
          [
            -66.15942,
            -17.389343
          ],
          [
            -66.159435,
            -17.389266
          ],
          [
            -66.159615,
            -17.388382
          ],
          [
            -66.159636,
            -17.388296
          ],
          [
            -66.159662,
            -17.388213
          ],
          [
            -66.159828,
            -17.387331
          ],
          [
            -66.159895,
            -17.387344
          ],
          [
            -66.160724,
            -17.387496
          ],
          [
            -66.160854,
            -17.38752
          ],
          [
            -66.16094,
            -17.387536
          ],
          [
            -66.161399,
            -17.387608
          ],
          [
            -66.161956,
            -17.387703
          ],
          [
            -66.162024,
            -17.387715
          ],
          [
            -66.16208,
            -17.387725
          ],
          [
            -66.162766,
            -17.387833
          ],
          [
            -66.162829,
            -17.387845
          ],
          [
            -66.162891,
            -17.387855
          ],
          [
            -66.163743,
            -17.388
          ],
          [
            -66.163796,
            -17.387988
          ],
          [
            -66.163884,
            -17.387961
          ],
          [
            -66.163957,
            -17.387933
          ],
          [
            -66.164175,
            -17.387854
          ],
          [
            -66.164332,
            -17.387795
          ],
          [
            -66.164394,
            -17.387774
          ],
          [
            -66.164877,
            -17.387582
          ],
          [
            -66.165077,
            -17.387474
          ],
          [
            -66.165576,
            -17.387283
          ],
          [
            -66.165672,
            -17.387244
          ],
          [
            -66.165773,
            -17.387183
          ],
          [
            -66.16588,
            -17.387087
          ],
          [
            -66.16594,
            -17.387011
          ],
          [
            -66.166123,
            -17.386783
          ],
          [
            -66.166447,
            -17.386384
          ],
          [
            -66.166545,
            -17.386262
          ],
          [
            -66.166587,
            -17.386208
          ],
          [
            -66.167051,
            -17.385656
          ],
          [
            -66.167583,
            -17.385032
          ],
          [
            -66.168345,
            -17.384139
          ],
          [
            -66.168556,
            -17.383935
          ],
          [
            -66.168695,
            -17.383835
          ],
          [
            -66.168815,
            -17.383763
          ],
          [
            -66.168886,
            -17.383724
          ],
          [
            -66.168976,
            -17.383678
          ],
          [
            -66.169066,
            -17.383641
          ],
          [
            -66.169284,
            -17.383558
          ],
          [
            -66.169358,
            -17.383476
          ],
          [
            -66.169556,
            -17.383361
          ],
          [
            -66.169556,
            -17.38336
          ],
          [
            -66.169557,
            -17.383359
          ],
          [
            -66.169569,
            -17.383295
          ],
          [
            -66.169609,
            -17.383192
          ],
          [
            -66.169631,
            -17.383105
          ],
          [
            -66.169505,
            -17.381899
          ],
          [
            -66.169458,
            -17.381118
          ],
          [
            -66.169408,
            -17.380482
          ],
          [
            -66.169363,
            -17.380406
          ],
          [
            -66.169289,
            -17.379798
          ],
          [
            -66.169281,
            -17.379742
          ],
          [
            -66.169193,
            -17.379101
          ],
          [
            -66.169186,
            -17.379043
          ],
          [
            -66.169177,
            -17.378988
          ],
          [
            -66.16909,
            -17.378379
          ],
          [
            -66.169068,
            -17.378221
          ],
          [
            -66.168959,
            -17.377565
          ],
          [
            -66.168944,
            -17.377457
          ],
          [
            -66.168938,
            -17.377401
          ],
          [
            -66.16892,
            -17.377252
          ],
          [
            -66.168913,
            -17.377198
          ],
          [
            -66.168873,
            -17.376879
          ],
          [
            -66.168868,
            -17.37684
          ],
          [
            -66.16882,
            -17.37663
          ],
          [
            -66.168698,
            -17.375997
          ],
          [
            -66.168695,
            -17.37596
          ],
          [
            -66.168615,
            -17.375087
          ],
          [
            -66.168609,
            -17.375025
          ],
          [
            -66.168562,
            -17.374247
          ],
          [
            -66.168535,
            -17.373852
          ],
          [
            -66.168527,
            -17.373664
          ],
          [
            -66.168364,
            -17.372347
          ],
          [
            -66.16835,
            -17.372303
          ],
          [
            -66.168341,
            -17.372277
          ],
          [
            -66.168303,
            -17.372222
          ],
          [
            -66.168279,
            -17.372187
          ],
          [
            -66.168269,
            -17.372145
          ],
          [
            -66.168273,
            -17.372103
          ],
          [
            -66.168292,
            -17.372065
          ],
          [
            -66.168323,
            -17.372035
          ],
          [
            -66.168362,
            -17.372018
          ],
          [
            -66.168404,
            -17.372015
          ],
          [
            -66.168445,
            -17.372027
          ],
          [
            -66.16848,
            -17.372052
          ],
          [
            -66.168565,
            -17.372066
          ],
          [
            -66.168635,
            -17.372067
          ],
          [
            -66.16909,
            -17.372042
          ],
          [
            -66.1694,
            -17.372025
          ],
          [
            -66.169898,
            -17.371992
          ],
          [
            -66.170647,
            -17.371944
          ],
          [
            -66.171289,
            -17.371897
          ],
          [
            -66.171789,
            -17.371861
          ],
          [
            -66.171889,
            -17.371842
          ],
          [
            -66.171916,
            -17.371823
          ],
          [
            -66.171932,
            -17.371745
          ],
          [
            -66.171932,
            -17.37168
          ],
          [
            -66.171832,
            -17.371157
          ],
          [
            -66.171777,
            -17.370879
          ],
          [
            -66.171749,
            -17.370788
          ],
          [
            -66.171425,
            -17.370242
          ],
          [
            -66.171389,
            -17.370194
          ],
          [
            -66.171349,
            -17.37016
          ],
          [
            -66.171285,
            -17.370126
          ],
          [
            -66.171219,
            -17.370087
          ],
          [
            -66.171197,
            -17.370071
          ],
          [
            -66.171173,
            -17.370045
          ],
          [
            -66.171115,
            -17.369953
          ],
          [
            -66.171096,
            -17.369922
          ],
          [
            -66.171057,
            -17.369844
          ],
          [
            -66.170993,
            -17.369669
          ],
          [
            -66.17099,
            -17.369636
          ],
          [
            -66.170997,
            -17.369613
          ],
          [
            -66.171004,
            -17.369602
          ],
          [
            -66.171036,
            -17.369552
          ],
          [
            -66.171054,
            -17.369525
          ],
          [
            -66.171064,
            -17.3695
          ],
          [
            -66.171074,
            -17.368814
          ],
          [
            -66.171096,
            -17.368159
          ],
          [
            -66.17115,
            -17.367645
          ],
          [
            -66.171228,
            -17.366895
          ],
          [
            -66.171235,
            -17.366847
          ],
          [
            -66.171252,
            -17.366776
          ],
          [
            -66.171349,
            -17.36647
          ],
          [
            -66.171377,
            -17.366287
          ],
          [
            -66.171378,
            -17.366043
          ],
          [
            -66.171367,
            -17.365991
          ],
          [
            -66.171343,
            -17.36593
          ],
          [
            -66.171303,
            -17.365866
          ],
          [
            -66.17128,
            -17.365767
          ],
          [
            -66.171375,
            -17.365758
          ],
          [
            -66.171529,
            -17.365748
          ],
          [
            -66.171579,
            -17.365717
          ],
          [
            -66.171607,
            -17.365685
          ],
          [
            -66.171628,
            -17.365634
          ],
          [
            -66.171648,
            -17.365552
          ],
          [
            -66.17179,
            -17.365035
          ],
          [
            -66.171801,
            -17.364953
          ],
          [
            -66.171797,
            -17.364822
          ],
          [
            -66.171789,
            -17.364681
          ],
          [
            -66.171618,
            -17.363936
          ],
          [
            -66.171453,
            -17.363174
          ],
          [
            -66.171446,
            -17.363105
          ],
          [
            -66.171482,
            -17.362835
          ],
          [
            -66.171483,
            -17.362774
          ],
          [
            -66.171477,
            -17.362732
          ],
          [
            -66.171458,
            -17.362644
          ],
          [
            -66.171424,
            -17.362557
          ],
          [
            -66.171163,
            -17.362126
          ],
          [
            -66.171001,
            -17.361772
          ],
          [
            -66.170628,
            -17.360913
          ],
          [
            -66.170572,
            -17.360788
          ],
          [
            -66.170533,
            -17.360641
          ],
          [
            -66.170717,
            -17.360464
          ],
          [
            -66.171185,
            -17.35998
          ],
          [
            -66.17159,
            -17.359559
          ],
          [
            -66.171669,
            -17.359024
          ],
          [
            -66.171677,
            -17.358943
          ],
          [
            -66.171677,
            -17.358905
          ],
          [
            -66.171667,
            -17.358855
          ],
          [
            -66.171643,
            -17.358803
          ],
          [
            -66.171559,
            -17.358621
          ],
          [
            -66.171438,
            -17.358358
          ],
          [
            -66.171286,
            -17.358042
          ],
          [
            -66.171227,
            -17.357918
          ],
          [
            -66.171022,
            -17.357483
          ],
          [
            -66.170761,
            -17.356905
          ],
          [
            -66.170609,
            -17.356594
          ],
          [
            -66.170514,
            -17.356352
          ],
          [
            -66.170492,
            -17.3563
          ],
          [
            -66.170478,
            -17.356265
          ],
          [
            -66.169942,
            -17.356372
          ],
          [
            -66.169903,
            -17.356285
          ],
          [
            -66.169532,
            -17.355542
          ],
          [
            -66.168989,
            -17.354452
          ],
          [
            -66.168497,
            -17.35466
          ],
          [
            -66.167964,
            -17.353572
          ],
          [
            -66.167348,
            -17.352347
          ],
          [
            -66.167057,
            -17.351763
          ],
          [
            -66.167531,
            -17.351538
          ],
          [
            -66.167158,
            -17.350784
          ],
          [
            -66.16712,
            -17.350697
          ],
          [
            -66.166654,
            -17.349913
          ],
          [
            -66.166136,
            -17.348979
          ],
          [
            -66.165674,
            -17.348216
          ],
          [
            -66.165177,
            -17.347406
          ]
        ]
      }
    }
  ]
}