{
  "type": "FeatureCollection",
  "features": [
    {
      "type": "Feature",
      "properties": {
        "route_id": "10387641",
        "route_short_name": "110",
        "route_long_name": "Trufi 110: Calle Wanka \u2192 Calle Francia"
      },
      "geometry": {
        "type": "LineString",
        "coordinates": [
          [
            -66.168404,
            -17.345471
          ],
          [
            -66.169093,
            -17.346404
          ],
          [
            -66.169475,
            -17.346923
          ],
          [
            -66.169954,
            -17.347574
          ],
          [
            -66.169973,
            -17.347599
          ],
          [
            -66.17068,
            -17.34852
          ],
          [
            -66.171001,
            -17.348927
          ],
          [
            -66.17137,
            -17.349419
          ],
          [
            -66.171425,
            -17.349508
          ],
          [
            -66.171897,
            -17.350416
          ],
          [
            -66.172176,
            -17.35096
          ],
          [
            -66.172407,
            -17.351441
          ],
          [
            -66.171797,
            -17.351744
          ],
          [
            -66.1716,
            -17.351851
          ],
          [
            -66.171975,
            -17.352494
          ],
          [
            -66.172459,
            -17.353359
          ],
          [
            -66.172973,
            -17.35423
          ],
          [
            -66.173443,
            -17.355115
          ],
          [
            -66.173478,
            -17.355179
          ],
          [
            -66.173947,
            -17.355987
          ],
          [
            -66.174426,
            -17.356864
          ],
          [
            -66.174987,
            -17.357837
          ],
          [
            -66.17515,
            -17.357738
          ],
          [
            -66.175527,
            -17.357498
          ],
          [
            -66.17567,
            -17.357389
          ],
          [
            -66.175755,
            -17.357331
          ],
          [
            -66.17589,
            -17.357244
          ],
          [
            -66.175997,
            -17.357406
          ],
          [
            -66.175857,
            -17.357511
          ],
          [
            -66.17578,
            -17.357559
          ],
          [
            -66.175622,
            -17.357661
          ],
          [
            -66.17546,
            -17.357744
          ],
          [
            -66.175071,
            -17.357917
          ],
          [
            -66.174878,
            -17.358006
          ],
          [
            -66.173256,
            -17.358777
          ],
          [
            -66.172301,
            -17.359222
          ],
          [
            -66.172228,
            -17.359256
          ],
          [
            -66.172264,
            -17.359344
          ],
          [
            -66.172317,
            -17.359501
          ],
          [
            -66.172503,
            -17.360114
          ],
          [
            -66.172738,
            -17.360877
          ],
          [
            -66.172757,
            -17.360941
          ],
          [
            -66.172779,
            -17.36101
          ],
          [
            -66.172887,
            -17.361341
          ],
          [
            -66.17297,
            -17.361604
          ],
          [
            -66.173007,
            -17.36169
          ],
          [
            -66.173073,
            -17.361817
          ],
          [
            -66.173276,
            -17.362153
          ],
          [
            -66.173352,
            -17.362248
          ],
          [
            -66.173399,
            -17.362297
          ],
          [
            -66.173452,
            -17.362338
          ],
          [
            -66.17351,
            -17.362372
          ],
          [
            -66.173556,
            -17.362402
          ],
          [
            -66.173634,
            -17.362452
          ],
          [
            -66.173676,
            -17.362496
          ],
          [
            -66.173701,
            -17.362541
          ],
          [
            -66.173716,
            -17.362583
          ],
          [
            -66.173721,
            -17.362638
          ],
          [
            -66.173704,
            -17.362719
          ],
          [
            -66.173695,
            -17.362763
          ],
          [
            -66.173691,
            -17.362783
          ],
          [
            -66.173689,
            -17.362843
          ],
          [
            -66.173692,
            -17.362873
          ],
          [
            -66.174115,
            -17.363582
          ],
          [
            -66.174149,
            -17.363626
          ],
          [
            -66.174194,
            -17.363664
          ],
          [
            -66.174245,
            -17.363695
          ],
          [
            -66.174351,
            -17.363752
          ],
          [
            -66.17439,
            -17.363783
          ],
          [
            -66.174599,
            -17.364109
          ],
          [
            -66.174756,
            -17.364354
          ],
          [
            -66.1748,
            -17.364425
          ],
          [
            -66.174848,
            -17.3645
          ],
          [
            -66.17491,
            -17.364607
          ],
          [
            -66.174947,
            -17.364672
          ],
          [
            -66.174976,
            -17.364722
          ],
          [
            -66.175023,
            -17.364836
          ],
          [
            -66.175047,
            -17.364961
          ],
          [
            -66.175136,
            -17.365442
          ],
          [
            -66.17516,
            -17.365542
          ],
          [
            -66.175171,
            -17.365663
          ],
          [
            -66.17546,
            -17.366581
          ],
          [
            -66.175486,
            -17.36666
          ],
          [
            -66.175518,
            -17.366767
          ],
          [
            -66.17559,
            -17.366996
          ],
          [
            -66.175781,
            -17.367601
          ],
          [
            -66.175815,
            -17.367722
          ],
          [
            -66.175819,
            -17.367826
          ],
          [
            -66.17579,
            -17.368357
          ],
          [
            -66.175786,
            -17.36842
          ],
          [
            -66.175746,
            -17.369089
          ],
          [
            -66.17574,
            -17.369187
          ],
          [
            -66.175737,
            -17.369256
          ],
          [
            -66.175725,
            -17.369695
          ],
          [
            -66.175728,
            -17.369741
          ],
          [
            -66.17573,
            -17.369786
          ],
          [
            -66.175737,
            -17.369963
          ],
          [
            -66.175776,
            -17.370922
          ],
          [
            -66.175806,
            -17.371521
          ],
          [
            -66.175805,
            -17.371612
          ],
          [
            -66.175805,
            -17.371707
          ],
          [
            -66.175804,
            -17.371783
          ],
          [
            -66.175799,
            -17.372526
          ],
          [
            -66.175849,
            -17.37344
          ],
          [
            -66.175852,
            -17.3735
          ],
          [
            -66.175883,
            -17.374179
          ],
          [
            -66.175884,
            -17.374239
          ],
          [
            -66.175902,
            -17.375127
          ],
          [
            -66.175947,
            -17.376478
          ],
          [
            -66.175958,
            -17.376573
          ],
          [
            -66.175859,
            -17.37657
          ],
          [
            -66.174282,
            -17.376428
          ],
          [
            -66.174168,
            -17.376418
          ],
          [
            -66.173495,
            -17.376346
          ],
          [
            -66.172974,
            -17.376295
          ],
          [
            -66.17289,
            -17.376289
          ],
          [
            -66.172869,
            -17.376288
          ],
          [
            -66.172839,
            -17.376286
          ],
          [
            -66.172734,
            -17.376279
          ],
          [
            -66.172578,
            -17.376285
          ],
          [
            -66.172483,
            -17.376294
          ],
          [
            -66.172394,
            -17.376311
          ],
          [
            -66.172291,
            -17.376336
          ],
          [
            -66.172217,
            -17.376354
          ],
          [
            -66.172072,
            -17.376389
          ],
          [
            -66.171029,
            -17.376667
          ],
          [
            -66.169875,
            -17.376963
          ],
          [
            -66.169763,
            -17.377
          ],
          [
            -66.169655,
            -17.377042
          ],
          [
            -66.169516,
            -17.37711
          ],
          [
            -66.16919,
            -17.377278
          ],
          [
            -66.169124,
            -17.377311
          ],
          [
            -66.169039,
            -17.377352
          ],
          [
            -66.168938,
            -17.377401
          ],
          [
            -66.168891,
            -17.377425
          ],
          [
            -66.16878,
            -17.377484
          ],
          [
            -66.167599,
            -17.378076
          ],
          [
            -66.167505,
            -17.378122
          ],
          [
            -66.167434,
            -17.37816
          ],
          [
            -66.166632,
            -17.37856
          ],
          [
            -66.16617,
            -17.378789
          ],
          [
            -66.166059,
            -17.378851
          ],
          [
            -66.165971,
            -17.378917
          ],
          [
            -66.165864,
            -17.378993
          ],
          [
            -66.165758,
            -17.379093
          ],
          [
            -66.165675,
            -17.379173
          ],
          [
            -66.165603,
            -17.379245
          ],
          [
            -66.165582,
            -17.379265
          ],
          [
            -66.165554,
            -17.3793
          ],
          [
            -66.165512,
            -17.379334
          ],
          [
            -66.165454,
            -17.379362
          ],
          [
            -66.165371,
            -17.379376
          ],
          [
            -66.165304,
            -17.379367
          ],
          [
            -66.165242,
            -17.37934
          ],
          [
            -66.165166,
            -17.379295
          ],
          [
            -66.16509,
            -17.379245
          ],
          [
            -66.165031,
            -17.379203
          ],
          [
            -66.164883,
            -17.379127
          ],
          [
            -66.164813,
            -17.3791
          ],
          [
            -66.16468,
            -17.379067
          ],
          [
            -66.164298,
            -17.378982
          ],
          [
            -66.163488,
            -17.378794
          ],
          [
            -66.16265,
            -17.378607
          ],
          [
            -66.16256,
            -17.378574
          ],
          [
            -66.16249,
            -17.378538
          ],
          [
            -66.16241,
            -17.378486
          ],
          [
            -66.162249,
            -17.378354
          ],
          [
            -66.16216,
            -17.378295
          ],
          [
            -66.162055,
            -17.378248
          ],
          [
            -66.161957,
            -17.378218
          ],
          [
            -66.161864,
            -17.378206
          ],
          [
            -66.161787,
            -17.378204
          ],
          [
            -66.161704,
            -17.378206
          ],
          [
            -66.161391,
            -17.378231
          ],
          [
            -66.161296,
            -17.378232
          ],
          [
            -66.161225,
            -17.378225
          ],
          [
            -66.16116,
            -17.378215
          ],
          [
            -66.161134,
            -17.378214
          ],
          [
            -66.161102,
            -17.378219
          ],
          [
            -66.161065,
            -17.378232
          ],
          [
            -66.161027,
            -17.378256
          ],
          [
            -66.160737,
            -17.379244
          ],
          [
            -66.160421,
            -17.380327
          ],
          [
            -66.160388,
            -17.380454
          ],
          [
            -66.160384,
            -17.380521
          ],
          [
            -66.160395,
            -17.380571
          ],
          [
            -66.160434,
            -17.380703
          ],
          [
            -66.160445,
            -17.380747
          ],
          [
            -66.160451,
            -17.380788
          ],
          [
            -66.160449,
            -17.380831
          ],
          [
            -66.160432,
            -17.380879
          ],
          [
            -66.160394,
            -17.380945
          ],
          [
            -66.160348,
            -17.381026
          ],
          [
            -66.160324,
            -17.381095
          ],
          [
            -66.160303,
            -17.381155
          ],
          [
            -66.160284,
            -17.381209
          ],
          [
            -66.160265,
            -17.381271
          ],
          [
            -66.160255,
            -17.381306
          ],
          [
            -66.160149,
            -17.381663
          ],
          [
            -66.160139,
            -17.381699
          ],
          [
            -66.160118,
            -17.381778
          ],
          [
            -66.160107,
            -17.381844
          ],
          [
            -66.1601,
            -17.381917
          ],
          [
            -66.160102,
            -17.382008
          ],
          [
            -66.160124,
            -17.382136
          ],
          [
            -66.160147,
            -17.382213
          ],
          [
            -66.160147,
            -17.382293
          ],
          [
            -66.160134,
            -17.382365
          ],
          [
            -66.160105,
            -17.382433
          ],
          [
            -66.160049,
            -17.382493
          ],
          [
            -66.159948,
            -17.382564
          ],
          [
            -66.159811,
            -17.382667
          ],
          [
            -66.159744,
            -17.382741
          ],
          [
            -66.1597,
            -17.382801
          ],
          [
            -66.159604,
            -17.382936
          ],
          [
            -66.159491,
            -17.383083
          ],
          [
            -66.159325,
            -17.383296
          ],
          [
            -66.159292,
            -17.383339
          ],
          [
            -66.159241,
            -17.383405
          ],
          [
            -66.15909,
            -17.383596
          ],
          [
            -66.158875,
            -17.383893
          ],
          [
            -66.158834,
            -17.383948
          ],
          [
            -66.158793,
            -17.384001
          ],
          [
            -66.158446,
            -17.38444
          ],
          [
            -66.158365,
            -17.384554
          ],
          [
            -66.158256,
            -17.384691
          ],
          [
            -66.158175,
            -17.384799
          ],
          [
            -66.158068,
            -17.38494
          ],
          [
            -66.158014,
            -17.385013
          ],
          [
            -66.157971,
            -17.385072
          ],
          [
            -66.157936,
            -17.385118
          ],
          [
            -66.157861,
            -17.385215
          ],
          [
            -66.157761,
            -17.385339
          ],
          [
            -66.157508,
            -17.385663
          ],
          [
            -66.156861,
            -17.38651
          ],
          [
            -66.156792,
            -17.386601
          ],
          [
            -66.156737,
            -17.386671
          ],
          [
            -66.156066,
            -17.387551
          ],
          [
            -66.156053,
            -17.387598
          ],
          [
            -66.15605,
            -17.387649
          ],
          [
            -66.156049,
            -17.387711
          ],
          [
            -66.156298,
            -17.387754
          ],
          [
            -66.156283,
            -17.387852
          ],
          [
            -66.156222,
            -17.388261
          ],
          [
            -66.156215,
            -17.388311
          ],
          [
            -66.156154,
            -17.388718
          ],
          [
            -66.156144,
            -17.388828
          ],
          [
            -66.155976,
            -17.389805
          ],
          [
            -66.155965,
            -17.389864
          ],
          [
            -66.155961,
            -17.389889
          ],
          [
            -66.155958,
            -17.389908
          ],
          [
            -66.155796,
            -17.390905
          ],
          [
            -66.155613,
            -17.391912
          ],
          [
            -66.155601,
            -17.391978
          ],
          [
            -66.155662,
            -17.391988
          ],
          [
            -66.156629,
            -17.39217
          ],
          [
            -66.156673,
            -17.392178
          ],
          [
            -66.156727,
            -17.392187
          ],
          [
            -66.157322,
            -17.392289
          ],
          [
            -66.157699,
            -17.392354
          ],
          [
            -66.157753,
            -17.392363
          ],
          [
            -66.157797,
            -17.392371
          ],
          [
            -66.158706,
            -17.392529
          ],
          [
            -66.158786,
            -17.392542
          ],
          [
            -66.158879,
            -17.392559
          ],
          [
            -66.15894,
            -17.39257
          ],
          [
            -66.159876,
            -17.392724
          ],
          [
            -66.15992,
            -17.392731
          ],
          [
            -66.159931,
            -17.392666
          ],
          [
            -66.16011,
            -17.391642
          ],
          [
            -66.159357,
            -17.391514
          ],
          [
            -66.159154,
            -17.391485
          ],
          [
            -66.159096,
            -17.391477
          ],
          [
            -66.159088,
            -17.391515
          ],
          [
            -66.158889,
            -17.392506
          ],
          [
            -66.158879,
            -17.392559
          ],
          [
            -66.158862,
            -17.392647
          ],
          [
            -66.15885,
            -17.39271
          ],
          [
            -66.158694,
            -17.393514
          ],
          [
            -66.158678,
            -17.393586
          ],
          [
            -66.158669,
            -17.39363
          ],
          [
            -66.158468,
            -17.394624
          ],
          [
            -66.158285,
            -17.395625
          ],
          [
            -66.158278,
            -17.395669
          ],
          [
            -66.15827,
            -17.395715
          ],
          [
            -66.158136,
            -17.396672
          ],
          [
            -66.15813,
            -17.396715
          ],
          [
            -66.158124,
            -17.396768
          ],
          [
            -66.157969,
            -17.397736
          ],
          [
            -66.157959,
            -17.397794
          ],
          [
            -66.157949,
            -17.397857
          ],
          [
            -66.157771,
            -17.398908
          ],
          [
            -66.157727,
            -17.399291
          ],
          [
            -66.157728,
            -17.399353
          ],
          [
            -66.157729,
            -17.399487
          ],
          [
            -66.157725,
            -17.399553
          ],
          [
            -66.15771,
            -17.399806
          ],
          [
            -66.157674,
            -17.400165
          ],
          [
            -66.1576,
            -17.40091
          ],
          [
            -66.15759,
            -17.400982
          ],
          [
            -66.157572,
            -17.401163
          ],
          [
            -66.157533,
            -17.401542
          ],
          [
            -66.157493,
            -17.401979
          ],
          [
            -66.157476,
            -17.40212
          ],
          [
            -66.15746,
            -17.40225
          ],
          [
            -66.157367,
            -17.402927
          ],
          [
            -66.15729,
            -17.403424
          ],
          [
            -66.157198,
            -17.403985
          ],
          [
            -66.157174,
            -17.404029
          ],
          [
            -66.157149,
            -17.404081
          ],
          [
            -66.156975,
            -17.405144
          ],
          [
            -66.156929,
            -17.405396
          ],
          [
            -66.156715,
            -17.406568
          ],
          [
            -66.156675,
            -17.406831
          ],
          [
            -66.156608,
            -17.407373
          ],
          [
            -66.156579,
            -17.407596
          ],
          [
            -66.156564,
            -17.407672
          ],
          [
            -66.156552,
            -17.407749
          ],
          [
            -66.156392,
            -17.408892
          ],
          [
            -66.1563,
            -17.409309
          ],
          [
            -66.156253,
            -17.409537
          ],
          [
            -66.156149,
            -17.410116
          ],
          [
            -66.156103,
            -17.410409
          ],
          [
            -66.156079,
            -17.410653
          ],
          [
            -66.15606,
            -17.410819
          ],
          [
            -66.156047,
            -17.410917
          ],
          [
            -66.156007,
            -17.411224
          ],
          [
            -66.155938,
            -17.411777
          ],
          [
            -66.155895,
            -17.41216
          ],
          [
            -66.155899,
            -17.41232
          ],
          [
            -66.155784,
            -17.413118
          ],
          [
            -66.155728,
            -17.413352
          ],
          [
            -66.155588,
            -17.413321
          ],
          [
            -66.155526,
            -17.413301
          ],
          [
            -66.15544,
            -17.413259
          ],
          [
            -66.155028,
            -17.413039
          ],
          [
            -66.15465,
            -17.412835
          ],
          [
            -66.153954,
            -17.412484
          ],
          [
            -66.153767,
            -17.412386
          ],
          [
            -66.153502,
            -17.412251
          ],
          [
            -66.153273,
            -17.412136
          ],
          [
            -66.153195,
            -17.412177
          ],
          [
            -66.15223,
            -17.412685
          ],
          [
            -66.151265,
            -17.413225
          ],
          [
            -66.151179,
            -17.413273
          ],
          [
            -66.150334,
            -17.41372
          ],
          [
            -66.149357,
            -17.414242
          ],
          [
            -66.149592,
            -17.41452
          ],
          [
            -66.149759,
            -17.414696
          ],
          [
            -66.149916,
            -17.414881
          ],
          [
            -66.150048,
            -17.415089
          ],
          [
            -66.150147,
            -17.415268
          ],
          [
            -66.150222,
            -17.415457
          ],
          [
            -66.150279,
            -17.41562
          ],
          [
            -66.150312,
            -17.415788
          ],
          [
            -66.150333,
            -17.415936
          ],
          [
            -66.150362,
            -17.416201
          ],
          [
            -66.150385,
            -17.416487
          ],
          [
            -66.150383,
            -17.416561
          ],
          [
            -66.150368,
            -17.416656
          ],
          [
            -66.1503,
            -17.417085
          ],
          [
            -66.150198,
            -17.417568
          ],
          [
            -66.150125,
            -17.417964
          ],
          [
            -66.150099,
            -17.418058
          ],
          [
            -66.150075,
            -17.418125
          ],
          [
            -66.150034,
            -17.418204
          ],
          [
            -66.149809,
            -17.418529
          ],
          [
            -66.149359,
            -17.419166
          ],
          [
            -66.149337,
            -17.419238
          ],
          [
            -66.14933,
            -17.419273
          ],
          [
            -66.149323,
            -17.419308
          ],
          [
            -66.149317,
            -17.419365
          ],
          [
            -66.149329,
            -17.419467
          ],
          [
            -66.149351,
            -17.419641
          ],
          [
            -66.149273,
            -17.419672
          ],
          [
            -66.148994,
            -17.419559
          ],
          [
            -66.148855,
            -17.419502
          ],
          [
            -66.148797,
            -17.419486
          ],
          [
            -66.148755,
            -17.419483
          ],
          [
            -66.148664,
            -17.419481
          ],
          [
            -66.148243,
            -17.419506
          ],
          [
            -66.14763,
            -17.419545
          ],
          [
            -66.147289,
            -17.419563
          ],
          [
            -66.14703,
            -17.419576
          ],
          [
            -66.14641,
            -17.419615
          ],
          [
            -66.146005,
            -17.41964
          ],
          [
            -66.145385,
            -17.419678
          ],
          [
            -66.144702,
            -17.419721
          ],
          [
            -66.144594,
            -17.419727
          ],
          [
            -66.143963,
            -17.419767
          ],
          [
            -66.143361,
            -17.419799
          ],
          [
            -66.14276,
            -17.419833
          ],
          [
            -66.142134,
            -17.419868
          ],
          [
            -66.141514,
            -17.419908
          ],
          [
            -66.140927,
            -17.419941
          ],
          [
            -66.140539,
            -17.419963
          ],
          [
            -66.140289,
            -17.419977
          ],
          [
            -66.139993,
            -17.419992
          ],
          [
            -66.139816,
            -17.420001
          ],
          [
            -66.139729,
            -17.420002
          ],
          [
            -66.139684,
            -17.420001
          ],
          [
            -66.13964,
            -17.419993
          ],
          [
            -66.139598,
            -17.419979
          ],
          [
            -66.139558,
            -17.419959
          ],
          [
            -66.139522,
            -17.419933
          ],
          [
            -66.13949,
            -17.419903
          ],
          [
            -66.139397,
            -17.419831
          ],
          [
            -66.139366,
            -17.419818
          ],
          [
            -66.139331,
            -17.419813
          ],
          [
            -66.139304,
            -17.419815
          ],
          [
            -66.139269,
            -17.419826
          ],
          [
            -66.139244,
            -17.419841
          ],
          [
            -66.138494,
            -17.420627
          ],
          [
            -66.138093,
            -17.421026
          ],
          [
            -66.137776,
            -17.421357
          ],
          [
            -66.137185,
            -17.421958
          ],
          [
            -66.136865,
            -17.422289
          ],
          [
            -66.136841,
            -17.422267
          ],
          [
            -66.136817,
            -17.422246
          ],
          [
            -66.136303,
            -17.421805
          ],
          [
            -66.136005,
            -17.421541
          ],
          [
            -66.135768,
            -17.421324
          ],
          [
            -66.135544,
            -17.42112
          ],
          [
            -66.135266,
            -17.420866
          ],
          [
            -66.134765,
            -17.420439
          ],
          [
            -66.134068,
            -17.421143
          ],
          [
            -66.133755,
            -17.421467
          ],
          [
            -66.133399,
            -17.421831
          ],
          [
            -66.133177,
            -17.422065
          ],
          [
            -66.133181,
            -17.422244
          ],
          [
            -66.133147,
            -17.422889
          ],
          [
            -66.133138,
            -17.423534
          ],
          [
            -66.134343,
            -17.423619
          ],
          [
            -66.134637,
            -17.423644
          ],
          [
            -66.134742,
            -17.423638
          ],
          [
            -66.134883,
            -17.423643
          ],
          [
            -66.135337,
            -17.42368
          ],
          [
            -66.135385,
            -17.423672
          ],
          [
            -66.135437,
            -17.423657
          ],
          [
            -66.135475,
            -17.423673
          ],
          [
            -66.135499,
            -17.423698
          ],
          [
            -66.135465,
            -17.42372
          ],
          [
            -66.135407,
            -17.423741
          ],
          [
            -66.135347,
            -17.423754
          ],
          [
            -66.134855,
            -17.423721
          ],
          [
            -66.134732,
            -17.423721
          ],
          [
            -66.134635,
            -17.423736
          ],
          [
            -66.134541,
            -17.423785
          ],
          [
            -66.134462,
            -17.423839
          ],
          [
            -66.133796,
            -17.424387
          ],
          [
            -66.133387,
            -17.42473
          ],
          [
            -66.132634,
            -17.42537
          ],
          [
            -66.131893,
            -17.425999
          ],
          [
            -66.131323,
            -17.426483
          ],
          [
            -66.130769,
            -17.426965
          ],
          [
            -66.130666,
            -17.427065
          ],
          [
            -66.130557,
            -17.427173
          ],
          [
            -66.130454,
            -17.42729
          ],
          [
            -66.130392,
            -17.427364
          ],
          [
            -66.129794,
            -17.428083
          ],
          [
            -66.129097,
            -17.428901
          ],
          [
            -66.128948,
            -17.429095
          ],
          [
            -66.128845,
            -17.429223
          ],
          [
            -66.12873,
            -17.429396
          ],
          [
            -66.128531,
            -17.429737
          ],
          [
            -66.128043,
            -17.430633
          ],
          [
            -66.127602,
            -17.431475
          ],
          [
            -66.126981,
            -17.432661
          ],
          [
            -66.126895,
            -17.432829
          ],
          [
            -66.126714,
            -17.43315
          ],
          [
            -66.126377,
            -17.433676
          ],
          [
            -66.126003,
            -17.434251
          ],
          [
            -66.125366,
            -17.43523
          ],
          [
            -66.125306,
            -17.435342
          ],
          [
            -66.125283,
            -17.435408
          ],
          [
            -66.125262,
            -17.435469
          ],
          [
            -66.125241,
            -17.435608
          ],
          [
            -66.125242,
            -17.435713
          ],
          [
            -66.125258,
            -17.435824
          ],
          [
            -66.125297,
            -17.435961
          ],
          [
            -66.125404,
            -17.436297
          ],
          [
            -66.125455,
            -17.436497
          ],
          [
            -66.125502,
            -17.43671
          ],
          [
            -66.125634,
            -17.437338
          ],
          [
            -66.125659,
            -17.437498
          ],
          [
            -66.125715,
            -17.437775
          ],
          [
            -66.125825,
            -17.438225
          ],
          [
            -66.125851,
            -17.438344
          ],
          [
            -66.125861,
            -17.438456
          ],
          [
            -66.125854,
            -17.438558
          ],
          [
            -66.125838,
            -17.438624
          ],
          [
            -66.125768,
            -17.438764
          ],
          [
            -66.125741,
            -17.43881
          ],
          [
            -66.12566,
            -17.438908
          ],
          [
            -66.125307,
            -17.439312
          ],
          [
            -66.125215,
            -17.439428
          ],
          [
            -66.125162,
            -17.439493
          ],
          [
            -66.12513,
            -17.439562
          ],
          [
            -66.125114,
            -17.439662
          ],
          [
            -66.125118,
            -17.439753
          ],
          [
            -66.125124,
            -17.439956
          ],
          [
            -66.125136,
            -17.440182
          ],
          [
            -66.125165,
            -17.44129
          ],
          [
            -66.12519,
            -17.44256
          ],
          [
            -66.125204,
            -17.443002
          ],
          [
            -66.12521,
            -17.443203
          ],
          [
            -66.125213,
            -17.443602
          ],
          [
            -66.125219,
            -17.444555
          ],
          [
            -66.125221,
            -17.444639
          ],
          [
            -66.125265,
            -17.44652
          ],
          [
            -66.125283,
            -17.447479
          ],
          [
            -66.125296,
            -17.448493
          ],
          [
            -66.127157,
            -17.449032
          ],
          [
            -66.128109,
            -17.449301
          ],
          [
            -66.129053,
            -17.449573
          ]
        ]
      }
    }
  ]
}