{
  "type": "FeatureCollection",
  "features": [
    {
      "type": "Feature",
      "properties": {
        "route_id": "9380215",
        "route_short_name": "118",
        "route_long_name": "MiniBus 118: Avenida Ecol\u00f3gica \u2192 Calle Tupac Katari"
      },
      "geometry": {
        "type": "LineString",
        "coordinates": [
          [
            -66.214101,
            -17.341078
          ],
          [
            -66.213997,
            -17.341145
          ],
          [
            -66.213814,
            -17.341224
          ],
          [
            -66.213785,
            -17.341237
          ],
          [
            -66.213695,
            -17.341278
          ],
          [
            -66.213614,
            -17.341307
          ],
          [
            -66.213422,
            -17.341375
          ],
          [
            -66.213359,
            -17.341399
          ],
          [
            -66.212911,
            -17.341572
          ],
          [
            -66.212488,
            -17.341777
          ],
          [
            -66.212451,
            -17.341795
          ],
          [
            -66.212404,
            -17.341814
          ],
          [
            -66.212223,
            -17.341905
          ],
          [
            -66.212185,
            -17.341921
          ],
          [
            -66.211608,
            -17.34222
          ],
          [
            -66.211128,
            -17.342443
          ],
          [
            -66.211035,
            -17.342488
          ],
          [
            -66.208597,
            -17.343578
          ],
          [
            -66.207906,
            -17.343874
          ],
          [
            -66.207836,
            -17.343904
          ],
          [
            -66.207248,
            -17.344152
          ],
          [
            -66.206973,
            -17.344282
          ],
          [
            -66.20685,
            -17.344337
          ],
          [
            -66.206444,
            -17.344501
          ],
          [
            -66.20623,
            -17.344584
          ],
          [
            -66.206194,
            -17.344598
          ],
          [
            -66.20613,
            -17.344625
          ],
          [
            -66.205448,
            -17.344895
          ],
          [
            -66.204903,
            -17.345117
          ],
          [
            -66.204339,
            -17.345351
          ],
          [
            -66.20428,
            -17.345374
          ],
          [
            -66.204211,
            -17.345404
          ],
          [
            -66.204156,
            -17.345429
          ],
          [
            -66.203661,
            -17.345667
          ],
          [
            -66.202994,
            -17.345991
          ],
          [
            -66.202706,
            -17.346128
          ],
          [
            -66.202516,
            -17.34621
          ],
          [
            -66.202352,
            -17.34628
          ],
          [
            -66.202283,
            -17.346304
          ],
          [
            -66.20049,
            -17.347044
          ],
          [
            -66.200273,
            -17.347134
          ],
          [
            -66.199964,
            -17.347248
          ],
          [
            -66.199902,
            -17.347271
          ],
          [
            -66.199801,
            -17.347313
          ],
          [
            -66.199686,
            -17.347358
          ],
          [
            -66.199641,
            -17.347376
          ],
          [
            -66.198624,
            -17.347809
          ],
          [
            -66.198355,
            -17.347913
          ],
          [
            -66.197545,
            -17.348249
          ],
          [
            -66.196919,
            -17.348508
          ],
          [
            -66.196677,
            -17.348621
          ],
          [
            -66.196522,
            -17.348698
          ],
          [
            -66.195907,
            -17.349044
          ],
          [
            -66.1947,
            -17.349671
          ],
          [
            -66.194167,
            -17.349962
          ],
          [
            -66.193915,
            -17.3501
          ],
          [
            -66.19352,
            -17.350316
          ],
          [
            -66.193244,
            -17.350475
          ],
          [
            -66.192937,
            -17.350654
          ],
          [
            -66.192621,
            -17.35086
          ],
          [
            -66.192372,
            -17.351023
          ],
          [
            -66.19229,
            -17.351079
          ],
          [
            -66.191998,
            -17.351275
          ],
          [
            -66.191734,
            -17.351452
          ],
          [
            -66.191544,
            -17.351583
          ],
          [
            -66.191332,
            -17.35174
          ],
          [
            -66.190714,
            -17.352201
          ],
          [
            -66.189963,
            -17.35281
          ],
          [
            -66.189896,
            -17.352864
          ],
          [
            -66.189773,
            -17.352958
          ],
          [
            -66.188986,
            -17.353587
          ],
          [
            -66.188921,
            -17.353639
          ],
          [
            -66.188086,
            -17.354274
          ],
          [
            -66.18789,
            -17.354423
          ],
          [
            -66.187854,
            -17.354462
          ],
          [
            -66.187759,
            -17.354597
          ],
          [
            -66.187733,
            -17.354641
          ],
          [
            -66.187706,
            -17.354659
          ],
          [
            -66.187672,
            -17.354675
          ],
          [
            -66.187626,
            -17.354682
          ],
          [
            -66.187543,
            -17.354729
          ],
          [
            -66.187488,
            -17.354758
          ],
          [
            -66.187141,
            -17.355024
          ],
          [
            -66.186476,
            -17.355535
          ],
          [
            -66.185915,
            -17.355976
          ],
          [
            -66.185611,
            -17.356214
          ],
          [
            -66.185144,
            -17.35655
          ],
          [
            -66.184936,
            -17.35671
          ],
          [
            -66.184801,
            -17.356831
          ],
          [
            -66.184719,
            -17.356927
          ],
          [
            -66.184674,
            -17.356982
          ],
          [
            -66.184574,
            -17.357114
          ],
          [
            -66.184219,
            -17.35763
          ],
          [
            -66.183744,
            -17.358324
          ],
          [
            -66.183421,
            -17.358814
          ],
          [
            -66.183236,
            -17.359028
          ],
          [
            -66.183192,
            -17.359081
          ],
          [
            -66.183134,
            -17.359154
          ],
          [
            -66.183059,
            -17.359261
          ],
          [
            -66.183015,
            -17.359338
          ],
          [
            -66.182949,
            -17.359476
          ],
          [
            -66.182649,
            -17.360126
          ],
          [
            -66.182211,
            -17.361014
          ],
          [
            -66.182095,
            -17.361252
          ],
          [
            -66.182057,
            -17.361311
          ],
          [
            -66.181752,
            -17.361818
          ],
          [
            -66.18163,
            -17.362024
          ],
          [
            -66.181481,
            -17.36223
          ],
          [
            -66.181259,
            -17.36252
          ],
          [
            -66.181034,
            -17.362765
          ],
          [
            -66.180824,
            -17.362991
          ],
          [
            -66.180654,
            -17.36314
          ],
          [
            -66.180434,
            -17.363309
          ],
          [
            -66.179986,
            -17.36366
          ],
          [
            -66.179677,
            -17.3639
          ],
          [
            -66.179423,
            -17.364078
          ],
          [
            -66.179134,
            -17.364237
          ],
          [
            -66.178971,
            -17.364323
          ],
          [
            -66.178758,
            -17.364437
          ],
          [
            -66.178623,
            -17.364489
          ],
          [
            -66.178568,
            -17.364505
          ],
          [
            -66.178353,
            -17.364571
          ],
          [
            -66.177977,
            -17.364683
          ],
          [
            -66.176792,
            -17.365041
          ],
          [
            -66.176754,
            -17.365053
          ],
          [
            -66.176655,
            -17.365083
          ],
          [
            -66.176535,
            -17.365121
          ],
          [
            -66.176474,
            -17.365139
          ],
          [
            -66.17516,
            -17.365542
          ],
          [
            -66.175014,
            -17.365589
          ],
          [
            -66.174918,
            -17.365615
          ],
          [
            -66.174781,
            -17.365645
          ],
          [
            -66.173324,
            -17.36574
          ],
          [
            -66.171798,
            -17.365827
          ],
          [
            -66.17156,
            -17.365844
          ],
          [
            -66.171415,
            -17.365855
          ],
          [
            -66.171303,
            -17.365866
          ],
          [
            -66.17115,
            -17.365898
          ],
          [
            -66.170556,
            -17.366068
          ],
          [
            -66.17039,
            -17.366106
          ],
          [
            -66.170215,
            -17.366125
          ],
          [
            -66.169994,
            -17.366127
          ],
          [
            -66.169799,
            -17.366111
          ],
          [
            -66.169604,
            -17.366074
          ],
          [
            -66.169333,
            -17.365991
          ],
          [
            -66.169187,
            -17.365938
          ],
          [
            -66.168955,
            -17.365866
          ],
          [
            -66.168734,
            -17.36583
          ],
          [
            -66.168565,
            -17.365816
          ],
          [
            -66.167953,
            -17.365761
          ],
          [
            -66.167801,
            -17.365773
          ],
          [
            -66.167643,
            -17.365805
          ],
          [
            -66.1675,
            -17.365855
          ],
          [
            -66.166968,
            -17.366139
          ],
          [
            -66.166684,
            -17.366326
          ],
          [
            -66.166331,
            -17.366568
          ],
          [
            -66.166121,
            -17.366717
          ],
          [
            -66.165837,
            -17.366928
          ],
          [
            -66.165123,
            -17.367435
          ],
          [
            -66.164249,
            -17.368057
          ],
          [
            -66.164157,
            -17.368131
          ],
          [
            -66.164089,
            -17.368196
          ],
          [
            -66.164035,
            -17.368262
          ],
          [
            -66.16405,
            -17.368325
          ],
          [
            -66.164055,
            -17.368424
          ],
          [
            -66.164041,
            -17.368517
          ],
          [
            -66.164022,
            -17.368577
          ],
          [
            -66.163988,
            -17.368632
          ],
          [
            -66.163927,
            -17.368708
          ],
          [
            -66.163883,
            -17.368751
          ],
          [
            -66.163826,
            -17.368816
          ],
          [
            -66.163797,
            -17.368861
          ],
          [
            -66.163757,
            -17.368921
          ],
          [
            -66.163734,
            -17.368975
          ],
          [
            -66.163589,
            -17.369499
          ],
          [
            -66.16331,
            -17.370427
          ],
          [
            -66.162963,
            -17.371627
          ],
          [
            -66.16275,
            -17.372366
          ],
          [
            -66.162724,
            -17.372453
          ],
          [
            -66.162697,
            -17.372548
          ],
          [
            -66.162668,
            -17.372642
          ],
          [
            -66.162647,
            -17.372715
          ],
          [
            -66.16198,
            -17.375005
          ],
          [
            -66.161913,
            -17.37522
          ],
          [
            -66.161886,
            -17.375306
          ],
          [
            -66.161849,
            -17.375428
          ],
          [
            -66.161827,
            -17.375498
          ],
          [
            -66.161548,
            -17.376453
          ],
          [
            -66.161352,
            -17.377128
          ],
          [
            -66.161152,
            -17.377817
          ],
          [
            -66.1611,
            -17.377993
          ],
          [
            -66.161078,
            -17.378075
          ],
          [
            -66.161027,
            -17.378256
          ],
          [
            -66.160737,
            -17.379244
          ],
          [
            -66.160421,
            -17.380327
          ],
          [
            -66.160388,
            -17.380454
          ],
          [
            -66.160384,
            -17.380521
          ],
          [
            -66.160395,
            -17.380571
          ],
          [
            -66.160434,
            -17.380703
          ],
          [
            -66.160445,
            -17.380747
          ],
          [
            -66.160451,
            -17.380788
          ],
          [
            -66.160449,
            -17.380831
          ],
          [
            -66.160432,
            -17.380879
          ],
          [
            -66.160394,
            -17.380945
          ],
          [
            -66.160348,
            -17.381026
          ],
          [
            -66.160324,
            -17.381095
          ],
          [
            -66.160303,
            -17.381155
          ],
          [
            -66.160284,
            -17.381209
          ],
          [
            -66.160265,
            -17.381271
          ],
          [
            -66.160255,
            -17.381306
          ],
          [
            -66.160149,
            -17.381663
          ],
          [
            -66.160139,
            -17.381699
          ],
          [
            -66.160118,
            -17.381778
          ],
          [
            -66.160107,
            -17.381844
          ],
          [
            -66.1601,
            -17.381917
          ],
          [
            -66.160102,
            -17.382008
          ],
          [
            -66.160124,
            -17.382136
          ],
          [
            -66.160147,
            -17.382213
          ],
          [
            -66.160147,
            -17.382293
          ],
          [
            -66.160134,
            -17.382365
          ],
          [
            -66.160105,
            -17.382433
          ],
          [
            -66.160049,
            -17.382493
          ],
          [
            -66.159948,
            -17.382564
          ],
          [
            -66.159811,
            -17.382667
          ],
          [
            -66.159744,
            -17.382741
          ],
          [
            -66.1597,
            -17.382801
          ],
          [
            -66.159604,
            -17.382936
          ],
          [
            -66.159491,
            -17.383083
          ],
          [
            -66.159325,
            -17.383296
          ],
          [
            -66.159292,
            -17.383339
          ],
          [
            -66.159241,
            -17.383405
          ],
          [
            -66.15909,
            -17.383596
          ],
          [
            -66.158875,
            -17.383893
          ],
          [
            -66.158834,
            -17.383948
          ],
          [
            -66.158793,
            -17.384001
          ],
          [
            -66.158446,
            -17.38444
          ],
          [
            -66.158365,
            -17.384554
          ],
          [
            -66.158256,
            -17.384691
          ],
          [
            -66.158175,
            -17.384799
          ],
          [
            -66.158068,
            -17.38494
          ],
          [
            -66.158014,
            -17.385013
          ],
          [
            -66.157971,
            -17.385072
          ],
          [
            -66.157936,
            -17.385118
          ],
          [
            -66.157861,
            -17.385215
          ],
          [
            -66.157761,
            -17.385339
          ],
          [
            -66.157508,
            -17.385663
          ],
          [
            -66.156861,
            -17.38651
          ],
          [
            -66.156792,
            -17.386601
          ],
          [
            -66.156737,
            -17.386671
          ],
          [
            -66.156066,
            -17.387551
          ],
          [
            -66.156053,
            -17.387598
          ],
          [
            -66.15605,
            -17.387649
          ],
          [
            -66.156049,
            -17.387711
          ],
          [
            -66.156298,
            -17.387754
          ],
          [
            -66.156283,
            -17.387852
          ],
          [
            -66.156222,
            -17.388261
          ],
          [
            -66.156215,
            -17.388311
          ],
          [
            -66.156154,
            -17.388718
          ],
          [
            -66.156129,
            -17.38875
          ],
          [
            -66.156099,
            -17.388771
          ],
          [
            -66.156061,
            -17.38879
          ],
          [
            -66.155721,
            -17.388735
          ],
          [
            -66.15558,
            -17.388712
          ],
          [
            -66.155489,
            -17.388697
          ],
          [
            -66.155208,
            -17.388652
          ],
          [
            -66.155132,
            -17.388666
          ],
          [
            -66.155061,
            -17.388655
          ],
          [
            -66.154029,
            -17.388432
          ],
          [
            -66.152984,
            -17.388202
          ],
          [
            -66.151836,
            -17.387939
          ],
          [
            -66.151771,
            -17.387925
          ],
          [
            -66.15176,
            -17.388
          ],
          [
            -66.151611,
            -17.388925
          ],
          [
            -66.151604,
            -17.388963
          ],
          [
            -66.1516,
            -17.388988
          ],
          [
            -66.151594,
            -17.389029
          ],
          [
            -66.151417,
            -17.390035
          ],
          [
            -66.151233,
            -17.391123
          ],
          [
            -66.151221,
            -17.391186
          ],
          [
            -66.151208,
            -17.391273
          ],
          [
            -66.151198,
            -17.391337
          ],
          [
            -66.151126,
            -17.391729
          ],
          [
            -66.15104,
            -17.392193
          ],
          [
            -66.151028,
            -17.392245
          ],
          [
            -66.151021,
            -17.392284
          ],
          [
            -66.150842,
            -17.393227
          ],
          [
            -66.150832,
            -17.393279
          ],
          [
            -66.150822,
            -17.393334
          ],
          [
            -66.15064,
            -17.394328
          ],
          [
            -66.150442,
            -17.395355
          ],
          [
            -66.150386,
            -17.395644
          ],
          [
            -66.150236,
            -17.396417
          ],
          [
            -66.150023,
            -17.397561
          ],
          [
            -66.150017,
            -17.397637
          ],
          [
            -66.150014,
            -17.397688
          ],
          [
            -66.149949,
            -17.398476
          ],
          [
            -66.149941,
            -17.398553
          ],
          [
            -66.149907,
            -17.399003
          ],
          [
            -66.149849,
            -17.399867
          ],
          [
            -66.150022,
            -17.399873
          ],
          [
            -66.150125,
            -17.399876
          ],
          [
            -66.150221,
            -17.399889
          ],
          [
            -66.15035,
            -17.399919
          ],
          [
            -66.150359,
            -17.399922
          ],
          [
            -66.150441,
            -17.399951
          ],
          [
            -66.150566,
            -17.400006
          ],
          [
            -66.15073,
            -17.400113
          ],
          [
            -66.150872,
            -17.400238
          ],
          [
            -66.150974,
            -17.400334
          ],
          [
            -66.151083,
            -17.400467
          ],
          [
            -66.151158,
            -17.400587
          ],
          [
            -66.15124,
            -17.400754
          ],
          [
            -66.15129,
            -17.400901
          ],
          [
            -66.151311,
            -17.401041
          ],
          [
            -66.151318,
            -17.401207
          ],
          [
            -66.151304,
            -17.401331
          ],
          [
            -66.151274,
            -17.40147
          ],
          [
            -66.15122,
            -17.401588
          ],
          [
            -66.151061,
            -17.401901
          ],
          [
            -66.15102,
            -17.402016
          ],
          [
            -66.150982,
            -17.402131
          ],
          [
            -66.150961,
            -17.402256
          ],
          [
            -66.150943,
            -17.402375
          ]
        ]
      }
    }
  ]
}