{
  "type": "FeatureCollection",
  "features": [
    {
      "type": "Feature",
      "properties": {
        "route_id": "10748432",
        "route_short_name": "13",
        "route_long_name": "MiniBus 13: Villa San Miguel \u2192 Avenida Chilimarca"
      },
      "geometry": {
        "type": "LineString",
        "coordinates": [
          [
            -66.133417,
            -17.44056
          ],
          [
            -66.132926,
            -17.440364
          ],
          [
            -66.132337,
            -17.440152
          ],
          [
            -66.132357,
            -17.440078
          ],
          [
            -66.132378,
            -17.439999
          ],
          [
            -66.132375,
            -17.439869
          ],
          [
            -66.132381,
            -17.439748
          ],
          [
            -66.132398,
            -17.439616
          ],
          [
            -66.132413,
            -17.439491
          ],
          [
            -66.132407,
            -17.439434
          ],
          [
            -66.132376,
            -17.43938
          ],
          [
            -66.132342,
            -17.439297
          ],
          [
            -66.132193,
            -17.438808
          ],
          [
            -66.132177,
            -17.438781
          ],
          [
            -66.132146,
            -17.438762
          ],
          [
            -66.132107,
            -17.438762
          ],
          [
            -66.131697,
            -17.43886
          ],
          [
            -66.131585,
            -17.438906
          ],
          [
            -66.13159,
            -17.438846
          ],
          [
            -66.131647,
            -17.438333
          ],
          [
            -66.131625,
            -17.437819
          ],
          [
            -66.130887,
            -17.437993
          ],
          [
            -66.130345,
            -17.438121
          ],
          [
            -66.130251,
            -17.438136
          ],
          [
            -66.128649,
            -17.438518
          ],
          [
            -66.128573,
            -17.438025
          ],
          [
            -66.128459,
            -17.437521
          ],
          [
            -66.128364,
            -17.437022
          ],
          [
            -66.128334,
            -17.436852
          ],
          [
            -66.128276,
            -17.436525
          ],
          [
            -66.128221,
            -17.436487
          ],
          [
            -66.128137,
            -17.436478
          ],
          [
            -66.128047,
            -17.436504
          ],
          [
            -66.127083,
            -17.436409
          ],
          [
            -66.127191,
            -17.436021
          ],
          [
            -66.127285,
            -17.435682
          ],
          [
            -66.127451,
            -17.435098
          ],
          [
            -66.127459,
            -17.43507
          ],
          [
            -66.127573,
            -17.434669
          ],
          [
            -66.127657,
            -17.434388
          ],
          [
            -66.127789,
            -17.434027
          ],
          [
            -66.127878,
            -17.433673
          ],
          [
            -66.127975,
            -17.433439
          ],
          [
            -66.128142,
            -17.433074
          ],
          [
            -66.128335,
            -17.432754
          ],
          [
            -66.128494,
            -17.432538
          ],
          [
            -66.128668,
            -17.432368
          ],
          [
            -66.128854,
            -17.432211
          ],
          [
            -66.129011,
            -17.432071
          ],
          [
            -66.129701,
            -17.431293
          ],
          [
            -66.129894,
            -17.431065
          ],
          [
            -66.130058,
            -17.430854
          ],
          [
            -66.130182,
            -17.430672
          ],
          [
            -66.13021,
            -17.430538
          ],
          [
            -66.130253,
            -17.430274
          ],
          [
            -66.130274,
            -17.430005
          ],
          [
            -66.130317,
            -17.429763
          ],
          [
            -66.130388,
            -17.429487
          ],
          [
            -66.130434,
            -17.429362
          ],
          [
            -66.130494,
            -17.429269
          ],
          [
            -66.130764,
            -17.429008
          ],
          [
            -66.131145,
            -17.428683
          ],
          [
            -66.131362,
            -17.428545
          ],
          [
            -66.131651,
            -17.428404
          ],
          [
            -66.132001,
            -17.428246
          ],
          [
            -66.132131,
            -17.428202
          ],
          [
            -66.13224,
            -17.42814
          ],
          [
            -66.132353,
            -17.428079
          ],
          [
            -66.132431,
            -17.428025
          ],
          [
            -66.132485,
            -17.427974
          ],
          [
            -66.132658,
            -17.427863
          ],
          [
            -66.133089,
            -17.427533
          ],
          [
            -66.133188,
            -17.427464
          ],
          [
            -66.13339,
            -17.427353
          ],
          [
            -66.13351,
            -17.427282
          ],
          [
            -66.133606,
            -17.42724
          ],
          [
            -66.133824,
            -17.427153
          ],
          [
            -66.133863,
            -17.427131
          ],
          [
            -66.134201,
            -17.426938
          ],
          [
            -66.134424,
            -17.426803
          ],
          [
            -66.134571,
            -17.426694
          ],
          [
            -66.134694,
            -17.426568
          ],
          [
            -66.135037,
            -17.426163
          ],
          [
            -66.135286,
            -17.425867
          ],
          [
            -66.135403,
            -17.42576
          ],
          [
            -66.135683,
            -17.425511
          ],
          [
            -66.135791,
            -17.425418
          ],
          [
            -66.135896,
            -17.425326
          ],
          [
            -66.135988,
            -17.425243
          ],
          [
            -66.136197,
            -17.42504
          ],
          [
            -66.136335,
            -17.424927
          ],
          [
            -66.136545,
            -17.424811
          ],
          [
            -66.136653,
            -17.424757
          ],
          [
            -66.136947,
            -17.424649
          ],
          [
            -66.137271,
            -17.4245
          ],
          [
            -66.137523,
            -17.424409
          ],
          [
            -66.137727,
            -17.424345
          ],
          [
            -66.13803,
            -17.424252
          ],
          [
            -66.138198,
            -17.424114
          ],
          [
            -66.138342,
            -17.423958
          ],
          [
            -66.137412,
            -17.42317
          ],
          [
            -66.137608,
            -17.422975
          ],
          [
            -66.137662,
            -17.422911
          ],
          [
            -66.137931,
            -17.422632
          ],
          [
            -66.138256,
            -17.422303
          ],
          [
            -66.138526,
            -17.422032
          ],
          [
            -66.138837,
            -17.421722
          ],
          [
            -66.138888,
            -17.421665
          ],
          [
            -66.139122,
            -17.421454
          ],
          [
            -66.139184,
            -17.421373
          ],
          [
            -66.139232,
            -17.421297
          ],
          [
            -66.13928,
            -17.4212
          ],
          [
            -66.13934,
            -17.421023
          ],
          [
            -66.139493,
            -17.420168
          ],
          [
            -66.139524,
            -17.420028
          ],
          [
            -66.139526,
            -17.419986
          ],
          [
            -66.139522,
            -17.419933
          ],
          [
            -66.13949,
            -17.419903
          ],
          [
            -66.139464,
            -17.419868
          ],
          [
            -66.139443,
            -17.419829
          ],
          [
            -66.139429,
            -17.419788
          ],
          [
            -66.139421,
            -17.419746
          ],
          [
            -66.139421,
            -17.419703
          ],
          [
            -66.139427,
            -17.41966
          ],
          [
            -66.139441,
            -17.419619
          ],
          [
            -66.13946,
            -17.41958
          ],
          [
            -66.139486,
            -17.419544
          ],
          [
            -66.139517,
            -17.419513
          ],
          [
            -66.139553,
            -17.419487
          ],
          [
            -66.139593,
            -17.419466
          ],
          [
            -66.139635,
            -17.419451
          ],
          [
            -66.139679,
            -17.419442
          ],
          [
            -66.139724,
            -17.419441
          ],
          [
            -66.139769,
            -17.419445
          ],
          [
            -66.139813,
            -17.419456
          ],
          [
            -66.139918,
            -17.419494
          ],
          [
            -66.139964,
            -17.419511
          ],
          [
            -66.140017,
            -17.419521
          ],
          [
            -66.140052,
            -17.419522
          ],
          [
            -66.140073,
            -17.419523
          ],
          [
            -66.140258,
            -17.419512
          ],
          [
            -66.140515,
            -17.419497
          ],
          [
            -66.1409,
            -17.419475
          ],
          [
            -66.141492,
            -17.419443
          ],
          [
            -66.142106,
            -17.419412
          ],
          [
            -66.142722,
            -17.419376
          ],
          [
            -66.143133,
            -17.419356
          ],
          [
            -66.143227,
            -17.419372
          ],
          [
            -66.143291,
            -17.4194
          ],
          [
            -66.143395,
            -17.419458
          ],
          [
            -66.143463,
            -17.419485
          ],
          [
            -66.143516,
            -17.419503
          ],
          [
            -66.143572,
            -17.419509
          ],
          [
            -66.143944,
            -17.419493
          ],
          [
            -66.144559,
            -17.41945
          ],
          [
            -66.14468,
            -17.419442
          ],
          [
            -66.14559,
            -17.419387
          ],
          [
            -66.145995,
            -17.419362
          ],
          [
            -66.146369,
            -17.419342
          ],
          [
            -66.147011,
            -17.419302
          ],
          [
            -66.147611,
            -17.419268
          ],
          [
            -66.148208,
            -17.419229
          ],
          [
            -66.148651,
            -17.419206
          ],
          [
            -66.148764,
            -17.419206
          ],
          [
            -66.148856,
            -17.419217
          ],
          [
            -66.149125,
            -17.419273
          ],
          [
            -66.149195,
            -17.419259
          ],
          [
            -66.14924,
            -17.419241
          ],
          [
            -66.149277,
            -17.41922
          ],
          [
            -66.149359,
            -17.419166
          ],
          [
            -66.149809,
            -17.418529
          ],
          [
            -66.150034,
            -17.418204
          ],
          [
            -66.150075,
            -17.418125
          ],
          [
            -66.150099,
            -17.418058
          ],
          [
            -66.150125,
            -17.417964
          ],
          [
            -66.150198,
            -17.417568
          ],
          [
            -66.1503,
            -17.417085
          ],
          [
            -66.150368,
            -17.416656
          ],
          [
            -66.150383,
            -17.416561
          ],
          [
            -66.150385,
            -17.416487
          ],
          [
            -66.150362,
            -17.416201
          ],
          [
            -66.150333,
            -17.415936
          ],
          [
            -66.150312,
            -17.415788
          ],
          [
            -66.150279,
            -17.41562
          ],
          [
            -66.150222,
            -17.415457
          ],
          [
            -66.150147,
            -17.415268
          ],
          [
            -66.150048,
            -17.415089
          ],
          [
            -66.149916,
            -17.414881
          ],
          [
            -66.149759,
            -17.414696
          ],
          [
            -66.149592,
            -17.41452
          ],
          [
            -66.149357,
            -17.414242
          ],
          [
            -66.150334,
            -17.41372
          ],
          [
            -66.151179,
            -17.413273
          ],
          [
            -66.151109,
            -17.412696
          ],
          [
            -66.151068,
            -17.412381
          ],
          [
            -66.151041,
            -17.411901
          ],
          [
            -66.150983,
            -17.41141
          ],
          [
            -66.150856,
            -17.410413
          ],
          [
            -66.150787,
            -17.409593
          ],
          [
            -66.150772,
            -17.409345
          ],
          [
            -66.150746,
            -17.408778
          ],
          [
            -66.150722,
            -17.408425
          ],
          [
            -66.150694,
            -17.407638
          ],
          [
            -66.150771,
            -17.404984
          ],
          [
            -66.150768,
            -17.404973
          ],
          [
            -66.150766,
            -17.40496
          ],
          [
            -66.150768,
            -17.404947
          ],
          [
            -66.150773,
            -17.404936
          ],
          [
            -66.150781,
            -17.404925
          ],
          [
            -66.150847,
            -17.404629
          ],
          [
            -66.150896,
            -17.404378
          ],
          [
            -66.150927,
            -17.403979
          ],
          [
            -66.150924,
            -17.403489
          ],
          [
            -66.150914,
            -17.403316
          ],
          [
            -66.150874,
            -17.402585
          ],
          [
            -66.150867,
            -17.402385
          ],
          [
            -66.150883,
            -17.402211
          ],
          [
            -66.150914,
            -17.402076
          ],
          [
            -66.150949,
            -17.401945
          ],
          [
            -66.151026,
            -17.401798
          ],
          [
            -66.151171,
            -17.401522
          ],
          [
            -66.151179,
            -17.401503
          ],
          [
            -66.151186,
            -17.401446
          ],
          [
            -66.15122,
            -17.401284
          ],
          [
            -66.151222,
            -17.401146
          ],
          [
            -66.151208,
            -17.401011
          ],
          [
            -66.151194,
            -17.400919
          ],
          [
            -66.15116,
            -17.400784
          ],
          [
            -66.151108,
            -17.400672
          ],
          [
            -66.151067,
            -17.400598
          ],
          [
            -66.151,
            -17.400493
          ],
          [
            -66.150916,
            -17.400394
          ],
          [
            -66.150843,
            -17.400317
          ],
          [
            -66.150872,
            -17.400238
          ],
          [
            -66.150904,
            -17.400106
          ],
          [
            -66.150921,
            -17.399952
          ],
          [
            -66.150986,
            -17.399285
          ],
          [
            -66.151085,
            -17.39854
          ],
          [
            -66.15109,
            -17.398457
          ],
          [
            -66.151156,
            -17.397775
          ],
          [
            -66.15131,
            -17.396615
          ],
          [
            -66.151505,
            -17.395543
          ],
          [
            -66.151571,
            -17.395216
          ],
          [
            -66.151709,
            -17.394524
          ],
          [
            -66.151906,
            -17.393465
          ],
          [
            -66.152094,
            -17.392431
          ],
          [
            -66.152271,
            -17.391539
          ],
          [
            -66.152286,
            -17.391471
          ],
          [
            -66.152305,
            -17.391382
          ],
          [
            -66.152382,
            -17.391394
          ],
          [
            -66.152895,
            -17.391491
          ],
          [
            -66.153323,
            -17.391576
          ],
          [
            -66.153374,
            -17.391585
          ],
          [
            -66.153422,
            -17.391594
          ],
          [
            -66.154042,
            -17.391704
          ],
          [
            -66.154453,
            -17.391776
          ],
          [
            -66.154518,
            -17.391787
          ],
          [
            -66.154529,
            -17.391726
          ],
          [
            -66.154722,
            -17.39071
          ],
          [
            -66.154916,
            -17.38972
          ],
          [
            -66.154921,
            -17.389693
          ],
          [
            -66.155119,
            -17.388731
          ],
          [
            -66.155132,
            -17.388666
          ],
          [
            -66.155149,
            -17.388571
          ],
          [
            -66.155222,
            -17.388161
          ],
          [
            -66.155316,
            -17.387676
          ],
          [
            -66.155337,
            -17.387584
          ],
          [
            -66.155523,
            -17.387616
          ],
          [
            -66.155582,
            -17.387609
          ],
          [
            -66.155628,
            -17.387594
          ],
          [
            -66.155683,
            -17.387569
          ],
          [
            -66.155811,
            -17.38741
          ],
          [
            -66.156447,
            -17.386541
          ],
          [
            -66.156503,
            -17.386465
          ],
          [
            -66.156608,
            -17.386333
          ],
          [
            -66.157584,
            -17.385016
          ],
          [
            -66.157653,
            -17.384924
          ],
          [
            -66.157692,
            -17.38487
          ],
          [
            -66.157773,
            -17.384766
          ],
          [
            -66.158485,
            -17.383789
          ],
          [
            -66.158529,
            -17.383729
          ],
          [
            -66.158565,
            -17.383682
          ],
          [
            -66.159147,
            -17.382915
          ],
          [
            -66.159366,
            -17.382617
          ],
          [
            -66.159389,
            -17.382586
          ],
          [
            -66.159408,
            -17.382554
          ],
          [
            -66.159444,
            -17.382482
          ],
          [
            -66.159455,
            -17.382366
          ],
          [
            -66.159451,
            -17.382231
          ],
          [
            -66.159457,
            -17.382162
          ],
          [
            -66.159487,
            -17.382101
          ],
          [
            -66.159538,
            -17.382038
          ],
          [
            -66.159627,
            -17.381971
          ],
          [
            -66.159723,
            -17.381927
          ],
          [
            -66.159806,
            -17.38188
          ],
          [
            -66.159864,
            -17.381847
          ],
          [
            -66.159926,
            -17.381785
          ],
          [
            -66.159974,
            -17.381712
          ],
          [
            -66.159998,
            -17.381654
          ],
          [
            -66.160007,
            -17.381625
          ],
          [
            -66.160104,
            -17.381266
          ],
          [
            -66.160113,
            -17.381231
          ],
          [
            -66.160118,
            -17.381162
          ],
          [
            -66.160104,
            -17.381052
          ],
          [
            -66.160081,
            -17.380973
          ],
          [
            -66.160052,
            -17.380923
          ],
          [
            -66.160035,
            -17.380896
          ],
          [
            -66.160023,
            -17.380862
          ],
          [
            -66.160015,
            -17.380781
          ],
          [
            -66.160025,
            -17.380729
          ],
          [
            -66.160048,
            -17.38068
          ],
          [
            -66.160084,
            -17.38064
          ],
          [
            -66.160117,
            -17.380616
          ],
          [
            -66.160157,
            -17.380586
          ],
          [
            -66.160216,
            -17.380543
          ],
          [
            -66.160249,
            -17.380499
          ],
          [
            -66.160273,
            -17.380442
          ],
          [
            -66.160915,
            -17.378227
          ],
          [
            -66.160967,
            -17.378046
          ],
          [
            -66.160991,
            -17.377965
          ],
          [
            -66.161051,
            -17.377775
          ],
          [
            -66.161244,
            -17.377126
          ],
          [
            -66.161454,
            -17.376395
          ],
          [
            -66.1616,
            -17.375896
          ],
          [
            -66.161744,
            -17.375403
          ],
          [
            -66.161782,
            -17.375272
          ],
          [
            -66.161874,
            -17.374972
          ],
          [
            -66.162213,
            -17.373859
          ],
          [
            -66.162557,
            -17.372644
          ],
          [
            -66.162589,
            -17.372554
          ],
          [
            -66.162617,
            -17.372462
          ],
          [
            -66.162644,
            -17.37237
          ],
          [
            -66.162862,
            -17.371602
          ],
          [
            -66.162892,
            -17.371488
          ],
          [
            -66.163178,
            -17.370513
          ],
          [
            -66.163209,
            -17.370401
          ],
          [
            -66.163643,
            -17.368907
          ],
          [
            -66.163656,
            -17.368839
          ],
          [
            -66.163652,
            -17.36877
          ],
          [
            -66.163641,
            -17.368715
          ],
          [
            -66.16361,
            -17.368654
          ],
          [
            -66.163599,
            -17.368603
          ],
          [
            -66.163597,
            -17.368544
          ],
          [
            -66.163609,
            -17.368453
          ],
          [
            -66.163635,
            -17.368365
          ],
          [
            -66.163688,
            -17.36826
          ],
          [
            -66.163736,
            -17.36821
          ],
          [
            -66.163775,
            -17.36818
          ],
          [
            -66.163812,
            -17.368165
          ],
          [
            -66.163843,
            -17.36816
          ],
          [
            -66.163881,
            -17.368155
          ],
          [
            -66.163994,
            -17.368121
          ],
          [
            -66.164094,
            -17.368062
          ],
          [
            -66.164202,
            -17.367973
          ],
          [
            -66.165083,
            -17.36733
          ],
          [
            -66.166042,
            -17.366621
          ],
          [
            -66.166281,
            -17.366457
          ],
          [
            -66.166947,
            -17.366025
          ],
          [
            -66.167439,
            -17.365767
          ],
          [
            -66.167605,
            -17.365694
          ],
          [
            -66.167682,
            -17.365671
          ],
          [
            -66.167708,
            -17.365666
          ],
          [
            -66.16782,
            -17.365648
          ],
          [
            -66.168051,
            -17.365659
          ],
          [
            -66.168816,
            -17.365709
          ],
          [
            -66.168951,
            -17.365751
          ],
          [
            -66.169075,
            -17.365787
          ],
          [
            -66.169367,
            -17.365895
          ],
          [
            -66.169715,
            -17.365992
          ],
          [
            -66.16995,
            -17.366025
          ],
          [
            -66.170106,
            -17.366032
          ],
          [
            -66.1703,
            -17.366016
          ],
          [
            -66.170572,
            -17.365957
          ],
          [
            -66.17113,
            -17.365807
          ],
          [
            -66.17128,
            -17.365767
          ],
          [
            -66.171375,
            -17.365758
          ],
          [
            -66.171529,
            -17.365748
          ],
          [
            -66.171794,
            -17.365732
          ],
          [
            -66.173236,
            -17.365636
          ],
          [
            -66.173318,
            -17.365633
          ],
          [
            -66.173547,
            -17.365617
          ],
          [
            -66.17464,
            -17.365552
          ],
          [
            -66.174764,
            -17.365544
          ],
          [
            -66.174864,
            -17.365525
          ],
          [
            -66.174954,
            -17.365494
          ],
          [
            -66.175136,
            -17.365442
          ],
          [
            -66.175967,
            -17.365188
          ],
          [
            -66.176444,
            -17.365045
          ],
          [
            -66.176503,
            -17.365027
          ],
          [
            -66.176627,
            -17.36499
          ],
          [
            -66.176716,
            -17.36496
          ],
          [
            -66.17685,
            -17.364915
          ],
          [
            -66.177597,
            -17.364694
          ],
          [
            -66.177944,
            -17.364588
          ],
          [
            -66.178292,
            -17.364488
          ],
          [
            -66.178522,
            -17.364416
          ],
          [
            -66.178603,
            -17.364394
          ],
          [
            -66.178945,
            -17.364236
          ],
          [
            -66.179273,
            -17.364055
          ],
          [
            -66.179434,
            -17.363964
          ],
          [
            -66.179623,
            -17.363833
          ],
          [
            -66.179921,
            -17.363592
          ],
          [
            -66.180404,
            -17.363218
          ],
          [
            -66.180751,
            -17.362922
          ],
          [
            -66.18086,
            -17.362816
          ],
          [
            -66.180991,
            -17.362677
          ],
          [
            -66.18116,
            -17.362483
          ],
          [
            -66.181314,
            -17.36229
          ],
          [
            -66.181471,
            -17.36208
          ],
          [
            -66.181621,
            -17.361856
          ],
          [
            -66.18175,
            -17.36165
          ],
          [
            -66.181987,
            -17.361245
          ],
          [
            -66.182041,
            -17.361158
          ],
          [
            -66.18259,
            -17.36001
          ],
          [
            -66.182914,
            -17.359321
          ],
          [
            -66.182983,
            -17.359202
          ],
          [
            -66.183103,
            -17.359029
          ],
          [
            -66.183168,
            -17.358939
          ],
          [
            -66.183286,
            -17.358804
          ],
          [
            -66.183652,
            -17.358271
          ],
          [
            -66.183971,
            -17.3578
          ],
          [
            -66.184073,
            -17.357658
          ],
          [
            -66.184264,
            -17.357374
          ],
          [
            -66.18457,
            -17.356931
          ],
          [
            -66.184664,
            -17.356821
          ],
          [
            -66.184745,
            -17.356728
          ],
          [
            -66.184859,
            -17.35664
          ],
          [
            -66.185012,
            -17.356524
          ],
          [
            -66.185585,
            -17.356099
          ],
          [
            -66.186068,
            -17.355738
          ],
          [
            -66.186781,
            -17.355177
          ],
          [
            -66.187394,
            -17.354697
          ],
          [
            -66.187467,
            -17.354635
          ],
          [
            -66.187493,
            -17.354603
          ],
          [
            -66.187509,
            -17.354567
          ],
          [
            -66.187525,
            -17.354519
          ],
          [
            -66.18754,
            -17.354492
          ],
          [
            -66.187583,
            -17.354458
          ],
          [
            -66.187623,
            -17.354447
          ],
          [
            -66.187654,
            -17.354443
          ],
          [
            -66.187691,
            -17.354425
          ],
          [
            -66.187782,
            -17.35438
          ],
          [
            -66.187855,
            -17.354334
          ],
          [
            -66.188304,
            -17.353989
          ],
          [
            -66.188618,
            -17.353737
          ],
          [
            -66.188772,
            -17.353617
          ],
          [
            -66.188858,
            -17.35355
          ],
          [
            -66.189701,
            -17.352895
          ],
          [
            -66.1898,
            -17.352818
          ],
          [
            -66.189895,
            -17.352742
          ],
          [
            -66.19067,
            -17.352123
          ],
          [
            -66.191212,
            -17.351714
          ],
          [
            -66.191495,
            -17.351507
          ],
          [
            -66.191934,
            -17.351209
          ],
          [
            -66.192336,
            -17.350931
          ],
          [
            -66.192891,
            -17.350579
          ],
          [
            -66.193203,
            -17.35039
          ],
          [
            -66.193631,
            -17.350151
          ],
          [
            -66.194072,
            -17.349908
          ],
          [
            -66.194667,
            -17.349598
          ],
          [
            -66.195525,
            -17.349151
          ],
          [
            -66.195865,
            -17.348953
          ],
          [
            -66.196473,
            -17.348592
          ],
          [
            -66.196651,
            -17.348509
          ],
          [
            -66.197562,
            -17.348127
          ],
          [
            -66.19768,
            -17.348083
          ],
          [
            -66.198329,
            -17.347815
          ],
          [
            -66.19858,
            -17.347711
          ],
          [
            -66.199607,
            -17.347297
          ],
          [
            -66.199653,
            -17.347279
          ],
          [
            -66.199682,
            -17.347267
          ],
          [
            -66.199767,
            -17.347233
          ],
          [
            -66.199868,
            -17.347189
          ],
          [
            -66.19993,
            -17.347164
          ],
          [
            -66.200243,
            -17.347035
          ],
          [
            -66.200465,
            -17.346943
          ],
          [
            -66.200514,
            -17.346923
          ],
          [
            -66.200576,
            -17.346897
          ],
          [
            -66.20231,
            -17.346202
          ],
          [
            -66.20267,
            -17.346052
          ],
          [
            -66.202958,
            -17.34592
          ],
          [
            -66.204013,
            -17.345388
          ],
          [
            -66.204116,
            -17.345341
          ],
          [
            -66.204173,
            -17.345315
          ],
          [
            -66.204243,
            -17.345284
          ],
          [
            -66.204436,
            -17.345198
          ],
          [
            -66.204791,
            -17.345027
          ],
          [
            -66.204857,
            -17.344995
          ],
          [
            -66.204572,
            -17.344509
          ],
          [
            -66.20396,
            -17.343615
          ],
          [
            -66.203934,
            -17.343573
          ],
          [
            -66.203714,
            -17.343223
          ],
          [
            -66.203681,
            -17.343169
          ],
          [
            -66.203563,
            -17.342955
          ],
          [
            -66.203559,
            -17.34288
          ],
          [
            -66.20359,
            -17.342802
          ],
          [
            -66.20379,
            -17.342503
          ],
          [
            -66.203873,
            -17.34232
          ],
          [
            -66.203888,
            -17.342252
          ],
          [
            -66.203877,
            -17.342171
          ],
          [
            -66.203827,
            -17.341993
          ],
          [
            -66.203809,
            -17.341936
          ],
          [
            -66.203673,
            -17.341533
          ],
          [
            -66.203525,
            -17.341158
          ],
          [
            -66.203149,
            -17.340321
          ],
          [
            -66.202979,
            -17.340018
          ],
          [
            -66.202724,
            -17.339556
          ],
          [
            -66.202599,
            -17.33933
          ],
          [
            -66.202485,
            -17.339127
          ],
          [
            -66.202363,
            -17.339002
          ],
          [
            -66.202057,
            -17.338796
          ],
          [
            -66.20174,
            -17.338581
          ]
        ]
      }
    }
  ]
}