{
  "type": "FeatureCollection",
  "features": [
    {
      "type": "Feature",
      "properties": {
        "route_id": "10692360",
        "route_short_name": "14",
        "route_long_name": "MiniBus 14: Azurimaca \u2192 Calle Raul Rivero Torres"
      },
      "geometry": {
        "type": "LineString",
        "coordinates": [
          [
            -66.232513,
            -17.469487
          ],
          [
            -66.232422,
            -17.469172
          ],
          [
            -66.23241,
            -17.469059
          ],
          [
            -66.232407,
            -17.468996
          ],
          [
            -66.232423,
            -17.468776
          ],
          [
            -66.232428,
            -17.468605
          ],
          [
            -66.232404,
            -17.468373
          ],
          [
            -66.23237,
            -17.468037
          ],
          [
            -66.232328,
            -17.46772
          ],
          [
            -66.232247,
            -17.467252
          ],
          [
            -66.232234,
            -17.467202
          ],
          [
            -66.232217,
            -17.467148
          ],
          [
            -66.232182,
            -17.467104
          ],
          [
            -66.232126,
            -17.467065
          ],
          [
            -66.232075,
            -17.467037
          ],
          [
            -66.231983,
            -17.467012
          ],
          [
            -66.23192,
            -17.466987
          ],
          [
            -66.231824,
            -17.466917
          ],
          [
            -66.231641,
            -17.46675
          ],
          [
            -66.231361,
            -17.466538
          ],
          [
            -66.231241,
            -17.46645
          ],
          [
            -66.230988,
            -17.466323
          ],
          [
            -66.230513,
            -17.466011
          ],
          [
            -66.230224,
            -17.465851
          ],
          [
            -66.229964,
            -17.465673
          ],
          [
            -66.22977,
            -17.465547
          ],
          [
            -66.2297,
            -17.465479
          ],
          [
            -66.22951,
            -17.465253
          ],
          [
            -66.229456,
            -17.465201
          ],
          [
            -66.229404,
            -17.465169
          ],
          [
            -66.229294,
            -17.465131
          ],
          [
            -66.229171,
            -17.465087
          ],
          [
            -66.229051,
            -17.465031
          ],
          [
            -66.228858,
            -17.464921
          ],
          [
            -66.228584,
            -17.464734
          ],
          [
            -66.228451,
            -17.464659
          ],
          [
            -66.227934,
            -17.46437
          ],
          [
            -66.227705,
            -17.46433
          ],
          [
            -66.227118,
            -17.464196
          ],
          [
            -66.226053,
            -17.463926
          ],
          [
            -66.225685,
            -17.46382
          ],
          [
            -66.225628,
            -17.463817
          ],
          [
            -66.225582,
            -17.463834
          ],
          [
            -66.225542,
            -17.463872
          ],
          [
            -66.225419,
            -17.464096
          ],
          [
            -66.22537,
            -17.464133
          ],
          [
            -66.225318,
            -17.464151
          ],
          [
            -66.225245,
            -17.464153
          ],
          [
            -66.225178,
            -17.46413
          ],
          [
            -66.225104,
            -17.464075
          ],
          [
            -66.225055,
            -17.464012
          ],
          [
            -66.224985,
            -17.463914
          ],
          [
            -66.22493,
            -17.463853
          ],
          [
            -66.224863,
            -17.463814
          ],
          [
            -66.224761,
            -17.46378
          ],
          [
            -66.224662,
            -17.463761
          ],
          [
            -66.224588,
            -17.463759
          ],
          [
            -66.224521,
            -17.463764
          ],
          [
            -66.224445,
            -17.463756
          ],
          [
            -66.22436,
            -17.463735
          ],
          [
            -66.224228,
            -17.463669
          ],
          [
            -66.224162,
            -17.46364
          ],
          [
            -66.224096,
            -17.463616
          ],
          [
            -66.223521,
            -17.463521
          ],
          [
            -66.223109,
            -17.463456
          ],
          [
            -66.222911,
            -17.463401
          ],
          [
            -66.222603,
            -17.463285
          ],
          [
            -66.222148,
            -17.463096
          ],
          [
            -66.222076,
            -17.463066
          ],
          [
            -66.221955,
            -17.462993
          ],
          [
            -66.221892,
            -17.462937
          ],
          [
            -66.221851,
            -17.462888
          ],
          [
            -66.221772,
            -17.462794
          ],
          [
            -66.221667,
            -17.462691
          ],
          [
            -66.221472,
            -17.462526
          ],
          [
            -66.221337,
            -17.462429
          ],
          [
            -66.221249,
            -17.462365
          ],
          [
            -66.220931,
            -17.462145
          ],
          [
            -66.220754,
            -17.461975
          ],
          [
            -66.220456,
            -17.461674
          ],
          [
            -66.220399,
            -17.461628
          ],
          [
            -66.220342,
            -17.461594
          ],
          [
            -66.219729,
            -17.461348
          ],
          [
            -66.219541,
            -17.461275
          ],
          [
            -66.219336,
            -17.461173
          ],
          [
            -66.219384,
            -17.461096
          ],
          [
            -66.216389,
            -17.461174
          ],
          [
            -66.216315,
            -17.461148
          ],
          [
            -66.216243,
            -17.461092
          ],
          [
            -66.216148,
            -17.460966
          ],
          [
            -66.216087,
            -17.460927
          ],
          [
            -66.21602,
            -17.460906
          ],
          [
            -66.215802,
            -17.460847
          ],
          [
            -66.215381,
            -17.460668
          ],
          [
            -66.215288,
            -17.460613
          ],
          [
            -66.215204,
            -17.460521
          ],
          [
            -66.21495,
            -17.460185
          ],
          [
            -66.214867,
            -17.460107
          ],
          [
            -66.214808,
            -17.460059
          ],
          [
            -66.214277,
            -17.459819
          ],
          [
            -66.213932,
            -17.459644
          ],
          [
            -66.213823,
            -17.459588
          ],
          [
            -66.213231,
            -17.459273
          ],
          [
            -66.212932,
            -17.459086
          ],
          [
            -66.212815,
            -17.459022
          ],
          [
            -66.212675,
            -17.458976
          ],
          [
            -66.212527,
            -17.458945
          ],
          [
            -66.212268,
            -17.458921
          ],
          [
            -66.211828,
            -17.458898
          ],
          [
            -66.211315,
            -17.458871
          ],
          [
            -66.210555,
            -17.458831
          ],
          [
            -66.210299,
            -17.458799
          ],
          [
            -66.20999,
            -17.458737
          ],
          [
            -66.209396,
            -17.458617
          ],
          [
            -66.208898,
            -17.458478
          ],
          [
            -66.208636,
            -17.458377
          ],
          [
            -66.208576,
            -17.458353
          ],
          [
            -66.208349,
            -17.458263
          ],
          [
            -66.207799,
            -17.458006
          ],
          [
            -66.207724,
            -17.45796
          ],
          [
            -66.207668,
            -17.457905
          ],
          [
            -66.207614,
            -17.457815
          ],
          [
            -66.206892,
            -17.456633
          ],
          [
            -66.20667,
            -17.456297
          ],
          [
            -66.206426,
            -17.455905
          ],
          [
            -66.20618,
            -17.455511
          ],
          [
            -66.205751,
            -17.45482
          ],
          [
            -66.20551,
            -17.454429
          ],
          [
            -66.205381,
            -17.454162
          ],
          [
            -66.20535,
            -17.454112
          ],
          [
            -66.205301,
            -17.454064
          ],
          [
            -66.205232,
            -17.454021
          ],
          [
            -66.204968,
            -17.45392
          ],
          [
            -66.204666,
            -17.453803
          ],
          [
            -66.204457,
            -17.453724
          ],
          [
            -66.204329,
            -17.453663
          ],
          [
            -66.204098,
            -17.453542
          ],
          [
            -66.203904,
            -17.453467
          ],
          [
            -66.203779,
            -17.453424
          ],
          [
            -66.203557,
            -17.45337
          ],
          [
            -66.203385,
            -17.453319
          ],
          [
            -66.203279,
            -17.453281
          ],
          [
            -66.203162,
            -17.453204
          ],
          [
            -66.203087,
            -17.453136
          ],
          [
            -66.202788,
            -17.452764
          ],
          [
            -66.202715,
            -17.452692
          ],
          [
            -66.202229,
            -17.452214
          ],
          [
            -66.201958,
            -17.451976
          ],
          [
            -66.20193,
            -17.45195
          ],
          [
            -66.20159,
            -17.451638
          ],
          [
            -66.201478,
            -17.451521
          ],
          [
            -66.201385,
            -17.451406
          ],
          [
            -66.201313,
            -17.451301
          ],
          [
            -66.201253,
            -17.451171
          ],
          [
            -66.201185,
            -17.450826
          ],
          [
            -66.20114,
            -17.450672
          ],
          [
            -66.201036,
            -17.4504
          ],
          [
            -66.20036,
            -17.448764
          ],
          [
            -66.199976,
            -17.447849
          ],
          [
            -66.199775,
            -17.447375
          ],
          [
            -66.199378,
            -17.446414
          ],
          [
            -66.199023,
            -17.445554
          ],
          [
            -66.198598,
            -17.444524
          ],
          [
            -66.198226,
            -17.44367
          ],
          [
            -66.198059,
            -17.443185
          ],
          [
            -66.197565,
            -17.441984
          ],
          [
            -66.196939,
            -17.440484
          ],
          [
            -66.196362,
            -17.438956
          ],
          [
            -66.196182,
            -17.438481
          ],
          [
            -66.196,
            -17.43818
          ],
          [
            -66.195737,
            -17.437794
          ],
          [
            -66.194664,
            -17.43617
          ],
          [
            -66.194106,
            -17.435312
          ],
          [
            -66.193692,
            -17.434672
          ],
          [
            -66.193426,
            -17.434268
          ],
          [
            -66.192711,
            -17.4332
          ],
          [
            -66.192642,
            -17.433188
          ],
          [
            -66.19175,
            -17.433008
          ],
          [
            -66.190246,
            -17.432711
          ],
          [
            -66.186518,
            -17.431937
          ],
          [
            -66.185501,
            -17.431727
          ],
          [
            -66.185237,
            -17.431686
          ],
          [
            -66.185055,
            -17.431686
          ],
          [
            -66.184547,
            -17.43173
          ],
          [
            -66.184284,
            -17.431742
          ],
          [
            -66.184084,
            -17.431709
          ],
          [
            -66.183965,
            -17.431686
          ],
          [
            -66.183725,
            -17.431612
          ],
          [
            -66.183574,
            -17.431576
          ],
          [
            -66.183444,
            -17.431525
          ],
          [
            -66.183309,
            -17.431462
          ],
          [
            -66.18318,
            -17.431404
          ],
          [
            -66.183079,
            -17.43134
          ],
          [
            -66.183002,
            -17.431284
          ],
          [
            -66.182328,
            -17.430761
          ],
          [
            -66.181599,
            -17.430195
          ],
          [
            -66.180611,
            -17.429429
          ],
          [
            -66.180309,
            -17.429195
          ],
          [
            -66.180169,
            -17.429085
          ],
          [
            -66.179241,
            -17.428354
          ],
          [
            -66.178473,
            -17.427749
          ],
          [
            -66.177944,
            -17.427338
          ],
          [
            -66.17667,
            -17.426341
          ],
          [
            -66.175309,
            -17.425252
          ],
          [
            -66.175256,
            -17.425212
          ],
          [
            -66.175215,
            -17.42518
          ],
          [
            -66.17516,
            -17.425149
          ],
          [
            -66.17513,
            -17.425139
          ],
          [
            -66.175106,
            -17.425131
          ],
          [
            -66.175084,
            -17.425128
          ],
          [
            -66.17506,
            -17.425124
          ],
          [
            -66.175027,
            -17.425121
          ],
          [
            -66.174969,
            -17.425131
          ],
          [
            -66.17491,
            -17.425148
          ],
          [
            -66.174851,
            -17.42518
          ],
          [
            -66.174775,
            -17.425207
          ],
          [
            -66.173754,
            -17.42609
          ],
          [
            -66.172874,
            -17.426849
          ],
          [
            -66.171968,
            -17.427636
          ],
          [
            -66.169906,
            -17.429443
          ],
          [
            -66.169506,
            -17.429799
          ],
          [
            -66.169282,
            -17.429983
          ],
          [
            -66.167915,
            -17.431143
          ],
          [
            -66.16669,
            -17.432205
          ],
          [
            -66.165826,
            -17.432907
          ],
          [
            -66.165486,
            -17.433221
          ],
          [
            -66.164393,
            -17.434157
          ],
          [
            -66.164344,
            -17.434192
          ],
          [
            -66.164288,
            -17.43422
          ],
          [
            -66.164228,
            -17.434241
          ],
          [
            -66.164161,
            -17.434254
          ],
          [
            -66.164081,
            -17.434263
          ],
          [
            -66.163837,
            -17.43421
          ],
          [
            -66.162778,
            -17.43396
          ],
          [
            -66.162646,
            -17.433943
          ],
          [
            -66.162556,
            -17.43394
          ],
          [
            -66.162443,
            -17.433952
          ],
          [
            -66.16238,
            -17.433963
          ],
          [
            -66.162243,
            -17.433968
          ],
          [
            -66.162188,
            -17.433961
          ],
          [
            -66.162138,
            -17.43394
          ],
          [
            -66.162061,
            -17.433885
          ],
          [
            -66.16202,
            -17.433837
          ],
          [
            -66.161991,
            -17.433775
          ],
          [
            -66.162012,
            -17.433223
          ],
          [
            -66.162034,
            -17.432531
          ],
          [
            -66.162075,
            -17.431263
          ],
          [
            -66.162142,
            -17.430155
          ],
          [
            -66.162153,
            -17.429958
          ],
          [
            -66.162175,
            -17.429906
          ],
          [
            -66.162214,
            -17.429841
          ],
          [
            -66.162251,
            -17.429785
          ],
          [
            -66.162345,
            -17.429787
          ],
          [
            -66.162498,
            -17.429796
          ],
          [
            -66.163498,
            -17.428942
          ],
          [
            -66.163624,
            -17.428834
          ],
          [
            -66.163722,
            -17.428752
          ],
          [
            -66.164567,
            -17.428015
          ],
          [
            -66.165351,
            -17.427318
          ],
          [
            -66.165478,
            -17.427207
          ],
          [
            -66.165709,
            -17.427006
          ],
          [
            -66.165998,
            -17.426738
          ],
          [
            -66.166034,
            -17.426692
          ],
          [
            -66.166058,
            -17.42664
          ],
          [
            -66.166063,
            -17.426589
          ],
          [
            -66.166075,
            -17.426407
          ],
          [
            -66.166113,
            -17.426073
          ],
          [
            -66.166114,
            -17.426025
          ],
          [
            -66.166222,
            -17.424838
          ],
          [
            -66.166333,
            -17.423909
          ],
          [
            -66.166416,
            -17.422927
          ],
          [
            -66.166568,
            -17.422154
          ],
          [
            -66.166574,
            -17.422118
          ],
          [
            -66.166607,
            -17.421646
          ],
          [
            -66.166601,
            -17.421556
          ],
          [
            -66.166589,
            -17.421423
          ],
          [
            -66.166514,
            -17.421077
          ],
          [
            -66.166383,
            -17.420378
          ],
          [
            -66.166267,
            -17.419674
          ],
          [
            -66.166117,
            -17.418952
          ],
          [
            -66.166009,
            -17.418433
          ],
          [
            -66.165968,
            -17.418237
          ],
          [
            -66.165945,
            -17.418136
          ],
          [
            -66.165882,
            -17.4178
          ],
          [
            -66.165813,
            -17.417475
          ],
          [
            -66.165696,
            -17.416872
          ],
          [
            -66.16568,
            -17.416852
          ],
          [
            -66.165671,
            -17.416829
          ],
          [
            -66.165672,
            -17.416788
          ],
          [
            -66.165671,
            -17.416666
          ],
          [
            -66.165545,
            -17.416001
          ],
          [
            -66.165351,
            -17.415
          ],
          [
            -66.165153,
            -17.413972
          ],
          [
            -66.164986,
            -17.41295
          ],
          [
            -66.164869,
            -17.412313
          ],
          [
            -66.164857,
            -17.412225
          ],
          [
            -66.164817,
            -17.412026
          ],
          [
            -66.164729,
            -17.411547
          ],
          [
            -66.164687,
            -17.411428
          ],
          [
            -66.164609,
            -17.411294
          ],
          [
            -66.164551,
            -17.411217
          ],
          [
            -66.164478,
            -17.411185
          ],
          [
            -66.164416,
            -17.411137
          ],
          [
            -66.164367,
            -17.411077
          ],
          [
            -66.164323,
            -17.410951
          ],
          [
            -66.164338,
            -17.410819
          ],
          [
            -66.164381,
            -17.410735
          ],
          [
            -66.164443,
            -17.410663
          ],
          [
            -66.164465,
            -17.410613
          ],
          [
            -66.16449,
            -17.41047
          ],
          [
            -66.164485,
            -17.410393
          ],
          [
            -66.164473,
            -17.410332
          ],
          [
            -66.164344,
            -17.409638
          ],
          [
            -66.164337,
            -17.409587
          ],
          [
            -66.164329,
            -17.409545
          ],
          [
            -66.164294,
            -17.409371
          ],
          [
            -66.164281,
            -17.409289
          ],
          [
            -66.164039,
            -17.408148
          ],
          [
            -66.163852,
            -17.407207
          ],
          [
            -66.163637,
            -17.406105
          ],
          [
            -66.163447,
            -17.405077
          ],
          [
            -66.16334,
            -17.404504
          ],
          [
            -66.16321,
            -17.404066
          ],
          [
            -66.163028,
            -17.403557
          ],
          [
            -66.162974,
            -17.403343
          ],
          [
            -66.162929,
            -17.403094
          ],
          [
            -66.162851,
            -17.402102
          ],
          [
            -66.162822,
            -17.401639
          ],
          [
            -66.162803,
            -17.401266
          ],
          [
            -66.162783,
            -17.401128
          ],
          [
            -66.162765,
            -17.401045
          ],
          [
            -66.162692,
            -17.40085
          ],
          [
            -66.162592,
            -17.40064
          ],
          [
            -66.162521,
            -17.400537
          ],
          [
            -66.162446,
            -17.400425
          ],
          [
            -66.162411,
            -17.400388
          ],
          [
            -66.162303,
            -17.400282
          ],
          [
            -66.162188,
            -17.400173
          ],
          [
            -66.162105,
            -17.40011
          ],
          [
            -66.161993,
            -17.400038
          ],
          [
            -66.161773,
            -17.39992
          ],
          [
            -66.161544,
            -17.399845
          ],
          [
            -66.16062,
            -17.399589
          ],
          [
            -66.160505,
            -17.399561
          ],
          [
            -66.160408,
            -17.399545
          ],
          [
            -66.160357,
            -17.399541
          ],
          [
            -66.160293,
            -17.39954
          ],
          [
            -66.160224,
            -17.399539
          ],
          [
            -66.160128,
            -17.399539
          ],
          [
            -66.160063,
            -17.399539
          ],
          [
            -66.160006,
            -17.39954
          ],
          [
            -66.159251,
            -17.399522
          ],
          [
            -66.158666,
            -17.399515
          ],
          [
            -66.15781,
            -17.399491
          ],
          [
            -66.157729,
            -17.399487
          ],
          [
            -66.157636,
            -17.399482
          ],
          [
            -66.157568,
            -17.399479
          ],
          [
            -66.156846,
            -17.399579
          ],
          [
            -66.156742,
            -17.399592
          ],
          [
            -66.156599,
            -17.399596
          ],
          [
            -66.156402,
            -17.399592
          ],
          [
            -66.155335,
            -17.399349
          ],
          [
            -66.155283,
            -17.399341
          ],
          [
            -66.155229,
            -17.399325
          ],
          [
            -66.154206,
            -17.399084
          ],
          [
            -66.154045,
            -17.399999
          ],
          [
            -66.15393,
            -17.400709
          ],
          [
            -66.153977,
            -17.401365
          ],
          [
            -66.15364,
            -17.401374
          ],
          [
            -66.153295,
            -17.401383
          ],
          [
            -66.15325,
            -17.400725
          ],
          [
            -66.153227,
            -17.399898
          ],
          [
            -66.153197,
            -17.399102
          ],
          [
            -66.153192,
            -17.398998
          ],
          [
            -66.153184,
            -17.398846
          ],
          [
            -66.153188,
            -17.398769
          ],
          [
            -66.153253,
            -17.398424
          ],
          [
            -66.153322,
            -17.398064
          ],
          [
            -66.153532,
            -17.397006
          ],
          [
            -66.153732,
            -17.395947
          ],
          [
            -66.152617,
            -17.395754
          ],
          [
            -66.151505,
            -17.395543
          ],
          [
            -66.150442,
            -17.395355
          ],
          [
            -66.149464,
            -17.395183
          ],
          [
            -66.149211,
            -17.395138
          ],
          [
            -66.149167,
            -17.395129
          ],
          [
            -66.149183,
            -17.395061
          ],
          [
            -66.149237,
            -17.394778
          ],
          [
            -66.149304,
            -17.394431
          ],
          [
            -66.149356,
            -17.394142
          ],
          [
            -66.149354,
            -17.394092
          ],
          [
            -66.149356,
            -17.394018
          ],
          [
            -66.149548,
            -17.393105
          ],
          [
            -66.149557,
            -17.393052
          ],
          [
            -66.14957,
            -17.392986
          ],
          [
            -66.149753,
            -17.392078
          ],
          [
            -66.149763,
            -17.392027
          ],
          [
            -66.149774,
            -17.391967
          ],
          [
            -66.149858,
            -17.391506
          ],
          [
            -66.149937,
            -17.391102
          ],
          [
            -66.149952,
            -17.391033
          ],
          [
            -66.149959,
            -17.390989
          ],
          [
            -66.149967,
            -17.390948
          ],
          [
            -66.149981,
            -17.390874
          ],
          [
            -66.150176,
            -17.389914
          ],
          [
            -66.15019,
            -17.389847
          ],
          [
            -66.150207,
            -17.389771
          ],
          [
            -66.150253,
            -17.389682
          ],
          [
            -66.150419,
            -17.38887
          ],
          [
            -66.150432,
            -17.388802
          ],
          [
            -66.150445,
            -17.388739
          ],
          [
            -66.150562,
            -17.388206
          ],
          [
            -66.150656,
            -17.387762
          ],
          [
            -66.15067,
            -17.387699
          ],
          [
            -66.150702,
            -17.387525
          ],
          [
            -66.150604,
            -17.387418
          ],
          [
            -66.15001,
            -17.386771
          ],
          [
            -66.149914,
            -17.386666
          ],
          [
            -66.149642,
            -17.386369
          ],
          [
            -66.149582,
            -17.386301
          ],
          [
            -66.149407,
            -17.386102
          ],
          [
            -66.149339,
            -17.386029
          ],
          [
            -66.149246,
            -17.385927
          ],
          [
            -66.148977,
            -17.385634
          ],
          [
            -66.148925,
            -17.385578
          ],
          [
            -66.148797,
            -17.385439
          ],
          [
            -66.148747,
            -17.385384
          ],
          [
            -66.148347,
            -17.384949
          ],
          [
            -66.148306,
            -17.384904
          ],
          [
            -66.148257,
            -17.384851
          ],
          [
            -66.147331,
            -17.383837
          ],
          [
            -66.147271,
            -17.38378
          ],
          [
            -66.146495,
            -17.382948
          ],
          [
            -66.146252,
            -17.382685
          ],
          [
            -66.146139,
            -17.382562
          ],
          [
            -66.146067,
            -17.382557
          ],
          [
            -66.145359,
            -17.382497
          ],
          [
            -66.145167,
            -17.38248
          ],
          [
            -66.145069,
            -17.382472
          ],
          [
            -66.144897,
            -17.382458
          ],
          [
            -66.14421,
            -17.382395
          ],
          [
            -66.144113,
            -17.382386
          ],
          [
            -66.14396,
            -17.38236
          ],
          [
            -66.143721,
            -17.382292
          ],
          [
            -66.143627,
            -17.382256
          ],
          [
            -66.143529,
            -17.382205
          ],
          [
            -66.142893,
            -17.381785
          ],
          [
            -66.142806,
            -17.381721
          ],
          [
            -66.142769,
            -17.381693
          ],
          [
            -66.142379,
            -17.381422
          ],
          [
            -66.142219,
            -17.381332
          ],
          [
            -66.142107,
            -17.381259
          ],
          [
            -66.142043,
            -17.381205
          ],
          [
            -66.141998,
            -17.381162
          ],
          [
            -66.141923,
            -17.381073
          ],
          [
            -66.141942,
            -17.380947
          ],
          [
            -66.141933,
            -17.380888
          ],
          [
            -66.141993,
            -17.380453
          ],
          [
            -66.14201,
            -17.380333
          ],
          [
            -66.142024,
            -17.380231
          ],
          [
            -66.142013,
            -17.379967
          ],
          [
            -66.142109,
            -17.379209
          ],
          [
            -66.142108,
            -17.379154
          ],
          [
            -66.142107,
            -17.379075
          ],
          [
            -66.142104,
            -17.379036
          ]
        ]
      }
    }
  ]
}