{
  "type": "FeatureCollection",
  "features": [
    {
      "type": "Feature",
      "properties": {
        "route_id": "10692381",
        "route_short_name": "15",
        "route_long_name": "MiniBus 15: Torrentera Pajcha \u2192 Alto Valle Hermoso 5 de octubre"
      },
      "geometry": {
        "type": "LineString",
        "coordinates": [
          [
            -66.163791,
            -17.35059
          ],
          [
            -66.163726,
            -17.350591
          ],
          [
            -66.163679,
            -17.350598
          ],
          [
            -66.163629,
            -17.350612
          ],
          [
            -66.163586,
            -17.350631
          ],
          [
            -66.16302,
            -17.350964
          ],
          [
            -66.162268,
            -17.35141
          ],
          [
            -66.162718,
            -17.351846
          ],
          [
            -66.16318,
            -17.352312
          ],
          [
            -66.16364,
            -17.352782
          ],
          [
            -66.163725,
            -17.352878
          ],
          [
            -66.164198,
            -17.353366
          ],
          [
            -66.164088,
            -17.353462
          ],
          [
            -66.162662,
            -17.354332
          ],
          [
            -66.163068,
            -17.354821
          ],
          [
            -66.163302,
            -17.355307
          ],
          [
            -66.163315,
            -17.3554
          ],
          [
            -66.163287,
            -17.355571
          ],
          [
            -66.163242,
            -17.355791
          ],
          [
            -66.162235,
            -17.356226
          ],
          [
            -66.161723,
            -17.356403
          ],
          [
            -66.161303,
            -17.356554
          ],
          [
            -66.16034,
            -17.356925
          ],
          [
            -66.160515,
            -17.357388
          ],
          [
            -66.160706,
            -17.357826
          ],
          [
            -66.160842,
            -17.35815
          ],
          [
            -66.161052,
            -17.358649
          ],
          [
            -66.161104,
            -17.358786
          ],
          [
            -66.161489,
            -17.359683
          ],
          [
            -66.16061,
            -17.359952
          ],
          [
            -66.160355,
            -17.360032
          ],
          [
            -66.160694,
            -17.360941
          ],
          [
            -66.159464,
            -17.361355
          ],
          [
            -66.15935,
            -17.361384
          ],
          [
            -66.158635,
            -17.361609
          ],
          [
            -66.158547,
            -17.361642
          ],
          [
            -66.157905,
            -17.36185
          ],
          [
            -66.157708,
            -17.361915
          ],
          [
            -66.158006,
            -17.362888
          ],
          [
            -66.15816,
            -17.363397
          ],
          [
            -66.158277,
            -17.363764
          ],
          [
            -66.158333,
            -17.363939
          ],
          [
            -66.158472,
            -17.364511
          ],
          [
            -66.158749,
            -17.365366
          ],
          [
            -66.158829,
            -17.365629
          ],
          [
            -66.158864,
            -17.365728
          ],
          [
            -66.15797,
            -17.365935
          ],
          [
            -66.157849,
            -17.365973
          ],
          [
            -66.157728,
            -17.366025
          ],
          [
            -66.157645,
            -17.366073
          ],
          [
            -66.157133,
            -17.366361
          ],
          [
            -66.157049,
            -17.366405
          ],
          [
            -66.156995,
            -17.366432
          ],
          [
            -66.156952,
            -17.366448
          ],
          [
            -66.156879,
            -17.366465
          ],
          [
            -66.156466,
            -17.366513
          ],
          [
            -66.156376,
            -17.366521
          ],
          [
            -66.156382,
            -17.366577
          ],
          [
            -66.156399,
            -17.366761
          ],
          [
            -66.156425,
            -17.367044
          ],
          [
            -66.156469,
            -17.367599
          ],
          [
            -66.156475,
            -17.367649
          ],
          [
            -66.156479,
            -17.367695
          ],
          [
            -66.156524,
            -17.368198
          ],
          [
            -66.156583,
            -17.368898
          ],
          [
            -66.156626,
            -17.369272
          ],
          [
            -66.156655,
            -17.369559
          ],
          [
            -66.156667,
            -17.369678
          ],
          [
            -66.156683,
            -17.369831
          ],
          [
            -66.156689,
            -17.369891
          ],
          [
            -66.156692,
            -17.369978
          ],
          [
            -66.156695,
            -17.370031
          ],
          [
            -66.1567,
            -17.370123
          ],
          [
            -66.156727,
            -17.370613
          ],
          [
            -66.156734,
            -17.370838
          ],
          [
            -66.156771,
            -17.371878
          ],
          [
            -66.156861,
            -17.372474
          ],
          [
            -66.156896,
            -17.372518
          ],
          [
            -66.156926,
            -17.372546
          ],
          [
            -66.156994,
            -17.37259
          ],
          [
            -66.157054,
            -17.372621
          ],
          [
            -66.157105,
            -17.372663
          ],
          [
            -66.157145,
            -17.372716
          ],
          [
            -66.157169,
            -17.37277
          ],
          [
            -66.157182,
            -17.372828
          ],
          [
            -66.157181,
            -17.372887
          ],
          [
            -66.157168,
            -17.372945
          ],
          [
            -66.157136,
            -17.373009
          ],
          [
            -66.157089,
            -17.373063
          ],
          [
            -66.15705,
            -17.373092
          ],
          [
            -66.157008,
            -17.373115
          ],
          [
            -66.156961,
            -17.373174
          ],
          [
            -66.156925,
            -17.373219
          ],
          [
            -66.156901,
            -17.373252
          ],
          [
            -66.156856,
            -17.373878
          ],
          [
            -66.156884,
            -17.374518
          ],
          [
            -66.156899,
            -17.374944
          ],
          [
            -66.1569,
            -17.374962
          ],
          [
            -66.156902,
            -17.375057
          ],
          [
            -66.156903,
            -17.375115
          ],
          [
            -66.156921,
            -17.375501
          ],
          [
            -66.156944,
            -17.376374
          ],
          [
            -66.157727,
            -17.376329
          ],
          [
            -66.157736,
            -17.376879
          ],
          [
            -66.157738,
            -17.376959
          ],
          [
            -66.157704,
            -17.376962
          ],
          [
            -66.156954,
            -17.377028
          ],
          [
            -66.155474,
            -17.377132
          ],
          [
            -66.153991,
            -17.377245
          ],
          [
            -66.153295,
            -17.377293
          ],
          [
            -66.153242,
            -17.377306
          ],
          [
            -66.153208,
            -17.377323
          ],
          [
            -66.153167,
            -17.377353
          ],
          [
            -66.152944,
            -17.377546
          ],
          [
            -66.152444,
            -17.377986
          ],
          [
            -66.152369,
            -17.378053
          ],
          [
            -66.152327,
            -17.378104
          ],
          [
            -66.152307,
            -17.37815
          ],
          [
            -66.152302,
            -17.378196
          ],
          [
            -66.152299,
            -17.378305
          ],
          [
            -66.152298,
            -17.378332
          ],
          [
            -66.1523,
            -17.378364
          ],
          [
            -66.152293,
            -17.378408
          ],
          [
            -66.152276,
            -17.378449
          ],
          [
            -66.152244,
            -17.378484
          ],
          [
            -66.152213,
            -17.378509
          ],
          [
            -66.15219,
            -17.37854
          ],
          [
            -66.152175,
            -17.378572
          ],
          [
            -66.152172,
            -17.378595
          ],
          [
            -66.152199,
            -17.379012
          ],
          [
            -66.152204,
            -17.379136
          ],
          [
            -66.152202,
            -17.379194
          ],
          [
            -66.152196,
            -17.379247
          ],
          [
            -66.152183,
            -17.379301
          ],
          [
            -66.152179,
            -17.379319
          ],
          [
            -66.152085,
            -17.379685
          ],
          [
            -66.152079,
            -17.379733
          ],
          [
            -66.152089,
            -17.37981
          ],
          [
            -66.152114,
            -17.379856
          ],
          [
            -66.152124,
            -17.379876
          ],
          [
            -66.152151,
            -17.379925
          ],
          [
            -66.152169,
            -17.379999
          ],
          [
            -66.152162,
            -17.380073
          ],
          [
            -66.15213,
            -17.380141
          ],
          [
            -66.152108,
            -17.380164
          ],
          [
            -66.152078,
            -17.380214
          ],
          [
            -66.152064,
            -17.380274
          ],
          [
            -66.152052,
            -17.380344
          ],
          [
            -66.152031,
            -17.380509
          ],
          [
            -66.151996,
            -17.380838
          ],
          [
            -66.151982,
            -17.380946
          ],
          [
            -66.151972,
            -17.381013
          ],
          [
            -66.151901,
            -17.381562
          ],
          [
            -66.151909,
            -17.381602
          ],
          [
            -66.151933,
            -17.381645
          ],
          [
            -66.151984,
            -17.381693
          ],
          [
            -66.15206,
            -17.38173
          ],
          [
            -66.152137,
            -17.381778
          ],
          [
            -66.152201,
            -17.381831
          ],
          [
            -66.152264,
            -17.381916
          ],
          [
            -66.152321,
            -17.382016
          ],
          [
            -66.152348,
            -17.382123
          ],
          [
            -66.152349,
            -17.382197
          ],
          [
            -66.152345,
            -17.382272
          ],
          [
            -66.152341,
            -17.382301
          ],
          [
            -66.15232,
            -17.382389
          ],
          [
            -66.152285,
            -17.382461
          ],
          [
            -66.152237,
            -17.382533
          ],
          [
            -66.152167,
            -17.382611
          ],
          [
            -66.152169,
            -17.382675
          ],
          [
            -66.152169,
            -17.382734
          ],
          [
            -66.152178,
            -17.382822
          ],
          [
            -66.152634,
            -17.383527
          ],
          [
            -66.152672,
            -17.383585
          ],
          [
            -66.152714,
            -17.383652
          ],
          [
            -66.153053,
            -17.384188
          ],
          [
            -66.153099,
            -17.384251
          ],
          [
            -66.153182,
            -17.384232
          ],
          [
            -66.153277,
            -17.384242
          ],
          [
            -66.153371,
            -17.384286
          ],
          [
            -66.153446,
            -17.384348
          ],
          [
            -66.153507,
            -17.384422
          ],
          [
            -66.153538,
            -17.384483
          ],
          [
            -66.153567,
            -17.384564
          ],
          [
            -66.153583,
            -17.384625
          ],
          [
            -66.153589,
            -17.384672
          ],
          [
            -66.153667,
            -17.384717
          ],
          [
            -66.154256,
            -17.38508
          ],
          [
            -66.154327,
            -17.385126
          ],
          [
            -66.154382,
            -17.385159
          ],
          [
            -66.15526,
            -17.385724
          ],
          [
            -66.155961,
            -17.386158
          ],
          [
            -66.156426,
            -17.386457
          ],
          [
            -66.156503,
            -17.386465
          ],
          [
            -66.156584,
            -17.38648
          ],
          [
            -66.156626,
            -17.386497
          ],
          [
            -66.156722,
            -17.386558
          ],
          [
            -66.156792,
            -17.386601
          ],
          [
            -66.156737,
            -17.386671
          ],
          [
            -66.156066,
            -17.387551
          ],
          [
            -66.156053,
            -17.387598
          ],
          [
            -66.15605,
            -17.387649
          ],
          [
            -66.156049,
            -17.387711
          ],
          [
            -66.156298,
            -17.387754
          ],
          [
            -66.156283,
            -17.387852
          ],
          [
            -66.156222,
            -17.388261
          ],
          [
            -66.156215,
            -17.388311
          ],
          [
            -66.156154,
            -17.388718
          ],
          [
            -66.156144,
            -17.388828
          ],
          [
            -66.155976,
            -17.389805
          ],
          [
            -66.155965,
            -17.389864
          ],
          [
            -66.155961,
            -17.389889
          ],
          [
            -66.155958,
            -17.389908
          ],
          [
            -66.155796,
            -17.390905
          ],
          [
            -66.155613,
            -17.391912
          ],
          [
            -66.155601,
            -17.391978
          ],
          [
            -66.155571,
            -17.392067
          ],
          [
            -66.15552,
            -17.392057
          ],
          [
            -66.154582,
            -17.391891
          ],
          [
            -66.1545,
            -17.391876
          ],
          [
            -66.154438,
            -17.391864
          ],
          [
            -66.154032,
            -17.391794
          ],
          [
            -66.15365,
            -17.391724
          ],
          [
            -66.153404,
            -17.39168
          ],
          [
            -66.153354,
            -17.391672
          ],
          [
            -66.153306,
            -17.391662
          ],
          [
            -66.152362,
            -17.391484
          ],
          [
            -66.152286,
            -17.391471
          ],
          [
            -66.152228,
            -17.39146
          ],
          [
            -66.151264,
            -17.391283
          ],
          [
            -66.151208,
            -17.391273
          ],
          [
            -66.151198,
            -17.391337
          ],
          [
            -66.151126,
            -17.391729
          ],
          [
            -66.15104,
            -17.392193
          ],
          [
            -66.151028,
            -17.392245
          ],
          [
            -66.151021,
            -17.392284
          ],
          [
            -66.150842,
            -17.393227
          ],
          [
            -66.150832,
            -17.393279
          ],
          [
            -66.150822,
            -17.393334
          ],
          [
            -66.15064,
            -17.394328
          ],
          [
            -66.150442,
            -17.395355
          ],
          [
            -66.150386,
            -17.395644
          ],
          [
            -66.150236,
            -17.396417
          ],
          [
            -66.150023,
            -17.397561
          ],
          [
            -66.150017,
            -17.397637
          ],
          [
            -66.150014,
            -17.397688
          ],
          [
            -66.149949,
            -17.398476
          ],
          [
            -66.149941,
            -17.398553
          ],
          [
            -66.149907,
            -17.399003
          ],
          [
            -66.149849,
            -17.399867
          ],
          [
            -66.150022,
            -17.399873
          ],
          [
            -66.150125,
            -17.399876
          ],
          [
            -66.150221,
            -17.399889
          ],
          [
            -66.15035,
            -17.399919
          ],
          [
            -66.150359,
            -17.399922
          ],
          [
            -66.150441,
            -17.399951
          ],
          [
            -66.150566,
            -17.400006
          ],
          [
            -66.15073,
            -17.400113
          ],
          [
            -66.150872,
            -17.400238
          ],
          [
            -66.150974,
            -17.400334
          ],
          [
            -66.151083,
            -17.400467
          ],
          [
            -66.151158,
            -17.400587
          ],
          [
            -66.15124,
            -17.400754
          ],
          [
            -66.15129,
            -17.400901
          ],
          [
            -66.151311,
            -17.401041
          ],
          [
            -66.151318,
            -17.401207
          ],
          [
            -66.151304,
            -17.401331
          ],
          [
            -66.151274,
            -17.40147
          ],
          [
            -66.15122,
            -17.401588
          ],
          [
            -66.151061,
            -17.401901
          ],
          [
            -66.15102,
            -17.402016
          ],
          [
            -66.150982,
            -17.402131
          ],
          [
            -66.150961,
            -17.402256
          ],
          [
            -66.150943,
            -17.402375
          ],
          [
            -66.150947,
            -17.402591
          ],
          [
            -66.151001,
            -17.403136
          ],
          [
            -66.151008,
            -17.403267
          ],
          [
            -66.151023,
            -17.403469
          ],
          [
            -66.151025,
            -17.403845
          ],
          [
            -66.15101,
            -17.404142
          ],
          [
            -66.150971,
            -17.404419
          ],
          [
            -66.150913,
            -17.404686
          ],
          [
            -66.150872,
            -17.40493
          ],
          [
            -66.150868,
            -17.404951
          ],
          [
            -66.150868,
            -17.404967
          ],
          [
            -66.150867,
            -17.404995
          ],
          [
            -66.150863,
            -17.405052
          ],
          [
            -66.150768,
            -17.407635
          ],
          [
            -66.150788,
            -17.408412
          ],
          [
            -66.150782,
            -17.408776
          ],
          [
            -66.150814,
            -17.40934
          ],
          [
            -66.150827,
            -17.409598
          ],
          [
            -66.150923,
            -17.410411
          ],
          [
            -66.15102,
            -17.41141
          ],
          [
            -66.151075,
            -17.4119
          ],
          [
            -66.15114,
            -17.412367
          ],
          [
            -66.151181,
            -17.412687
          ],
          [
            -66.151265,
            -17.413225
          ],
          [
            -66.151179,
            -17.413273
          ],
          [
            -66.150334,
            -17.41372
          ],
          [
            -66.149357,
            -17.414242
          ],
          [
            -66.149592,
            -17.41452
          ],
          [
            -66.149759,
            -17.414696
          ],
          [
            -66.149916,
            -17.414881
          ],
          [
            -66.150048,
            -17.415089
          ],
          [
            -66.150147,
            -17.415268
          ],
          [
            -66.150222,
            -17.415457
          ],
          [
            -66.150279,
            -17.41562
          ],
          [
            -66.150312,
            -17.415788
          ],
          [
            -66.150333,
            -17.415936
          ],
          [
            -66.150362,
            -17.416201
          ],
          [
            -66.150385,
            -17.416487
          ],
          [
            -66.150383,
            -17.416561
          ],
          [
            -66.150368,
            -17.416656
          ],
          [
            -66.1503,
            -17.417085
          ],
          [
            -66.150198,
            -17.417568
          ],
          [
            -66.150125,
            -17.417964
          ],
          [
            -66.150099,
            -17.418058
          ],
          [
            -66.150075,
            -17.418125
          ],
          [
            -66.150034,
            -17.418204
          ],
          [
            -66.149809,
            -17.418529
          ],
          [
            -66.149359,
            -17.419166
          ],
          [
            -66.149337,
            -17.419238
          ],
          [
            -66.14933,
            -17.419273
          ],
          [
            -66.149323,
            -17.419308
          ],
          [
            -66.149317,
            -17.419365
          ],
          [
            -66.149329,
            -17.419467
          ],
          [
            -66.149351,
            -17.419641
          ],
          [
            -66.149273,
            -17.419672
          ],
          [
            -66.148994,
            -17.419559
          ],
          [
            -66.148855,
            -17.419502
          ],
          [
            -66.148797,
            -17.419486
          ],
          [
            -66.148755,
            -17.419483
          ],
          [
            -66.148664,
            -17.419481
          ],
          [
            -66.148243,
            -17.419506
          ],
          [
            -66.14763,
            -17.419545
          ],
          [
            -66.147289,
            -17.419563
          ],
          [
            -66.14703,
            -17.419576
          ],
          [
            -66.14641,
            -17.419615
          ],
          [
            -66.146447,
            -17.42019
          ],
          [
            -66.146494,
            -17.420955
          ],
          [
            -66.145896,
            -17.420969
          ],
          [
            -66.145682,
            -17.420987
          ],
          [
            -66.145527,
            -17.421009
          ],
          [
            -66.145411,
            -17.421035
          ],
          [
            -66.145302,
            -17.421065
          ],
          [
            -66.145234,
            -17.421093
          ],
          [
            -66.14473,
            -17.421326
          ],
          [
            -66.14452,
            -17.421433
          ],
          [
            -66.144426,
            -17.421485
          ],
          [
            -66.144342,
            -17.421526
          ],
          [
            -66.144129,
            -17.421609
          ],
          [
            -66.143944,
            -17.421675
          ],
          [
            -66.143711,
            -17.421755
          ],
          [
            -66.143645,
            -17.421768
          ],
          [
            -66.1436,
            -17.4218
          ],
          [
            -66.143563,
            -17.421845
          ],
          [
            -66.14353,
            -17.421926
          ],
          [
            -66.143542,
            -17.421978
          ],
          [
            -66.143515,
            -17.422019
          ],
          [
            -66.143474,
            -17.422058
          ],
          [
            -66.14343,
            -17.422084
          ],
          [
            -66.143377,
            -17.422101
          ],
          [
            -66.143313,
            -17.422119
          ],
          [
            -66.143204,
            -17.422169
          ],
          [
            -66.14271,
            -17.4224
          ],
          [
            -66.142639,
            -17.422444
          ],
          [
            -66.142589,
            -17.42249
          ],
          [
            -66.142364,
            -17.42275
          ],
          [
            -66.142282,
            -17.422854
          ],
          [
            -66.142176,
            -17.422977
          ],
          [
            -66.142039,
            -17.423122
          ],
          [
            -66.14194,
            -17.423285
          ],
          [
            -66.141723,
            -17.423744
          ],
          [
            -66.141679,
            -17.42384
          ],
          [
            -66.141631,
            -17.423958
          ],
          [
            -66.141549,
            -17.424267
          ],
          [
            -66.141477,
            -17.424866
          ],
          [
            -66.141342,
            -17.424949
          ],
          [
            -66.141203,
            -17.424978
          ],
          [
            -66.141096,
            -17.424975
          ],
          [
            -66.141024,
            -17.424975
          ],
          [
            -66.140635,
            -17.424975
          ],
          [
            -66.140597,
            -17.424242
          ],
          [
            -66.140494,
            -17.42425
          ],
          [
            -66.140275,
            -17.424224
          ],
          [
            -66.140244,
            -17.424475
          ],
          [
            -66.139927,
            -17.424939
          ],
          [
            -66.139888,
            -17.424974
          ],
          [
            -66.139819,
            -17.424948
          ],
          [
            -66.139347,
            -17.424574
          ],
          [
            -66.138834,
            -17.424186
          ],
          [
            -66.138421,
            -17.423861
          ],
          [
            -66.138342,
            -17.423958
          ],
          [
            -66.138198,
            -17.424114
          ],
          [
            -66.13803,
            -17.424252
          ],
          [
            -66.137994,
            -17.424312
          ],
          [
            -66.137854,
            -17.424448
          ],
          [
            -66.137543,
            -17.424689
          ],
          [
            -66.137273,
            -17.424943
          ],
          [
            -66.137141,
            -17.425177
          ],
          [
            -66.136957,
            -17.425423
          ],
          [
            -66.13643,
            -17.426135
          ],
          [
            -66.136394,
            -17.426208
          ],
          [
            -66.136368,
            -17.426291
          ],
          [
            -66.136219,
            -17.426903
          ],
          [
            -66.13615,
            -17.426997
          ],
          [
            -66.135936,
            -17.427217
          ],
          [
            -66.135552,
            -17.427594
          ],
          [
            -66.135431,
            -17.427712
          ],
          [
            -66.135091,
            -17.42801
          ],
          [
            -66.135028,
            -17.428056
          ],
          [
            -66.134799,
            -17.428251
          ],
          [
            -66.13461,
            -17.42838
          ],
          [
            -66.134321,
            -17.428631
          ],
          [
            -66.134195,
            -17.428753
          ],
          [
            -66.133839,
            -17.429118
          ],
          [
            -66.133642,
            -17.429339
          ],
          [
            -66.133425,
            -17.429635
          ],
          [
            -66.133359,
            -17.429729
          ],
          [
            -66.133289,
            -17.429911
          ],
          [
            -66.133198,
            -17.430243
          ],
          [
            -66.133122,
            -17.430322
          ],
          [
            -66.133018,
            -17.43041
          ],
          [
            -66.132894,
            -17.430513
          ],
          [
            -66.132802,
            -17.430613
          ],
          [
            -66.132543,
            -17.430972
          ],
          [
            -66.132459,
            -17.431074
          ],
          [
            -66.132286,
            -17.431347
          ],
          [
            -66.132188,
            -17.431477
          ],
          [
            -66.132124,
            -17.431549
          ],
          [
            -66.131927,
            -17.431793
          ],
          [
            -66.131604,
            -17.432201
          ],
          [
            -66.131418,
            -17.43243
          ],
          [
            -66.131342,
            -17.432562
          ],
          [
            -66.131225,
            -17.432723
          ],
          [
            -66.131025,
            -17.432967
          ],
          [
            -66.130669,
            -17.433426
          ],
          [
            -66.130334,
            -17.433825
          ],
          [
            -66.130226,
            -17.433961
          ],
          [
            -66.130556,
            -17.433975
          ],
          [
            -66.131405,
            -17.433967
          ],
          [
            -66.13172,
            -17.433977
          ],
          [
            -66.131823,
            -17.433979
          ],
          [
            -66.131885,
            -17.43396
          ],
          [
            -66.131899,
            -17.434041
          ],
          [
            -66.132129,
            -17.434039
          ],
          [
            -66.132296,
            -17.434043
          ],
          [
            -66.132436,
            -17.434044
          ],
          [
            -66.132477,
            -17.434052
          ],
          [
            -66.132497,
            -17.434076
          ],
          [
            -66.132493,
            -17.434122
          ],
          [
            -66.132472,
            -17.434239
          ],
          [
            -66.132466,
            -17.434404
          ],
          [
            -66.13246,
            -17.434553
          ],
          [
            -66.132466,
            -17.434644
          ],
          [
            -66.13248,
            -17.434714
          ],
          [
            -66.132524,
            -17.434822
          ],
          [
            -66.132576,
            -17.434927
          ],
          [
            -66.132682,
            -17.435091
          ],
          [
            -66.132844,
            -17.43542
          ],
          [
            -66.132866,
            -17.435484
          ],
          [
            -66.13288,
            -17.435558
          ],
          [
            -66.132976,
            -17.435401
          ],
          [
            -66.133016,
            -17.435308
          ],
          [
            -66.133051,
            -17.435195
          ],
          [
            -66.13306,
            -17.435124
          ]
        ]
      }
    }
  ]
}