{
  "type": "FeatureCollection",
  "features": [
    {
      "type": "Feature",
      "properties": {
        "route_id": "9582859",
        "route_short_name": "2",
        "route_long_name": "MiniBus 2: Calle Las Begonias \u2192 Calle Capit\u00e1n Luis Garcia"
      },
      "geometry": {
        "type": "LineString",
        "coordinates": [
          [
            -66.140846,
            -17.363733
          ],
          [
            -66.141315,
            -17.363384
          ],
          [
            -66.14138,
            -17.363463
          ],
          [
            -66.14178,
            -17.363971
          ],
          [
            -66.141824,
            -17.364035
          ],
          [
            -66.141807,
            -17.364154
          ],
          [
            -66.141903,
            -17.36432
          ],
          [
            -66.142067,
            -17.364615
          ],
          [
            -66.142494,
            -17.365329
          ],
          [
            -66.142935,
            -17.366032
          ],
          [
            -66.143888,
            -17.365594
          ],
          [
            -66.144771,
            -17.36519
          ],
          [
            -66.145169,
            -17.365939
          ],
          [
            -66.145203,
            -17.366008
          ],
          [
            -66.145372,
            -17.366532
          ],
          [
            -66.145517,
            -17.367075
          ],
          [
            -66.145618,
            -17.367566
          ],
          [
            -66.145698,
            -17.368044
          ],
          [
            -66.14578,
            -17.368434
          ],
          [
            -66.1458,
            -17.368546
          ],
          [
            -66.145889,
            -17.369017
          ],
          [
            -66.146153,
            -17.370351
          ],
          [
            -66.146279,
            -17.370927
          ],
          [
            -66.146295,
            -17.370996
          ],
          [
            -66.146308,
            -17.371062
          ],
          [
            -66.146379,
            -17.371426
          ],
          [
            -66.146394,
            -17.371503
          ],
          [
            -66.145566,
            -17.371572
          ],
          [
            -66.145505,
            -17.371577
          ],
          [
            -66.145515,
            -17.371631
          ],
          [
            -66.145793,
            -17.373192
          ],
          [
            -66.1458,
            -17.373227
          ],
          [
            -66.145807,
            -17.373276
          ],
          [
            -66.145813,
            -17.373312
          ],
          [
            -66.145825,
            -17.373376
          ],
          [
            -66.145842,
            -17.37347
          ],
          [
            -66.145853,
            -17.373534
          ],
          [
            -66.145862,
            -17.373629
          ],
          [
            -66.145459,
            -17.373655
          ],
          [
            -66.144598,
            -17.37371
          ],
          [
            -66.144507,
            -17.373718
          ],
          [
            -66.144451,
            -17.373722
          ],
          [
            -66.144352,
            -17.37373
          ],
          [
            -66.143883,
            -17.373757
          ],
          [
            -66.143821,
            -17.37376
          ],
          [
            -66.143452,
            -17.373784
          ],
          [
            -66.143415,
            -17.373784
          ],
          [
            -66.143354,
            -17.373802
          ],
          [
            -66.143285,
            -17.373845
          ],
          [
            -66.143259,
            -17.373917
          ],
          [
            -66.143203,
            -17.373994
          ],
          [
            -66.14312,
            -17.374053
          ],
          [
            -66.143019,
            -17.37409
          ],
          [
            -66.142987,
            -17.37412
          ],
          [
            -66.142946,
            -17.374187
          ],
          [
            -66.142923,
            -17.374249
          ],
          [
            -66.142826,
            -17.374871
          ],
          [
            -66.142813,
            -17.374963
          ],
          [
            -66.142801,
            -17.375036
          ],
          [
            -66.142753,
            -17.375341
          ],
          [
            -66.142684,
            -17.375775
          ],
          [
            -66.142674,
            -17.37584
          ],
          [
            -66.142619,
            -17.376235
          ],
          [
            -66.142601,
            -17.376365
          ],
          [
            -66.142581,
            -17.376479
          ],
          [
            -66.142549,
            -17.376778
          ],
          [
            -66.142543,
            -17.376843
          ],
          [
            -66.142538,
            -17.376885
          ],
          [
            -66.142529,
            -17.376945
          ],
          [
            -66.142525,
            -17.37696
          ],
          [
            -66.142428,
            -17.377327
          ],
          [
            -66.142404,
            -17.377419
          ],
          [
            -66.142409,
            -17.377445
          ],
          [
            -66.142422,
            -17.377476
          ],
          [
            -66.142438,
            -17.377495
          ],
          [
            -66.142452,
            -17.377523
          ],
          [
            -66.142461,
            -17.377552
          ],
          [
            -66.142464,
            -17.377583
          ],
          [
            -66.142462,
            -17.377619
          ],
          [
            -66.142441,
            -17.377663
          ],
          [
            -66.14241,
            -17.377695
          ],
          [
            -66.14238,
            -17.377715
          ],
          [
            -66.142354,
            -17.377744
          ],
          [
            -66.142336,
            -17.377777
          ],
          [
            -66.14233,
            -17.377816
          ],
          [
            -66.14228,
            -17.378405
          ],
          [
            -66.142253,
            -17.378687
          ],
          [
            -66.142257,
            -17.378854
          ],
          [
            -66.142225,
            -17.379208
          ],
          [
            -66.142179,
            -17.37963
          ],
          [
            -66.142141,
            -17.37998
          ],
          [
            -66.14213,
            -17.380104
          ],
          [
            -66.142119,
            -17.380233
          ],
          [
            -66.142104,
            -17.380346
          ],
          [
            -66.142089,
            -17.380467
          ],
          [
            -66.142038,
            -17.380863
          ],
          [
            -66.142065,
            -17.380962
          ],
          [
            -66.142092,
            -17.381053
          ],
          [
            -66.142121,
            -17.381131
          ],
          [
            -66.142163,
            -17.3812
          ],
          [
            -66.142243,
            -17.3813
          ],
          [
            -66.142379,
            -17.381422
          ],
          [
            -66.142769,
            -17.381693
          ],
          [
            -66.142806,
            -17.381721
          ],
          [
            -66.142893,
            -17.381785
          ],
          [
            -66.142849,
            -17.381884
          ],
          [
            -66.142827,
            -17.381974
          ],
          [
            -66.142812,
            -17.38205
          ],
          [
            -66.142797,
            -17.382191
          ],
          [
            -66.142805,
            -17.382327
          ],
          [
            -66.142835,
            -17.382454
          ],
          [
            -66.14295,
            -17.382751
          ],
          [
            -66.1431,
            -17.383161
          ],
          [
            -66.143122,
            -17.383223
          ],
          [
            -66.143208,
            -17.383464
          ],
          [
            -66.143366,
            -17.383863
          ],
          [
            -66.143547,
            -17.384263
          ],
          [
            -66.143575,
            -17.384324
          ],
          [
            -66.143773,
            -17.384853
          ],
          [
            -66.143829,
            -17.384969
          ],
          [
            -66.14385,
            -17.385012
          ],
          [
            -66.143875,
            -17.385077
          ],
          [
            -66.143462,
            -17.385226
          ],
          [
            -66.143752,
            -17.386406
          ],
          [
            -66.144009,
            -17.38715
          ],
          [
            -66.144067,
            -17.387328
          ],
          [
            -66.144098,
            -17.387468
          ],
          [
            -66.144118,
            -17.387631
          ],
          [
            -66.144132,
            -17.38786
          ],
          [
            -66.144123,
            -17.388003
          ],
          [
            -66.144093,
            -17.388214
          ],
          [
            -66.144039,
            -17.388452
          ],
          [
            -66.144027,
            -17.388506
          ],
          [
            -66.143891,
            -17.389131
          ],
          [
            -66.143761,
            -17.389701
          ],
          [
            -66.143727,
            -17.389761
          ],
          [
            -66.143805,
            -17.389775
          ],
          [
            -66.144762,
            -17.389963
          ],
          [
            -66.144816,
            -17.389973
          ],
          [
            -66.144878,
            -17.389984
          ],
          [
            -66.145296,
            -17.390063
          ],
          [
            -66.145785,
            -17.390155
          ],
          [
            -66.146281,
            -17.390248
          ],
          [
            -66.147287,
            -17.390435
          ],
          [
            -66.147793,
            -17.390529
          ],
          [
            -66.147854,
            -17.390541
          ],
          [
            -66.147919,
            -17.390554
          ],
          [
            -66.148849,
            -17.390735
          ],
          [
            -66.148909,
            -17.390746
          ],
          [
            -66.148982,
            -17.39076
          ],
          [
            -66.149858,
            -17.390928
          ],
          [
            -66.149894,
            -17.390934
          ],
          [
            -66.149967,
            -17.390948
          ],
          [
            -66.15008,
            -17.390969
          ],
          [
            -66.151162,
            -17.391175
          ],
          [
            -66.151221,
            -17.391186
          ],
          [
            -66.151278,
            -17.391196
          ],
          [
            -66.152252,
            -17.391374
          ],
          [
            -66.152305,
            -17.391382
          ],
          [
            -66.152382,
            -17.391394
          ],
          [
            -66.152895,
            -17.391491
          ],
          [
            -66.153323,
            -17.391576
          ],
          [
            -66.153374,
            -17.391585
          ],
          [
            -66.153422,
            -17.391594
          ],
          [
            -66.154042,
            -17.391704
          ],
          [
            -66.154453,
            -17.391776
          ],
          [
            -66.154518,
            -17.391787
          ],
          [
            -66.154529,
            -17.391726
          ],
          [
            -66.154722,
            -17.39071
          ],
          [
            -66.154425,
            -17.390651
          ],
          [
            -66.153622,
            -17.390492
          ],
          [
            -66.153385,
            -17.391533
          ],
          [
            -66.153374,
            -17.391585
          ],
          [
            -66.153354,
            -17.391672
          ],
          [
            -66.153347,
            -17.391727
          ],
          [
            -66.153198,
            -17.392624
          ],
          [
            -66.153,
            -17.393664
          ],
          [
            -66.152808,
            -17.394698
          ],
          [
            -66.152617,
            -17.395754
          ],
          [
            -66.152423,
            -17.396818
          ],
          [
            -66.153532,
            -17.397006
          ],
          [
            -66.15458,
            -17.397192
          ],
          [
            -66.154382,
            -17.398223
          ],
          [
            -66.154227,
            -17.399006
          ],
          [
            -66.154206,
            -17.399084
          ],
          [
            -66.154045,
            -17.399999
          ],
          [
            -66.15393,
            -17.400709
          ],
          [
            -66.153977,
            -17.401365
          ],
          [
            -66.154027,
            -17.402254
          ],
          [
            -66.154504,
            -17.402243
          ],
          [
            -66.154967,
            -17.402208
          ],
          [
            -66.155316,
            -17.402192
          ],
          [
            -66.155948,
            -17.402196
          ],
          [
            -66.156667,
            -17.402209
          ],
          [
            -66.156736,
            -17.400874
          ],
          [
            -66.157393,
            -17.400959
          ],
          [
            -66.157479,
            -17.40097
          ],
          [
            -66.15759,
            -17.400982
          ],
          [
            -66.157572,
            -17.401163
          ],
          [
            -66.157533,
            -17.401542
          ],
          [
            -66.157493,
            -17.401979
          ],
          [
            -66.157476,
            -17.40212
          ],
          [
            -66.15746,
            -17.40225
          ],
          [
            -66.157367,
            -17.402927
          ],
          [
            -66.15729,
            -17.403424
          ],
          [
            -66.157198,
            -17.403985
          ],
          [
            -66.157174,
            -17.404029
          ],
          [
            -66.157149,
            -17.404081
          ],
          [
            -66.156975,
            -17.405144
          ],
          [
            -66.156929,
            -17.405396
          ],
          [
            -66.156715,
            -17.406568
          ],
          [
            -66.156675,
            -17.406831
          ],
          [
            -66.156608,
            -17.407373
          ],
          [
            -66.156579,
            -17.407596
          ],
          [
            -66.156564,
            -17.407672
          ],
          [
            -66.156552,
            -17.407749
          ],
          [
            -66.156392,
            -17.408892
          ],
          [
            -66.156442,
            -17.409252
          ],
          [
            -66.156499,
            -17.409537
          ],
          [
            -66.156531,
            -17.409702
          ],
          [
            -66.156552,
            -17.409773
          ],
          [
            -66.156684,
            -17.410014
          ],
          [
            -66.156885,
            -17.41048
          ],
          [
            -66.156917,
            -17.410604
          ],
          [
            -66.15693,
            -17.410758
          ],
          [
            -66.156958,
            -17.410897
          ],
          [
            -66.156963,
            -17.410925
          ],
          [
            -66.15697,
            -17.410962
          ],
          [
            -66.156989,
            -17.411016
          ],
          [
            -66.157027,
            -17.411099
          ],
          [
            -66.157163,
            -17.411241
          ],
          [
            -66.15735,
            -17.411413
          ],
          [
            -66.157631,
            -17.411658
          ],
          [
            -66.157828,
            -17.411771
          ],
          [
            -66.15804,
            -17.411859
          ],
          [
            -66.158197,
            -17.411907
          ],
          [
            -66.158425,
            -17.41196
          ],
          [
            -66.158511,
            -17.411998
          ],
          [
            -66.158585,
            -17.412041
          ],
          [
            -66.159426,
            -17.412699
          ],
          [
            -66.159469,
            -17.412718
          ],
          [
            -66.159522,
            -17.412736
          ],
          [
            -66.159695,
            -17.412662
          ],
          [
            -66.160329,
            -17.412366
          ],
          [
            -66.161378,
            -17.411891
          ],
          [
            -66.161407,
            -17.411878
          ],
          [
            -66.16151,
            -17.411834
          ],
          [
            -66.162572,
            -17.411337
          ],
          [
            -66.16301,
            -17.411141
          ],
          [
            -66.163186,
            -17.411062
          ],
          [
            -66.163801,
            -17.410785
          ],
          [
            -66.164094,
            -17.41065
          ],
          [
            -66.164347,
            -17.410621
          ],
          [
            -66.164465,
            -17.410613
          ],
          [
            -66.164598,
            -17.410607
          ],
          [
            -66.16467,
            -17.410605
          ],
          [
            -66.164737,
            -17.410616
          ],
          [
            -66.164798,
            -17.410631
          ],
          [
            -66.164829,
            -17.410653
          ],
          [
            -66.164894,
            -17.410705
          ],
          [
            -66.164954,
            -17.410793
          ],
          [
            -66.16498,
            -17.410895
          ],
          [
            -66.164969,
            -17.410999
          ],
          [
            -66.164924,
            -17.411094
          ],
          [
            -66.164857,
            -17.411163
          ],
          [
            -66.164839,
            -17.411234
          ],
          [
            -66.164809,
            -17.411377
          ],
          [
            -66.164796,
            -17.411502
          ],
          [
            -66.164896,
            -17.412044
          ],
          [
            -66.164918,
            -17.412176
          ],
          [
            -66.16495,
            -17.412357
          ],
          [
            -66.165065,
            -17.412935
          ],
          [
            -66.165263,
            -17.41396
          ],
          [
            -66.165456,
            -17.414982
          ],
          [
            -66.166474,
            -17.414805
          ],
          [
            -66.167154,
            -17.414697
          ],
          [
            -66.1678,
            -17.414591
          ],
          [
            -66.168786,
            -17.414435
          ],
          [
            -66.168835,
            -17.414742
          ],
          [
            -66.168834,
            -17.414947
          ],
          [
            -66.168807,
            -17.415094
          ],
          [
            -66.168578,
            -17.415711
          ],
          [
            -66.168369,
            -17.41626
          ],
          [
            -66.168338,
            -17.41644
          ],
          [
            -66.168331,
            -17.416527
          ],
          [
            -66.168344,
            -17.416561
          ],
          [
            -66.16839,
            -17.416604
          ],
          [
            -66.168447,
            -17.416647
          ],
          [
            -66.168527,
            -17.416701
          ],
          [
            -66.169426,
            -17.417196
          ],
          [
            -66.169454,
            -17.41721
          ],
          [
            -66.17065,
            -17.417906
          ],
          [
            -66.170702,
            -17.417934
          ],
          [
            -66.169676,
            -17.419373
          ],
          [
            -66.170897,
            -17.420208
          ],
          [
            -66.171482,
            -17.420816
          ],
          [
            -66.17071,
            -17.421523
          ],
          [
            -66.170943,
            -17.421719
          ],
          [
            -66.17103,
            -17.421834
          ],
          [
            -66.170899,
            -17.421766
          ],
          [
            -66.169794,
            -17.420902
          ],
          [
            -66.169743,
            -17.420807
          ],
          [
            -66.1696,
            -17.420698
          ],
          [
            -66.169029,
            -17.420259
          ],
          [
            -66.168746,
            -17.420048
          ]
        ]
      }
    }
  ]
}