{
  "type": "FeatureCollection",
  "features": [
    {
      "type": "Feature",
      "properties": {
        "route_id": "9377826",
        "route_short_name": "250",
        "route_long_name": "MicroBus 250: Avenida Blanco Galindo \u2192 Avenida M\u00e1rtires de la Democracia"
      },
      "geometry": {
        "type": "LineString",
        "coordinates": [
          [
            -66.208199,
            -17.392471
          ],
          [
            -66.208104,
            -17.392488
          ],
          [
            -66.208016,
            -17.392492
          ],
          [
            -66.207439,
            -17.392516
          ],
          [
            -66.206858,
            -17.39254
          ],
          [
            -66.205631,
            -17.392577
          ],
          [
            -66.205631,
            -17.392553
          ],
          [
            -66.205628,
            -17.392448
          ],
          [
            -66.204708,
            -17.392489
          ],
          [
            -66.204309,
            -17.392508
          ],
          [
            -66.20362,
            -17.392535
          ],
          [
            -66.203108,
            -17.392554
          ],
          [
            -66.200207,
            -17.392688
          ],
          [
            -66.199822,
            -17.392705
          ],
          [
            -66.199683,
            -17.39271
          ],
          [
            -66.199603,
            -17.392714
          ],
          [
            -66.199482,
            -17.392719
          ],
          [
            -66.199275,
            -17.392728
          ],
          [
            -66.198936,
            -17.392742
          ],
          [
            -66.197099,
            -17.39282
          ],
          [
            -66.196961,
            -17.392827
          ],
          [
            -66.194171,
            -17.392952
          ],
          [
            -66.193903,
            -17.392963
          ],
          [
            -66.19186,
            -17.39305
          ],
          [
            -66.189268,
            -17.393168
          ],
          [
            -66.187582,
            -17.393243
          ],
          [
            -66.186416,
            -17.393294
          ],
          [
            -66.186423,
            -17.393428
          ],
          [
            -66.186162,
            -17.393442
          ],
          [
            -66.185792,
            -17.393462
          ],
          [
            -66.18565,
            -17.393469
          ],
          [
            -66.184675,
            -17.393506
          ],
          [
            -66.184609,
            -17.393521
          ],
          [
            -66.184559,
            -17.393549
          ],
          [
            -66.184532,
            -17.39361
          ],
          [
            -66.184519,
            -17.393667
          ],
          [
            -66.184523,
            -17.393701
          ],
          [
            -66.184531,
            -17.393747
          ],
          [
            -66.184783,
            -17.394504
          ],
          [
            -66.184895,
            -17.394854
          ],
          [
            -66.185037,
            -17.395293
          ],
          [
            -66.185061,
            -17.395537
          ],
          [
            -66.185163,
            -17.395847
          ],
          [
            -66.185179,
            -17.395893
          ],
          [
            -66.185224,
            -17.395992
          ],
          [
            -66.185261,
            -17.396066
          ],
          [
            -66.185288,
            -17.396083
          ],
          [
            -66.185332,
            -17.396136
          ],
          [
            -66.185351,
            -17.396202
          ],
          [
            -66.185341,
            -17.396269
          ],
          [
            -66.185333,
            -17.396288
          ],
          [
            -66.185297,
            -17.396334
          ],
          [
            -66.185247,
            -17.396366
          ],
          [
            -66.185189,
            -17.396381
          ],
          [
            -66.185129,
            -17.396375
          ],
          [
            -66.185074,
            -17.396351
          ],
          [
            -66.185047,
            -17.396329
          ],
          [
            -66.184961,
            -17.396282
          ],
          [
            -66.184943,
            -17.396276
          ],
          [
            -66.184883,
            -17.396259
          ],
          [
            -66.184823,
            -17.396249
          ],
          [
            -66.184791,
            -17.396244
          ],
          [
            -66.183947,
            -17.396258
          ],
          [
            -66.183275,
            -17.396284
          ],
          [
            -66.182555,
            -17.396304
          ],
          [
            -66.181867,
            -17.396314
          ],
          [
            -66.181664,
            -17.396311
          ],
          [
            -66.181579,
            -17.396316
          ],
          [
            -66.181511,
            -17.39632
          ],
          [
            -66.180676,
            -17.39634
          ],
          [
            -66.179823,
            -17.396365
          ],
          [
            -66.179196,
            -17.396377
          ],
          [
            -66.178723,
            -17.396379
          ],
          [
            -66.178593,
            -17.396381
          ],
          [
            -66.177774,
            -17.396404
          ],
          [
            -66.177299,
            -17.396407
          ],
          [
            -66.17693,
            -17.39641
          ],
          [
            -66.176161,
            -17.396422
          ],
          [
            -66.175449,
            -17.396438
          ],
          [
            -66.175245,
            -17.396442
          ],
          [
            -66.174226,
            -17.396468
          ],
          [
            -66.174125,
            -17.39647
          ],
          [
            -66.174021,
            -17.396473
          ],
          [
            -66.173946,
            -17.396475
          ],
          [
            -66.171064,
            -17.396551
          ],
          [
            -66.170789,
            -17.396555
          ],
          [
            -66.170719,
            -17.396556
          ],
          [
            -66.169428,
            -17.396586
          ],
          [
            -66.16938,
            -17.396586
          ],
          [
            -66.169272,
            -17.396595
          ],
          [
            -66.169227,
            -17.396599
          ],
          [
            -66.169061,
            -17.396621
          ],
          [
            -66.168957,
            -17.396643
          ],
          [
            -66.168445,
            -17.396814
          ],
          [
            -66.16835,
            -17.396845
          ],
          [
            -66.168232,
            -17.396884
          ],
          [
            -66.168033,
            -17.39695
          ],
          [
            -66.167938,
            -17.39697
          ],
          [
            -66.16756,
            -17.397039
          ],
          [
            -66.167535,
            -17.397049
          ],
          [
            -66.167471,
            -17.397078
          ],
          [
            -66.167423,
            -17.397124
          ],
          [
            -66.167397,
            -17.397153
          ],
          [
            -66.167364,
            -17.397173
          ],
          [
            -66.167325,
            -17.397182
          ],
          [
            -66.167292,
            -17.397185
          ],
          [
            -66.167208,
            -17.397191
          ],
          [
            -66.167129,
            -17.39721
          ],
          [
            -66.166431,
            -17.397698
          ],
          [
            -66.166261,
            -17.397814
          ],
          [
            -66.166199,
            -17.39773
          ],
          [
            -66.165677,
            -17.396998
          ],
          [
            -66.165618,
            -17.396926
          ],
          [
            -66.165578,
            -17.396878
          ],
          [
            -66.165555,
            -17.396861
          ],
          [
            -66.165543,
            -17.396847
          ],
          [
            -66.165503,
            -17.396834
          ],
          [
            -66.165461,
            -17.396828
          ],
          [
            -66.165402,
            -17.396832
          ],
          [
            -66.165041,
            -17.396938
          ],
          [
            -66.164656,
            -17.397105
          ],
          [
            -66.164536,
            -17.397152
          ],
          [
            -66.164339,
            -17.397229
          ],
          [
            -66.163056,
            -17.397304
          ],
          [
            -66.163016,
            -17.397317
          ],
          [
            -66.162979,
            -17.397337
          ],
          [
            -66.162877,
            -17.397418
          ],
          [
            -66.16286,
            -17.39746
          ],
          [
            -66.162816,
            -17.397506
          ],
          [
            -66.162777,
            -17.397522
          ],
          [
            -66.162717,
            -17.397532
          ],
          [
            -66.162606,
            -17.397508
          ],
          [
            -66.162272,
            -17.397446
          ],
          [
            -66.162122,
            -17.397418
          ],
          [
            -66.161432,
            -17.397301
          ],
          [
            -66.160232,
            -17.397084
          ],
          [
            -66.160069,
            -17.398173
          ],
          [
            -66.160322,
            -17.398222
          ],
          [
            -66.160321,
            -17.398393
          ],
          [
            -66.160315,
            -17.399319
          ],
          [
            -66.160307,
            -17.399387
          ],
          [
            -66.160299,
            -17.399444
          ],
          [
            -66.160295,
            -17.39948
          ],
          [
            -66.160284,
            -17.399505
          ],
          [
            -66.160262,
            -17.399524
          ],
          [
            -66.160224,
            -17.399539
          ],
          [
            -66.160128,
            -17.399539
          ],
          [
            -66.160063,
            -17.399539
          ],
          [
            -66.160006,
            -17.39954
          ],
          [
            -66.159251,
            -17.399522
          ],
          [
            -66.158666,
            -17.399515
          ],
          [
            -66.15781,
            -17.399491
          ],
          [
            -66.157729,
            -17.399487
          ],
          [
            -66.157725,
            -17.399553
          ],
          [
            -66.15771,
            -17.399806
          ],
          [
            -66.157674,
            -17.400165
          ],
          [
            -66.1576,
            -17.40091
          ],
          [
            -66.15759,
            -17.400982
          ],
          [
            -66.157572,
            -17.401163
          ],
          [
            -66.157533,
            -17.401542
          ],
          [
            -66.157493,
            -17.401979
          ],
          [
            -66.157476,
            -17.40212
          ],
          [
            -66.15746,
            -17.40225
          ],
          [
            -66.157367,
            -17.402927
          ],
          [
            -66.15729,
            -17.403424
          ],
          [
            -66.157198,
            -17.403985
          ],
          [
            -66.157174,
            -17.404029
          ],
          [
            -66.157149,
            -17.404081
          ],
          [
            -66.156975,
            -17.405144
          ],
          [
            -66.156929,
            -17.405396
          ],
          [
            -66.156715,
            -17.406568
          ],
          [
            -66.156675,
            -17.406831
          ],
          [
            -66.156608,
            -17.407373
          ],
          [
            -66.156579,
            -17.407596
          ],
          [
            -66.156564,
            -17.407672
          ],
          [
            -66.156552,
            -17.407749
          ],
          [
            -66.156392,
            -17.408892
          ],
          [
            -66.1563,
            -17.409309
          ],
          [
            -66.156253,
            -17.409537
          ],
          [
            -66.156149,
            -17.410116
          ],
          [
            -66.156103,
            -17.410409
          ],
          [
            -66.156079,
            -17.410653
          ],
          [
            -66.15606,
            -17.410819
          ],
          [
            -66.156047,
            -17.410917
          ],
          [
            -66.156056,
            -17.41103
          ],
          [
            -66.156067,
            -17.4111
          ],
          [
            -66.156098,
            -17.411222
          ],
          [
            -66.156306,
            -17.411877
          ],
          [
            -66.156356,
            -17.412078
          ],
          [
            -66.156398,
            -17.412262
          ],
          [
            -66.156401,
            -17.412427
          ],
          [
            -66.15652,
            -17.413072
          ],
          [
            -66.156659,
            -17.413832
          ],
          [
            -66.156789,
            -17.414592
          ],
          [
            -66.156829,
            -17.414708
          ],
          [
            -66.156992,
            -17.415539
          ],
          [
            -66.157009,
            -17.415627
          ],
          [
            -66.158,
            -17.415464
          ],
          [
            -66.158981,
            -17.415286
          ],
          [
            -66.159101,
            -17.415264
          ],
          [
            -66.159293,
            -17.416266
          ],
          [
            -66.15948,
            -17.417255
          ],
          [
            -66.159702,
            -17.418391
          ],
          [
            -66.159721,
            -17.418483
          ],
          [
            -66.159729,
            -17.418541
          ],
          [
            -66.159822,
            -17.418993
          ],
          [
            -66.159958,
            -17.419711
          ],
          [
            -66.16004,
            -17.42012
          ],
          [
            -66.160106,
            -17.420442
          ],
          [
            -66.160114,
            -17.420485
          ],
          [
            -66.160178,
            -17.420835
          ],
          [
            -66.160249,
            -17.421214
          ],
          [
            -66.160369,
            -17.421753
          ],
          [
            -66.160384,
            -17.421874
          ],
          [
            -66.160262,
            -17.421874
          ],
          [
            -66.159772,
            -17.421865
          ],
          [
            -66.159753,
            -17.422721
          ],
          [
            -66.159725,
            -17.423634
          ],
          [
            -66.15971,
            -17.424555
          ],
          [
            -66.159641,
            -17.425754
          ],
          [
            -66.159636,
            -17.425812
          ],
          [
            -66.158753,
            -17.425782
          ],
          [
            -66.158659,
            -17.425781
          ],
          [
            -66.158089,
            -17.425768
          ],
          [
            -66.158091,
            -17.425964
          ],
          [
            -66.15806,
            -17.426951
          ],
          [
            -66.158044,
            -17.427954
          ],
          [
            -66.157867,
            -17.427897
          ],
          [
            -66.157818,
            -17.427888
          ],
          [
            -66.15777,
            -17.427878
          ],
          [
            -66.157689,
            -17.427868
          ],
          [
            -66.157622,
            -17.427864
          ]
        ]
      }
    }
  ]
}