{
  "type": "FeatureCollection",
  "features": [
    {
      "type": "Feature",
      "properties": {
        "route_id": "9380021",
        "route_short_name": "252",
        "route_long_name": "Trufi 252: Calle Litoral \u2192 Avenida Blanco Galindo"
      },
      "geometry": {
        "type": "LineString",
        "coordinates": [
          [
            -66.141008,
            -17.39984
          ],
          [
            -66.141149,
            -17.399019
          ],
          [
            -66.141164,
            -17.398916
          ],
          [
            -66.140552,
            -17.39883
          ],
          [
            -66.139626,
            -17.398694
          ],
          [
            -66.139656,
            -17.398628
          ],
          [
            -66.139893,
            -17.398115
          ],
          [
            -66.139979,
            -17.397932
          ],
          [
            -66.140708,
            -17.396336
          ],
          [
            -66.140735,
            -17.396276
          ],
          [
            -66.140768,
            -17.396204
          ],
          [
            -66.141454,
            -17.394703
          ],
          [
            -66.141484,
            -17.394639
          ],
          [
            -66.141506,
            -17.39459
          ],
          [
            -66.141766,
            -17.394033
          ],
          [
            -66.141784,
            -17.393917
          ],
          [
            -66.141769,
            -17.393898
          ],
          [
            -66.14176,
            -17.393875
          ],
          [
            -66.141759,
            -17.393851
          ],
          [
            -66.141763,
            -17.393836
          ],
          [
            -66.141769,
            -17.393822
          ],
          [
            -66.141786,
            -17.393802
          ],
          [
            -66.141798,
            -17.393794
          ],
          [
            -66.141811,
            -17.393788
          ],
          [
            -66.141846,
            -17.393754
          ],
          [
            -66.141934,
            -17.393654
          ],
          [
            -66.142324,
            -17.392801
          ],
          [
            -66.142354,
            -17.392734
          ],
          [
            -66.142721,
            -17.391914
          ],
          [
            -66.142745,
            -17.391857
          ],
          [
            -66.142807,
            -17.391868
          ],
          [
            -66.143085,
            -17.391919
          ],
          [
            -66.143648,
            -17.392013
          ],
          [
            -66.14372,
            -17.392026
          ],
          [
            -66.144156,
            -17.392101
          ],
          [
            -66.144263,
            -17.39212
          ],
          [
            -66.144377,
            -17.392139
          ],
          [
            -66.144431,
            -17.392148
          ],
          [
            -66.144575,
            -17.392172
          ],
          [
            -66.14485,
            -17.392218
          ],
          [
            -66.145127,
            -17.392265
          ],
          [
            -66.145347,
            -17.392302
          ],
          [
            -66.145845,
            -17.392385
          ],
          [
            -66.146663,
            -17.392531
          ],
          [
            -66.146834,
            -17.392563
          ],
          [
            -66.146894,
            -17.392573
          ],
          [
            -66.147226,
            -17.392634
          ],
          [
            -66.147313,
            -17.39263
          ],
          [
            -66.147365,
            -17.39262
          ],
          [
            -66.147398,
            -17.392602
          ],
          [
            -66.147418,
            -17.39258
          ],
          [
            -66.14744,
            -17.392525
          ],
          [
            -66.14747,
            -17.392466
          ],
          [
            -66.147533,
            -17.392154
          ],
          [
            -66.147587,
            -17.391875
          ],
          [
            -66.147617,
            -17.391718
          ],
          [
            -66.147612,
            -17.391641
          ],
          [
            -66.14769,
            -17.391283
          ],
          [
            -66.147819,
            -17.390694
          ],
          [
            -66.147833,
            -17.390629
          ],
          [
            -66.147854,
            -17.390541
          ],
          [
            -66.147919,
            -17.390554
          ],
          [
            -66.148849,
            -17.390735
          ],
          [
            -66.148909,
            -17.390746
          ],
          [
            -66.148982,
            -17.39076
          ],
          [
            -66.149858,
            -17.390928
          ],
          [
            -66.149894,
            -17.390934
          ],
          [
            -66.149967,
            -17.390948
          ],
          [
            -66.149981,
            -17.390874
          ],
          [
            -66.150176,
            -17.389914
          ],
          [
            -66.15019,
            -17.389847
          ],
          [
            -66.150207,
            -17.389771
          ],
          [
            -66.150253,
            -17.389682
          ],
          [
            -66.150419,
            -17.38887
          ],
          [
            -66.150432,
            -17.388802
          ],
          [
            -66.150445,
            -17.388739
          ],
          [
            -66.150562,
            -17.388206
          ],
          [
            -66.150656,
            -17.387762
          ],
          [
            -66.15067,
            -17.387699
          ],
          [
            -66.150702,
            -17.387525
          ],
          [
            -66.150731,
            -17.387361
          ],
          [
            -66.150889,
            -17.386601
          ],
          [
            -66.150898,
            -17.386546
          ],
          [
            -66.150909,
            -17.386499
          ],
          [
            -66.151101,
            -17.385603
          ],
          [
            -66.151116,
            -17.385522
          ],
          [
            -66.151174,
            -17.385223
          ],
          [
            -66.151215,
            -17.385229
          ],
          [
            -66.151258,
            -17.385238
          ],
          [
            -66.151379,
            -17.385263
          ],
          [
            -66.151663,
            -17.384906
          ],
          [
            -66.152231,
            -17.384166
          ],
          [
            -66.152616,
            -17.383658
          ],
          [
            -66.152672,
            -17.383585
          ],
          [
            -66.152714,
            -17.383652
          ],
          [
            -66.153053,
            -17.384188
          ],
          [
            -66.153099,
            -17.384251
          ],
          [
            -66.153182,
            -17.384232
          ],
          [
            -66.153277,
            -17.384242
          ],
          [
            -66.153371,
            -17.384286
          ],
          [
            -66.153446,
            -17.384348
          ],
          [
            -66.153507,
            -17.384422
          ],
          [
            -66.153538,
            -17.384483
          ],
          [
            -66.153567,
            -17.384564
          ],
          [
            -66.153583,
            -17.384625
          ],
          [
            -66.153589,
            -17.384672
          ],
          [
            -66.153589,
            -17.384744
          ],
          [
            -66.153564,
            -17.384826
          ],
          [
            -66.153522,
            -17.384869
          ],
          [
            -66.153553,
            -17.38492
          ],
          [
            -66.153929,
            -17.385531
          ],
          [
            -66.153977,
            -17.385604
          ],
          [
            -66.154023,
            -17.385677
          ],
          [
            -66.154562,
            -17.386533
          ],
          [
            -66.154604,
            -17.3866
          ],
          [
            -66.154651,
            -17.386671
          ],
          [
            -66.154972,
            -17.387151
          ],
          [
            -66.155033,
            -17.387205
          ],
          [
            -66.155059,
            -17.38724
          ],
          [
            -66.155084,
            -17.387264
          ],
          [
            -66.155117,
            -17.387276
          ],
          [
            -66.15515,
            -17.387272
          ],
          [
            -66.155189,
            -17.387238
          ],
          [
            -66.155961,
            -17.386158
          ],
          [
            -66.156426,
            -17.386457
          ],
          [
            -66.156503,
            -17.386465
          ],
          [
            -66.156584,
            -17.38648
          ],
          [
            -66.156626,
            -17.386497
          ],
          [
            -66.156722,
            -17.386558
          ],
          [
            -66.156792,
            -17.386601
          ],
          [
            -66.156849,
            -17.386637
          ],
          [
            -66.157592,
            -17.386993
          ],
          [
            -66.157641,
            -17.387005
          ],
          [
            -66.157737,
            -17.387017
          ],
          [
            -66.158638,
            -17.387139
          ],
          [
            -66.158692,
            -17.387146
          ],
          [
            -66.158743,
            -17.387153
          ],
          [
            -66.159828,
            -17.387331
          ],
          [
            -66.159895,
            -17.387344
          ],
          [
            -66.160724,
            -17.387496
          ],
          [
            -66.160854,
            -17.38752
          ],
          [
            -66.16094,
            -17.387536
          ],
          [
            -66.161399,
            -17.387608
          ],
          [
            -66.161956,
            -17.387703
          ],
          [
            -66.162024,
            -17.387715
          ],
          [
            -66.16208,
            -17.387725
          ],
          [
            -66.162766,
            -17.387833
          ],
          [
            -66.162829,
            -17.387845
          ],
          [
            -66.162891,
            -17.387855
          ],
          [
            -66.163743,
            -17.388
          ],
          [
            -66.163796,
            -17.387988
          ],
          [
            -66.163884,
            -17.387961
          ],
          [
            -66.163957,
            -17.387933
          ],
          [
            -66.164175,
            -17.387854
          ],
          [
            -66.164332,
            -17.387795
          ],
          [
            -66.164394,
            -17.387774
          ],
          [
            -66.164877,
            -17.387582
          ],
          [
            -66.165077,
            -17.387474
          ],
          [
            -66.165576,
            -17.387283
          ],
          [
            -66.165672,
            -17.387244
          ],
          [
            -66.165773,
            -17.387183
          ],
          [
            -66.16588,
            -17.387087
          ],
          [
            -66.16594,
            -17.387011
          ],
          [
            -66.166123,
            -17.386783
          ],
          [
            -66.166447,
            -17.386384
          ],
          [
            -66.166545,
            -17.386262
          ],
          [
            -66.166587,
            -17.386208
          ],
          [
            -66.167051,
            -17.385656
          ],
          [
            -66.167583,
            -17.385032
          ],
          [
            -66.168345,
            -17.384139
          ],
          [
            -66.168556,
            -17.383935
          ],
          [
            -66.168695,
            -17.383835
          ],
          [
            -66.168815,
            -17.383763
          ],
          [
            -66.168886,
            -17.383724
          ],
          [
            -66.168976,
            -17.383678
          ],
          [
            -66.169066,
            -17.383641
          ],
          [
            -66.169284,
            -17.383558
          ],
          [
            -66.169358,
            -17.383476
          ],
          [
            -66.169556,
            -17.383361
          ],
          [
            -66.169556,
            -17.38336
          ],
          [
            -66.169557,
            -17.383359
          ],
          [
            -66.169618,
            -17.383339
          ],
          [
            -66.169657,
            -17.383332
          ],
          [
            -66.169699,
            -17.38333
          ],
          [
            -66.169758,
            -17.383332
          ],
          [
            -66.169762,
            -17.383335
          ],
          [
            -66.16981,
            -17.383333
          ],
          [
            -66.169855,
            -17.383331
          ],
          [
            -66.169965,
            -17.383311
          ],
          [
            -66.170526,
            -17.383163
          ],
          [
            -66.170824,
            -17.383081
          ],
          [
            -66.171557,
            -17.382892
          ],
          [
            -66.172788,
            -17.382585
          ],
          [
            -66.174126,
            -17.382243
          ],
          [
            -66.174662,
            -17.382093
          ],
          [
            -66.174745,
            -17.382069
          ],
          [
            -66.174802,
            -17.382056
          ],
          [
            -66.175189,
            -17.381968
          ],
          [
            -66.175394,
            -17.381889
          ],
          [
            -66.175543,
            -17.381846
          ],
          [
            -66.175668,
            -17.381823
          ],
          [
            -66.175684,
            -17.38182
          ],
          [
            -66.175847,
            -17.381801
          ],
          [
            -66.176044,
            -17.381811
          ],
          [
            -66.176198,
            -17.381832
          ],
          [
            -66.176361,
            -17.381864
          ],
          [
            -66.176441,
            -17.381888
          ],
          [
            -66.176558,
            -17.381925
          ],
          [
            -66.17803,
            -17.382357
          ],
          [
            -66.178807,
            -17.382582
          ],
          [
            -66.179471,
            -17.382774
          ],
          [
            -66.180055,
            -17.382935
          ],
          [
            -66.180204,
            -17.38295
          ],
          [
            -66.180451,
            -17.382948
          ],
          [
            -66.180529,
            -17.382949
          ],
          [
            -66.181467,
            -17.382936
          ],
          [
            -66.181503,
            -17.382933
          ],
          [
            -66.181585,
            -17.382914
          ],
          [
            -66.181646,
            -17.382894
          ],
          [
            -66.181685,
            -17.382872
          ],
          [
            -66.18173,
            -17.382862
          ],
          [
            -66.181776,
            -17.382864
          ],
          [
            -66.181819,
            -17.382878
          ],
          [
            -66.181858,
            -17.382907
          ],
          [
            -66.181877,
            -17.382928
          ],
          [
            -66.181892,
            -17.382955
          ],
          [
            -66.181902,
            -17.382992
          ],
          [
            -66.181902,
            -17.38303
          ],
          [
            -66.181912,
            -17.383103
          ],
          [
            -66.181926,
            -17.383204
          ],
          [
            -66.181941,
            -17.383308
          ],
          [
            -66.182006,
            -17.38384
          ],
          [
            -66.182187,
            -17.385116
          ],
          [
            -66.182195,
            -17.385191
          ],
          [
            -66.182343,
            -17.386342
          ],
          [
            -66.18241,
            -17.386875
          ],
          [
            -66.182406,
            -17.3871
          ],
          [
            -66.182405,
            -17.387171
          ],
          [
            -66.182402,
            -17.387323
          ],
          [
            -66.182408,
            -17.387372
          ],
          [
            -66.182411,
            -17.38741
          ],
          [
            -66.18242,
            -17.387525
          ],
          [
            -66.182428,
            -17.387549
          ],
          [
            -66.182526,
            -17.387829
          ],
          [
            -66.18282,
            -17.388687
          ],
          [
            -66.183142,
            -17.389633
          ],
          [
            -66.183297,
            -17.390141
          ],
          [
            -66.183446,
            -17.390596
          ],
          [
            -66.183592,
            -17.391043
          ],
          [
            -66.183707,
            -17.391387
          ],
          [
            -66.184002,
            -17.392201
          ],
          [
            -66.184217,
            -17.392784
          ],
          [
            -66.184273,
            -17.392924
          ],
          [
            -66.184325,
            -17.393051
          ],
          [
            -66.184357,
            -17.393083
          ],
          [
            -66.184412,
            -17.393107
          ],
          [
            -66.184448,
            -17.393131
          ],
          [
            -66.184514,
            -17.393158
          ],
          [
            -66.18458,
            -17.393171
          ],
          [
            -66.184755,
            -17.393166
          ],
          [
            -66.185423,
            -17.393143
          ],
          [
            -66.185764,
            -17.393131
          ],
          [
            -66.186412,
            -17.393171
          ],
          [
            -66.186639,
            -17.393159
          ],
          [
            -66.187412,
            -17.393127
          ],
          [
            -66.188857,
            -17.393063
          ],
          [
            -66.189274,
            -17.393044
          ],
          [
            -66.191125,
            -17.392965
          ],
          [
            -66.192135,
            -17.39292
          ],
          [
            -66.193899,
            -17.392841
          ],
          [
            -66.194723,
            -17.392809
          ],
          [
            -66.19693,
            -17.392708
          ],
          [
            -66.197091,
            -17.392701
          ],
          [
            -66.198926,
            -17.392621
          ],
          [
            -66.199474,
            -17.392591
          ],
          [
            -66.199594,
            -17.392585
          ],
          [
            -66.199678,
            -17.39258
          ],
          [
            -66.199816,
            -17.392573
          ],
          [
            -66.200191,
            -17.392555
          ],
          [
            -66.203618,
            -17.392406
          ],
          [
            -66.205091,
            -17.392353
          ],
          [
            -66.207361,
            -17.39225
          ],
          [
            -66.208005,
            -17.392221
          ],
          [
            -66.208092,
            -17.392218
          ],
          [
            -66.208185,
            -17.392214
          ]
        ]
      }
    }
  ]
}