{
  "type": "FeatureCollection",
  "features": [
    {
      "type": "Feature",
      "properties": {
        "route_id": "11129182",
        "route_short_name": "260",
        "route_long_name": "MiniBus 260: Parotani \u2192 Vinto"
      },
      "geometry": {
        "type": "LineString",
        "coordinates": [
          [
            -66.345642,
            -17.568064
          ],
          [
            -66.345647,
            -17.568023
          ],
          [
            -66.345689,
            -17.567982
          ],
          [
            -66.345718,
            -17.567963
          ],
          [
            -66.345731,
            -17.567889
          ],
          [
            -66.345731,
            -17.567809
          ],
          [
            -66.345654,
            -17.56767
          ],
          [
            -66.345628,
            -17.567423
          ],
          [
            -66.345596,
            -17.567026
          ],
          [
            -66.345601,
            -17.56686
          ],
          [
            -66.345576,
            -17.566592
          ],
          [
            -66.345537,
            -17.56632
          ],
          [
            -66.345491,
            -17.566147
          ],
          [
            -66.345457,
            -17.56606
          ],
          [
            -66.345351,
            -17.565818
          ],
          [
            -66.34486,
            -17.564939
          ],
          [
            -66.344461,
            -17.564076
          ],
          [
            -66.344434,
            -17.563946
          ],
          [
            -66.344404,
            -17.563685
          ],
          [
            -66.344422,
            -17.563372
          ],
          [
            -66.344242,
            -17.563092
          ],
          [
            -66.344031,
            -17.562833
          ],
          [
            -66.34391,
            -17.562638
          ],
          [
            -66.343752,
            -17.562383
          ],
          [
            -66.343575,
            -17.562079
          ],
          [
            -66.34327,
            -17.561367
          ],
          [
            -66.343111,
            -17.56103
          ],
          [
            -66.342815,
            -17.560463
          ],
          [
            -66.342637,
            -17.560085
          ],
          [
            -66.342341,
            -17.55947
          ],
          [
            -66.342045,
            -17.558851
          ],
          [
            -66.341953,
            -17.558647
          ],
          [
            -66.341852,
            -17.558411
          ],
          [
            -66.341789,
            -17.558215
          ],
          [
            -66.341769,
            -17.558002
          ],
          [
            -66.341777,
            -17.557731
          ],
          [
            -66.341792,
            -17.557474
          ],
          [
            -66.341837,
            -17.557223
          ],
          [
            -66.341922,
            -17.556963
          ],
          [
            -66.342051,
            -17.556723
          ],
          [
            -66.342635,
            -17.555858
          ],
          [
            -66.342697,
            -17.555761
          ],
          [
            -66.342757,
            -17.555616
          ],
          [
            -66.3428,
            -17.555539
          ],
          [
            -66.342869,
            -17.555307
          ],
          [
            -66.342913,
            -17.555119
          ],
          [
            -66.342941,
            -17.554826
          ],
          [
            -66.342938,
            -17.55456
          ],
          [
            -66.342865,
            -17.553771
          ],
          [
            -66.342774,
            -17.552989
          ],
          [
            -66.342718,
            -17.552637
          ],
          [
            -66.342641,
            -17.552384
          ],
          [
            -66.342514,
            -17.552103
          ],
          [
            -66.342342,
            -17.551856
          ],
          [
            -66.342171,
            -17.55163
          ],
          [
            -66.341704,
            -17.551099
          ],
          [
            -66.341596,
            -17.550955
          ],
          [
            -66.341426,
            -17.550676
          ],
          [
            -66.34128,
            -17.550323
          ],
          [
            -66.341084,
            -17.549772
          ],
          [
            -66.340891,
            -17.549271
          ],
          [
            -66.340784,
            -17.548999
          ],
          [
            -66.340735,
            -17.548789
          ],
          [
            -66.34071,
            -17.548517
          ],
          [
            -66.340711,
            -17.548332
          ],
          [
            -66.340744,
            -17.548133
          ],
          [
            -66.340885,
            -17.547521
          ],
          [
            -66.340931,
            -17.547284
          ],
          [
            -66.340946,
            -17.546974
          ],
          [
            -66.340921,
            -17.546781
          ],
          [
            -66.340885,
            -17.546634
          ],
          [
            -66.340803,
            -17.546441
          ],
          [
            -66.340657,
            -17.546201
          ],
          [
            -66.340473,
            -17.546005
          ],
          [
            -66.340273,
            -17.545837
          ],
          [
            -66.337948,
            -17.544202
          ],
          [
            -66.337149,
            -17.543584
          ],
          [
            -66.336901,
            -17.543376
          ],
          [
            -66.33674,
            -17.543192
          ],
          [
            -66.336611,
            -17.543002
          ],
          [
            -66.336554,
            -17.542874
          ],
          [
            -66.336516,
            -17.542746
          ],
          [
            -66.336482,
            -17.542588
          ],
          [
            -66.336466,
            -17.542435
          ],
          [
            -66.336458,
            -17.542295
          ],
          [
            -66.336451,
            -17.542029
          ],
          [
            -66.336401,
            -17.54121
          ],
          [
            -66.336362,
            -17.540838
          ],
          [
            -66.336325,
            -17.540646
          ],
          [
            -66.336287,
            -17.540503
          ],
          [
            -66.336201,
            -17.540313
          ],
          [
            -66.336071,
            -17.540111
          ],
          [
            -66.335741,
            -17.539531
          ],
          [
            -66.335565,
            -17.539129
          ],
          [
            -66.335522,
            -17.538825
          ],
          [
            -66.335551,
            -17.538312
          ],
          [
            -66.336018,
            -17.536853
          ],
          [
            -66.336037,
            -17.53652
          ],
          [
            -66.336014,
            -17.536188
          ],
          [
            -66.335829,
            -17.5357
          ],
          [
            -66.335471,
            -17.534996
          ],
          [
            -66.335113,
            -17.534368
          ],
          [
            -66.334902,
            -17.533678
          ],
          [
            -66.334888,
            -17.533228
          ],
          [
            -66.334966,
            -17.532764
          ],
          [
            -66.335754,
            -17.531468
          ],
          [
            -66.335947,
            -17.531052
          ],
          [
            -66.336044,
            -17.530565
          ],
          [
            -66.336014,
            -17.530253
          ],
          [
            -66.335728,
            -17.528676
          ],
          [
            -66.33562,
            -17.526552
          ],
          [
            -66.335548,
            -17.52615
          ],
          [
            -66.335484,
            -17.525917
          ],
          [
            -66.335335,
            -17.525535
          ],
          [
            -66.33512,
            -17.525115
          ],
          [
            -66.334914,
            -17.524747
          ],
          [
            -66.334064,
            -17.523442
          ],
          [
            -66.333739,
            -17.522879
          ],
          [
            -66.333412,
            -17.522467
          ],
          [
            -66.333062,
            -17.522029
          ],
          [
            -66.332893,
            -17.521821
          ],
          [
            -66.332719,
            -17.521514
          ],
          [
            -66.332625,
            -17.521231
          ],
          [
            -66.332579,
            -17.521014
          ],
          [
            -66.332561,
            -17.520878
          ],
          [
            -66.332565,
            -17.520665
          ],
          [
            -66.332602,
            -17.520386
          ],
          [
            -66.332668,
            -17.520151
          ],
          [
            -66.332928,
            -17.519209
          ],
          [
            -66.332979,
            -17.518927
          ],
          [
            -66.333031,
            -17.518605
          ],
          [
            -66.333041,
            -17.518397
          ],
          [
            -66.333037,
            -17.518194
          ],
          [
            -66.332934,
            -17.517199
          ],
          [
            -66.33292,
            -17.516953
          ],
          [
            -66.332917,
            -17.516794
          ],
          [
            -66.332921,
            -17.516681
          ],
          [
            -66.332945,
            -17.516439
          ],
          [
            -66.333003,
            -17.516146
          ],
          [
            -66.333347,
            -17.514936
          ],
          [
            -66.333465,
            -17.5146
          ],
          [
            -66.333527,
            -17.514468
          ],
          [
            -66.333598,
            -17.514357
          ],
          [
            -66.333702,
            -17.514212
          ],
          [
            -66.333864,
            -17.514044
          ],
          [
            -66.334381,
            -17.51358
          ],
          [
            -66.334619,
            -17.513337
          ],
          [
            -66.334817,
            -17.512964
          ],
          [
            -66.334917,
            -17.512646
          ],
          [
            -66.335135,
            -17.511042
          ],
          [
            -66.335112,
            -17.510607
          ],
          [
            -66.335088,
            -17.510058
          ],
          [
            -66.334983,
            -17.509695
          ],
          [
            -66.334705,
            -17.50873
          ],
          [
            -66.3344,
            -17.507696
          ],
          [
            -66.33388,
            -17.506406
          ],
          [
            -66.33312,
            -17.504801
          ],
          [
            -66.333076,
            -17.504432
          ],
          [
            -66.333096,
            -17.504219
          ],
          [
            -66.333198,
            -17.503902
          ],
          [
            -66.333433,
            -17.503515
          ],
          [
            -66.333646,
            -17.503213
          ],
          [
            -66.333781,
            -17.502952
          ],
          [
            -66.333854,
            -17.502711
          ],
          [
            -66.333883,
            -17.502569
          ],
          [
            -66.333902,
            -17.502283
          ],
          [
            -66.333889,
            -17.501961
          ],
          [
            -66.333693,
            -17.500045
          ],
          [
            -66.333688,
            -17.4996
          ],
          [
            -66.333708,
            -17.499332
          ],
          [
            -66.333761,
            -17.498993
          ],
          [
            -66.333841,
            -17.498694
          ],
          [
            -66.333977,
            -17.498362
          ],
          [
            -66.334127,
            -17.498003
          ],
          [
            -66.3344,
            -17.497382
          ],
          [
            -66.334587,
            -17.497066
          ],
          [
            -66.335162,
            -17.496308
          ],
          [
            -66.335214,
            -17.496243
          ],
          [
            -66.335363,
            -17.495987
          ],
          [
            -66.335762,
            -17.494983
          ],
          [
            -66.335949,
            -17.49455
          ],
          [
            -66.336268,
            -17.494052
          ],
          [
            -66.336514,
            -17.493747
          ],
          [
            -66.338245,
            -17.491884
          ],
          [
            -66.338527,
            -17.491434
          ],
          [
            -66.338705,
            -17.490999
          ],
          [
            -66.3388,
            -17.490636
          ],
          [
            -66.338822,
            -17.490365
          ],
          [
            -66.338839,
            -17.490153
          ],
          [
            -66.338804,
            -17.48976
          ],
          [
            -66.338711,
            -17.489272
          ],
          [
            -66.338602,
            -17.488764
          ],
          [
            -66.338257,
            -17.487146
          ],
          [
            -66.338139,
            -17.486629
          ],
          [
            -66.338008,
            -17.486276
          ],
          [
            -66.337775,
            -17.485746
          ],
          [
            -66.337612,
            -17.485361
          ],
          [
            -66.337533,
            -17.485079
          ],
          [
            -66.337508,
            -17.48471
          ],
          [
            -66.337481,
            -17.484038
          ],
          [
            -66.337433,
            -17.483466
          ],
          [
            -66.337394,
            -17.482712
          ],
          [
            -66.337415,
            -17.482235
          ],
          [
            -66.337464,
            -17.48203
          ],
          [
            -66.33751,
            -17.481855
          ],
          [
            -66.337571,
            -17.481714
          ],
          [
            -66.337631,
            -17.481591
          ],
          [
            -66.337787,
            -17.481387
          ],
          [
            -66.337978,
            -17.48117
          ],
          [
            -66.338314,
            -17.480882
          ],
          [
            -66.33888,
            -17.480524
          ],
          [
            -66.339187,
            -17.48026
          ],
          [
            -66.339317,
            -17.480122
          ],
          [
            -66.339415,
            -17.479962
          ],
          [
            -66.339532,
            -17.479694
          ],
          [
            -66.339601,
            -17.479407
          ],
          [
            -66.339636,
            -17.479098
          ],
          [
            -66.33971,
            -17.47837
          ],
          [
            -66.339731,
            -17.477526
          ],
          [
            -66.339682,
            -17.477012
          ],
          [
            -66.339638,
            -17.47647
          ],
          [
            -66.339482,
            -17.475307
          ],
          [
            -66.339414,
            -17.474738
          ],
          [
            -66.339284,
            -17.473854
          ],
          [
            -66.339186,
            -17.473157
          ],
          [
            -66.33914,
            -17.472822
          ],
          [
            -66.3391,
            -17.472563
          ],
          [
            -66.339081,
            -17.472374
          ],
          [
            -66.338962,
            -17.471913
          ],
          [
            -66.338907,
            -17.471587
          ],
          [
            -66.338897,
            -17.471538
          ],
          [
            -66.338892,
            -17.471497
          ],
          [
            -66.338867,
            -17.471293
          ],
          [
            -66.338827,
            -17.470943
          ],
          [
            -66.338764,
            -17.470402
          ],
          [
            -66.338746,
            -17.470237
          ],
          [
            -66.33871,
            -17.469962
          ],
          [
            -66.338636,
            -17.469385
          ],
          [
            -66.338574,
            -17.468943
          ],
          [
            -66.338556,
            -17.468677
          ],
          [
            -66.338552,
            -17.468617
          ],
          [
            -66.338549,
            -17.46856
          ],
          [
            -66.338542,
            -17.468513
          ],
          [
            -66.338529,
            -17.468468
          ],
          [
            -66.338521,
            -17.468419
          ],
          [
            -66.338524,
            -17.468341
          ],
          [
            -66.338543,
            -17.468287
          ],
          [
            -66.338548,
            -17.468132
          ],
          [
            -66.338638,
            -17.467577
          ],
          [
            -66.338645,
            -17.467515
          ],
          [
            -66.338698,
            -17.466927
          ],
          [
            -66.338786,
            -17.465462
          ],
          [
            -66.338785,
            -17.46499
          ],
          [
            -66.338753,
            -17.464558
          ],
          [
            -66.338717,
            -17.464217
          ],
          [
            -66.338638,
            -17.463663
          ],
          [
            -66.338636,
            -17.463647
          ],
          [
            -66.33853,
            -17.462966
          ],
          [
            -66.338453,
            -17.462124
          ],
          [
            -66.338414,
            -17.461551
          ],
          [
            -66.338362,
            -17.460576
          ],
          [
            -66.33833,
            -17.460058
          ],
          [
            -66.33832,
            -17.459774
          ],
          [
            -66.338316,
            -17.459492
          ],
          [
            -66.33832,
            -17.459177
          ],
          [
            -66.338333,
            -17.458893
          ],
          [
            -66.338369,
            -17.458454
          ],
          [
            -66.33848,
            -17.457265
          ],
          [
            -66.338699,
            -17.455157
          ],
          [
            -66.338824,
            -17.45388
          ],
          [
            -66.338852,
            -17.453594
          ],
          [
            -66.338939,
            -17.452773
          ],
          [
            -66.339035,
            -17.451813
          ],
          [
            -66.339148,
            -17.450643
          ],
          [
            -66.339239,
            -17.449653
          ],
          [
            -66.339271,
            -17.449003
          ],
          [
            -66.339257,
            -17.448517
          ],
          [
            -66.339213,
            -17.447924
          ],
          [
            -66.339139,
            -17.447464
          ],
          [
            -66.339083,
            -17.447176
          ],
          [
            -66.339004,
            -17.446856
          ],
          [
            -66.338898,
            -17.446486
          ],
          [
            -66.33884,
            -17.44631
          ],
          [
            -66.338661,
            -17.445812
          ],
          [
            -66.338005,
            -17.444205
          ],
          [
            -66.33767,
            -17.443385
          ],
          [
            -66.337643,
            -17.443309
          ],
          [
            -66.33757,
            -17.443123
          ],
          [
            -66.337441,
            -17.442821
          ],
          [
            -66.33742,
            -17.442769
          ],
          [
            -66.337356,
            -17.442611
          ],
          [
            -66.337291,
            -17.442448
          ],
          [
            -66.337101,
            -17.441979
          ],
          [
            -66.336107,
            -17.43957
          ],
          [
            -66.335801,
            -17.438826
          ],
          [
            -66.335582,
            -17.438293
          ],
          [
            -66.335549,
            -17.438215
          ],
          [
            -66.334845,
            -17.436442
          ],
          [
            -66.334622,
            -17.435832
          ],
          [
            -66.33459,
            -17.435749
          ],
          [
            -66.334157,
            -17.434669
          ],
          [
            -66.33322,
            -17.43239
          ],
          [
            -66.333036,
            -17.431916
          ],
          [
            -66.332549,
            -17.43072
          ],
          [
            -66.331994,
            -17.429532
          ],
          [
            -66.331637,
            -17.428661
          ],
          [
            -66.331462,
            -17.428135
          ],
          [
            -66.331397,
            -17.427844
          ],
          [
            -66.331352,
            -17.427562
          ],
          [
            -66.331322,
            -17.42718
          ],
          [
            -66.331318,
            -17.426878
          ],
          [
            -66.33133,
            -17.426577
          ],
          [
            -66.33135,
            -17.426329
          ],
          [
            -66.33149,
            -17.425591
          ],
          [
            -66.332022,
            -17.42256
          ],
          [
            -66.332433,
            -17.420222
          ],
          [
            -66.332496,
            -17.41988
          ],
          [
            -66.332533,
            -17.419687
          ],
          [
            -66.332604,
            -17.419304
          ],
          [
            -66.332643,
            -17.419083
          ],
          [
            -66.332703,
            -17.418754
          ],
          [
            -66.332932,
            -17.417424
          ],
          [
            -66.332935,
            -17.417407
          ],
          [
            -66.33306,
            -17.416682
          ],
          [
            -66.333133,
            -17.416245
          ],
          [
            -66.333235,
            -17.415703
          ],
          [
            -66.33331,
            -17.415291
          ],
          [
            -66.333395,
            -17.41461
          ],
          [
            -66.333418,
            -17.414074
          ],
          [
            -66.333411,
            -17.413558
          ],
          [
            -66.333373,
            -17.413176
          ],
          [
            -66.33331,
            -17.41273
          ],
          [
            -66.333236,
            -17.412341
          ],
          [
            -66.333165,
            -17.412043
          ],
          [
            -66.333084,
            -17.411743
          ],
          [
            -66.332929,
            -17.411292
          ],
          [
            -66.332793,
            -17.410951
          ],
          [
            -66.332045,
            -17.409328
          ],
          [
            -66.331838,
            -17.408873
          ],
          [
            -66.331661,
            -17.408486
          ],
          [
            -66.331492,
            -17.408116
          ],
          [
            -66.331369,
            -17.407848
          ],
          [
            -66.331304,
            -17.407705
          ],
          [
            -66.331129,
            -17.407327
          ],
          [
            -66.330863,
            -17.406752
          ],
          [
            -66.330789,
            -17.406588
          ],
          [
            -66.329695,
            -17.404194
          ],
          [
            -66.329634,
            -17.404056
          ],
          [
            -66.329437,
            -17.4036
          ],
          [
            -66.329348,
            -17.403401
          ],
          [
            -66.329259,
            -17.403202
          ],
          [
            -66.328429,
            -17.401462
          ],
          [
            -66.328216,
            -17.401072
          ],
          [
            -66.327959,
            -17.400665
          ],
          [
            -66.32768,
            -17.400306
          ],
          [
            -66.327239,
            -17.399793
          ],
          [
            -66.327096,
            -17.399627
          ],
          [
            -66.326716,
            -17.399259
          ],
          [
            -66.326513,
            -17.399092
          ],
          [
            -66.326133,
            -17.398779
          ],
          [
            -66.32579,
            -17.398535
          ],
          [
            -66.325644,
            -17.398431
          ],
          [
            -66.325466,
            -17.39831
          ],
          [
            -66.325328,
            -17.398221
          ],
          [
            -66.324892,
            -17.397938
          ],
          [
            -66.32485,
            -17.397911
          ],
          [
            -66.3242,
            -17.39752
          ],
          [
            -66.324007,
            -17.397412
          ],
          [
            -66.323927,
            -17.397371
          ],
          [
            -66.323427,
            -17.397115
          ],
          [
            -66.322922,
            -17.396905
          ],
          [
            -66.322657,
            -17.396815
          ],
          [
            -66.322306,
            -17.396695
          ],
          [
            -66.321924,
            -17.3966
          ],
          [
            -66.321712,
            -17.396546
          ],
          [
            -66.320946,
            -17.396401
          ],
          [
            -66.320521,
            -17.39634
          ],
          [
            -66.320129,
            -17.396307
          ],
          [
            -66.319376,
            -17.396266
          ],
          [
            -66.318374,
            -17.396212
          ],
          [
            -66.317842,
            -17.396198
          ],
          [
            -66.317196,
            -17.396219
          ],
          [
            -66.316996,
            -17.396205
          ],
          [
            -66.316844,
            -17.396198
          ],
          [
            -66.316403,
            -17.396163
          ],
          [
            -66.316267,
            -17.396156
          ],
          [
            -66.316254,
            -17.396155
          ],
          [
            -66.316269,
            -17.395971
          ],
          [
            -66.316273,
            -17.395928
          ],
          [
            -66.316361,
            -17.395799
          ]
        ]
      }
    }
  ]
}