{
  "type": "FeatureCollection",
  "features": [
    {
      "type": "Feature",
      "properties": {
        "route_id": "10786946",
        "route_short_name": "3",
        "route_long_name": "MiniBus 3: Francis Peyton Rous \u2192 Aeropuerto \u2192 Valeriana"
      },
      "geometry": {
        "type": "LineString",
        "coordinates": [
          [
            -66.214217,
            -17.397208
          ],
          [
            -66.213247,
            -17.39723
          ],
          [
            -66.212309,
            -17.397246
          ],
          [
            -66.211591,
            -17.397236
          ],
          [
            -66.210348,
            -17.397213
          ],
          [
            -66.209695,
            -17.397197
          ],
          [
            -66.208736,
            -17.397179
          ],
          [
            -66.208477,
            -17.397175
          ],
          [
            -66.208358,
            -17.397172
          ],
          [
            -66.208316,
            -17.397172
          ],
          [
            -66.208124,
            -17.397168
          ],
          [
            -66.207133,
            -17.39715
          ],
          [
            -66.206822,
            -17.39715
          ],
          [
            -66.206373,
            -17.397149
          ],
          [
            -66.205776,
            -17.397138
          ],
          [
            -66.205593,
            -17.397135
          ],
          [
            -66.205052,
            -17.397121
          ],
          [
            -66.204921,
            -17.397126
          ],
          [
            -66.204694,
            -17.397134
          ],
          [
            -66.203345,
            -17.397182
          ],
          [
            -66.20275,
            -17.397221
          ],
          [
            -66.201855,
            -17.397292
          ],
          [
            -66.201598,
            -17.397312
          ],
          [
            -66.201135,
            -17.397341
          ],
          [
            -66.200153,
            -17.397307
          ],
          [
            -66.199991,
            -17.3973
          ],
          [
            -66.199906,
            -17.397293
          ],
          [
            -66.199169,
            -17.397267
          ],
          [
            -66.199071,
            -17.397265
          ],
          [
            -66.198063,
            -17.397219
          ],
          [
            -66.197896,
            -17.397211
          ],
          [
            -66.197924,
            -17.397328
          ],
          [
            -66.1981,
            -17.398649
          ],
          [
            -66.19807,
            -17.398652
          ],
          [
            -66.19804,
            -17.398656
          ],
          [
            -66.198006,
            -17.398659
          ],
          [
            -66.195712,
            -17.398851
          ],
          [
            -66.195194,
            -17.398875
          ],
          [
            -66.194563,
            -17.398929
          ],
          [
            -66.194495,
            -17.39876
          ],
          [
            -66.19408,
            -17.398779
          ],
          [
            -66.193766,
            -17.39879
          ],
          [
            -66.193563,
            -17.398796
          ],
          [
            -66.193398,
            -17.398794
          ],
          [
            -66.193171,
            -17.398806
          ],
          [
            -66.192837,
            -17.398821
          ],
          [
            -66.192137,
            -17.398735
          ],
          [
            -66.191537,
            -17.398678
          ],
          [
            -66.19126,
            -17.397871
          ],
          [
            -66.191165,
            -17.397623
          ],
          [
            -66.191121,
            -17.397559
          ],
          [
            -66.191046,
            -17.397526
          ],
          [
            -66.190304,
            -17.39751
          ],
          [
            -66.18959,
            -17.397536
          ],
          [
            -66.189382,
            -17.397548
          ],
          [
            -66.188532,
            -17.397593
          ],
          [
            -66.188746,
            -17.398122
          ],
          [
            -66.188838,
            -17.398292
          ],
          [
            -66.189087,
            -17.398824
          ],
          [
            -66.189149,
            -17.398968
          ],
          [
            -66.188327,
            -17.399041
          ],
          [
            -66.187502,
            -17.39911
          ],
          [
            -66.186549,
            -17.3992
          ],
          [
            -66.186437,
            -17.39925
          ],
          [
            -66.186343,
            -17.399299
          ],
          [
            -66.186269,
            -17.399344
          ],
          [
            -66.186227,
            -17.399367
          ],
          [
            -66.18618,
            -17.399378
          ],
          [
            -66.186131,
            -17.399374
          ],
          [
            -66.186086,
            -17.399358
          ],
          [
            -66.186048,
            -17.399329
          ],
          [
            -66.186019,
            -17.399288
          ],
          [
            -66.186004,
            -17.399241
          ],
          [
            -66.186006,
            -17.399191
          ],
          [
            -66.185996,
            -17.399161
          ],
          [
            -66.185943,
            -17.399006
          ],
          [
            -66.185666,
            -17.398186
          ],
          [
            -66.185481,
            -17.397619
          ],
          [
            -66.184331,
            -17.397619
          ],
          [
            -66.18414,
            -17.396945
          ],
          [
            -66.183441,
            -17.396941
          ],
          [
            -66.181849,
            -17.396948
          ],
          [
            -66.182035,
            -17.397594
          ],
          [
            -66.182055,
            -17.397661
          ],
          [
            -66.182074,
            -17.397733
          ],
          [
            -66.182225,
            -17.398297
          ],
          [
            -66.182511,
            -17.399372
          ],
          [
            -66.182552,
            -17.399523
          ],
          [
            -66.182577,
            -17.399611
          ],
          [
            -66.182682,
            -17.399978
          ],
          [
            -66.182773,
            -17.400299
          ],
          [
            -66.182837,
            -17.400538
          ],
          [
            -66.182877,
            -17.400691
          ],
          [
            -66.182898,
            -17.400753
          ],
          [
            -66.182908,
            -17.400796
          ],
          [
            -66.182941,
            -17.400894
          ],
          [
            -66.182971,
            -17.40095
          ],
          [
            -66.182999,
            -17.400997
          ],
          [
            -66.183026,
            -17.401036
          ],
          [
            -66.183038,
            -17.401054
          ],
          [
            -66.183067,
            -17.401092
          ],
          [
            -66.183083,
            -17.401137
          ],
          [
            -66.183084,
            -17.401184
          ],
          [
            -66.18307,
            -17.401229
          ],
          [
            -66.183043,
            -17.401269
          ],
          [
            -66.183004,
            -17.401298
          ],
          [
            -66.182958,
            -17.401315
          ],
          [
            -66.18286,
            -17.401371
          ],
          [
            -66.182837,
            -17.401384
          ],
          [
            -66.182781,
            -17.401421
          ],
          [
            -66.182711,
            -17.401482
          ],
          [
            -66.182656,
            -17.401535
          ],
          [
            -66.182121,
            -17.402234
          ],
          [
            -66.181465,
            -17.403092
          ],
          [
            -66.180817,
            -17.403906
          ],
          [
            -66.180632,
            -17.404129
          ],
          [
            -66.180512,
            -17.404251
          ],
          [
            -66.18023,
            -17.404509
          ],
          [
            -66.179972,
            -17.404726
          ],
          [
            -66.179789,
            -17.404861
          ],
          [
            -66.179701,
            -17.404914
          ],
          [
            -66.179285,
            -17.405157
          ],
          [
            -66.178122,
            -17.405754
          ],
          [
            -66.177626,
            -17.406005
          ],
          [
            -66.177329,
            -17.406175
          ],
          [
            -66.177058,
            -17.406365
          ],
          [
            -66.176646,
            -17.406681
          ],
          [
            -66.176554,
            -17.406754
          ],
          [
            -66.176215,
            -17.407046
          ],
          [
            -66.176112,
            -17.407153
          ],
          [
            -66.1761,
            -17.407176
          ],
          [
            -66.175692,
            -17.407688
          ],
          [
            -66.175089,
            -17.408482
          ],
          [
            -66.174863,
            -17.408787
          ],
          [
            -66.174773,
            -17.408907
          ],
          [
            -66.174706,
            -17.408975
          ],
          [
            -66.174605,
            -17.409063
          ],
          [
            -66.174538,
            -17.409129
          ],
          [
            -66.17421,
            -17.409481
          ],
          [
            -66.174158,
            -17.409531
          ],
          [
            -66.174099,
            -17.409619
          ],
          [
            -66.174066,
            -17.409677
          ],
          [
            -66.174006,
            -17.409748
          ],
          [
            -66.173912,
            -17.409862
          ],
          [
            -66.173875,
            -17.409898
          ],
          [
            -66.173808,
            -17.409939
          ],
          [
            -66.173687,
            -17.410005
          ],
          [
            -66.173569,
            -17.410047
          ],
          [
            -66.173317,
            -17.410109
          ],
          [
            -66.173116,
            -17.410123
          ],
          [
            -66.173017,
            -17.410133
          ],
          [
            -66.172731,
            -17.41014
          ],
          [
            -66.171822,
            -17.410142
          ],
          [
            -66.171219,
            -17.410144
          ],
          [
            -66.171138,
            -17.410154
          ],
          [
            -66.170922,
            -17.410212
          ],
          [
            -66.1709,
            -17.410221
          ],
          [
            -66.170877,
            -17.410223
          ],
          [
            -66.170853,
            -17.410218
          ],
          [
            -66.170831,
            -17.410206
          ],
          [
            -66.170815,
            -17.410187
          ],
          [
            -66.170807,
            -17.410163
          ],
          [
            -66.170807,
            -17.410139
          ],
          [
            -66.170801,
            -17.4101
          ],
          [
            -66.170795,
            -17.410013
          ],
          [
            -66.170787,
            -17.409949
          ],
          [
            -66.170558,
            -17.409136
          ],
          [
            -66.17054,
            -17.409057
          ],
          [
            -66.17035,
            -17.408321
          ],
          [
            -66.17034,
            -17.408297
          ],
          [
            -66.170316,
            -17.408273
          ],
          [
            -66.17026,
            -17.408234
          ],
          [
            -66.170073,
            -17.408305
          ],
          [
            -66.168889,
            -17.408722
          ],
          [
            -66.168592,
            -17.40883
          ],
          [
            -66.168376,
            -17.408915
          ],
          [
            -66.168302,
            -17.408942
          ],
          [
            -66.168269,
            -17.408869
          ],
          [
            -66.167832,
            -17.407977
          ],
          [
            -66.167625,
            -17.408081
          ],
          [
            -66.167547,
            -17.408063
          ],
          [
            -66.1675,
            -17.408039
          ],
          [
            -66.167488,
            -17.408033
          ],
          [
            -66.167471,
            -17.408002
          ],
          [
            -66.167459,
            -17.407982
          ],
          [
            -66.16744,
            -17.407914
          ],
          [
            -66.167423,
            -17.407791
          ],
          [
            -66.167597,
            -17.407712
          ],
          [
            -66.167678,
            -17.407672
          ],
          [
            -66.167324,
            -17.406948
          ],
          [
            -66.166981,
            -17.406008
          ],
          [
            -66.166954,
            -17.405862
          ],
          [
            -66.166807,
            -17.405116
          ],
          [
            -66.166746,
            -17.404459
          ],
          [
            -66.166715,
            -17.403816
          ],
          [
            -66.166683,
            -17.403236
          ],
          [
            -66.166674,
            -17.403083
          ],
          [
            -66.166655,
            -17.402763
          ],
          [
            -66.16664,
            -17.40252
          ],
          [
            -66.166638,
            -17.402458
          ],
          [
            -66.166634,
            -17.402401
          ],
          [
            -66.166589,
            -17.401549
          ],
          [
            -66.16652,
            -17.400389
          ],
          [
            -66.166516,
            -17.400335
          ],
          [
            -66.166493,
            -17.399802
          ],
          [
            -66.166489,
            -17.39972
          ],
          [
            -66.166483,
            -17.399597
          ],
          [
            -66.16647,
            -17.399425
          ],
          [
            -66.166405,
            -17.398584
          ],
          [
            -66.166369,
            -17.398077
          ],
          [
            -66.166356,
            -17.398013
          ],
          [
            -66.16633,
            -17.397932
          ],
          [
            -66.166301,
            -17.397873
          ],
          [
            -66.166261,
            -17.397814
          ],
          [
            -66.166199,
            -17.39773
          ],
          [
            -66.165677,
            -17.396998
          ],
          [
            -66.165618,
            -17.396926
          ],
          [
            -66.165578,
            -17.396878
          ],
          [
            -66.165555,
            -17.396861
          ],
          [
            -66.165543,
            -17.396847
          ],
          [
            -66.165503,
            -17.396834
          ],
          [
            -66.165461,
            -17.396828
          ],
          [
            -66.165402,
            -17.396832
          ],
          [
            -66.165041,
            -17.396938
          ],
          [
            -66.164656,
            -17.397105
          ],
          [
            -66.164536,
            -17.397152
          ],
          [
            -66.164339,
            -17.397229
          ],
          [
            -66.163056,
            -17.397304
          ],
          [
            -66.163016,
            -17.397317
          ],
          [
            -66.162979,
            -17.397337
          ],
          [
            -66.162877,
            -17.397418
          ],
          [
            -66.16286,
            -17.39746
          ],
          [
            -66.162816,
            -17.397506
          ],
          [
            -66.162777,
            -17.397522
          ],
          [
            -66.162717,
            -17.397532
          ],
          [
            -66.162606,
            -17.397508
          ],
          [
            -66.162272,
            -17.397446
          ],
          [
            -66.162122,
            -17.397418
          ],
          [
            -66.161432,
            -17.397301
          ],
          [
            -66.160232,
            -17.397084
          ],
          [
            -66.159147,
            -17.396898
          ],
          [
            -66.158183,
            -17.396723
          ],
          [
            -66.15813,
            -17.396715
          ],
          [
            -66.158039,
            -17.396701
          ],
          [
            -66.157998,
            -17.396694
          ],
          [
            -66.156972,
            -17.396526
          ],
          [
            -66.156627,
            -17.396464
          ],
          [
            -66.156456,
            -17.396435
          ],
          [
            -66.155882,
            -17.39633
          ],
          [
            -66.154794,
            -17.396134
          ],
          [
            -66.15467,
            -17.396758
          ],
          [
            -66.15458,
            -17.397192
          ],
          [
            -66.154382,
            -17.398223
          ],
          [
            -66.154227,
            -17.399006
          ],
          [
            -66.154206,
            -17.399084
          ],
          [
            -66.154045,
            -17.399999
          ],
          [
            -66.15393,
            -17.400709
          ],
          [
            -66.153977,
            -17.401365
          ],
          [
            -66.15364,
            -17.401374
          ],
          [
            -66.153295,
            -17.401383
          ],
          [
            -66.15325,
            -17.400725
          ],
          [
            -66.153227,
            -17.399898
          ],
          [
            -66.153197,
            -17.399102
          ],
          [
            -66.153192,
            -17.398998
          ],
          [
            -66.153184,
            -17.398846
          ],
          [
            -66.153188,
            -17.398769
          ],
          [
            -66.153253,
            -17.398424
          ],
          [
            -66.153322,
            -17.398064
          ],
          [
            -66.153532,
            -17.397006
          ],
          [
            -66.153732,
            -17.395947
          ],
          [
            -66.153922,
            -17.394892
          ],
          [
            -66.154001,
            -17.394466
          ],
          [
            -66.154011,
            -17.394412
          ],
          [
            -66.154112,
            -17.393861
          ],
          [
            -66.153358,
            -17.393728
          ],
          [
            -66.153,
            -17.393664
          ],
          [
            -66.152228,
            -17.393524
          ],
          [
            -66.151906,
            -17.393465
          ],
          [
            -66.150832,
            -17.393279
          ],
          [
            -66.150181,
            -17.393163
          ],
          [
            -66.149622,
            -17.393063
          ],
          [
            -66.149597,
            -17.393059
          ],
          [
            -66.149557,
            -17.393052
          ],
          [
            -66.14957,
            -17.392986
          ],
          [
            -66.149753,
            -17.392078
          ],
          [
            -66.149763,
            -17.392027
          ],
          [
            -66.149774,
            -17.391967
          ],
          [
            -66.149858,
            -17.391506
          ],
          [
            -66.149937,
            -17.391102
          ],
          [
            -66.149952,
            -17.391033
          ],
          [
            -66.149959,
            -17.390989
          ],
          [
            -66.149967,
            -17.390948
          ],
          [
            -66.149981,
            -17.390874
          ],
          [
            -66.150176,
            -17.389914
          ],
          [
            -66.15019,
            -17.389847
          ],
          [
            -66.150207,
            -17.389771
          ],
          [
            -66.150253,
            -17.389682
          ],
          [
            -66.150419,
            -17.38887
          ],
          [
            -66.150432,
            -17.388802
          ],
          [
            -66.150445,
            -17.388739
          ],
          [
            -66.150562,
            -17.388206
          ],
          [
            -66.150656,
            -17.387762
          ],
          [
            -66.15067,
            -17.387699
          ],
          [
            -66.150702,
            -17.387525
          ],
          [
            -66.150731,
            -17.387361
          ],
          [
            -66.150889,
            -17.386601
          ],
          [
            -66.150898,
            -17.386546
          ],
          [
            -66.150909,
            -17.386499
          ],
          [
            -66.151101,
            -17.385603
          ],
          [
            -66.151116,
            -17.385522
          ],
          [
            -66.151174,
            -17.385223
          ],
          [
            -66.151186,
            -17.385158
          ],
          [
            -66.151199,
            -17.385048
          ],
          [
            -66.151218,
            -17.384914
          ],
          [
            -66.151285,
            -17.38454
          ],
          [
            -66.151401,
            -17.38402
          ],
          [
            -66.151409,
            -17.383994
          ],
          [
            -66.151422,
            -17.383932
          ],
          [
            -66.151437,
            -17.383856
          ],
          [
            -66.15162,
            -17.382975
          ],
          [
            -66.15164,
            -17.382875
          ],
          [
            -66.151659,
            -17.382745
          ],
          [
            -66.151563,
            -17.382723
          ],
          [
            -66.151471,
            -17.382674
          ],
          [
            -66.151387,
            -17.382619
          ],
          [
            -66.151301,
            -17.382543
          ],
          [
            -66.151259,
            -17.382496
          ],
          [
            -66.151231,
            -17.382448
          ],
          [
            -66.151205,
            -17.382372
          ],
          [
            -66.151182,
            -17.382259
          ],
          [
            -66.151177,
            -17.382144
          ],
          [
            -66.151188,
            -17.382059
          ],
          [
            -66.15121,
            -17.381992
          ],
          [
            -66.151225,
            -17.381956
          ],
          [
            -66.151271,
            -17.381872
          ],
          [
            -66.151354,
            -17.381774
          ],
          [
            -66.151417,
            -17.38173
          ],
          [
            -66.151487,
            -17.381692
          ],
          [
            -66.151599,
            -17.381651
          ],
          [
            -66.151707,
            -17.381638
          ],
          [
            -66.15174,
            -17.381625
          ],
          [
            -66.151778,
            -17.38159
          ],
          [
            -66.151794,
            -17.381555
          ],
          [
            -66.151805,
            -17.3815
          ],
          [
            -66.151838,
            -17.381187
          ],
          [
            -66.151875,
            -17.381005
          ],
          [
            -66.151887,
            -17.380939
          ],
          [
            -66.151923,
            -17.380784
          ],
          [
            -66.151926,
            -17.380725
          ],
          [
            -66.151929,
            -17.380676
          ],
          [
            -66.151928,
            -17.380555
          ],
          [
            -66.151923,
            -17.380447
          ],
          [
            -66.151903,
            -17.380352
          ],
          [
            -66.151875,
            -17.380226
          ],
          [
            -66.151854,
            -17.380171
          ],
          [
            -66.151825,
            -17.380118
          ],
          [
            -66.151802,
            -17.380066
          ],
          [
            -66.151801,
            -17.37998
          ],
          [
            -66.15181,
            -17.379921
          ],
          [
            -66.151857,
            -17.379848
          ],
          [
            -66.151946,
            -17.379776
          ],
          [
            -66.151999,
            -17.379714
          ],
          [
            -66.152012,
            -17.379693
          ],
          [
            -66.152021,
            -17.37967
          ],
          [
            -66.152113,
            -17.379303
          ],
          [
            -66.152118,
            -17.379286
          ],
          [
            -66.15213,
            -17.37923
          ],
          [
            -66.152133,
            -17.379177
          ],
          [
            -66.152134,
            -17.37912
          ],
          [
            -66.152129,
            -17.378966
          ],
          [
            -66.15212,
            -17.378807
          ],
          [
            -66.152116,
            -17.378747
          ],
          [
            -66.152108,
            -17.378594
          ],
          [
            -66.152093,
            -17.378567
          ],
          [
            -66.152073,
            -17.378543
          ],
          [
            -66.152047,
            -17.378516
          ],
          [
            -66.152011,
            -17.378482
          ],
          [
            -66.151981,
            -17.378446
          ],
          [
            -66.151962,
            -17.378416
          ],
          [
            -66.151949,
            -17.378359
          ],
          [
            -66.151954,
            -17.378315
          ],
          [
            -66.151945,
            -17.378268
          ],
          [
            -66.151933,
            -17.378236
          ],
          [
            -66.151893,
            -17.378175
          ],
          [
            -66.151832,
            -17.378093
          ],
          [
            -66.151446,
            -17.377732
          ],
          [
            -66.151248,
            -17.377542
          ],
          [
            -66.1512,
            -17.377481
          ],
          [
            -66.151179,
            -17.377436
          ],
          [
            -66.151165,
            -17.377204
          ],
          [
            -66.151162,
            -17.37714
          ],
          [
            -66.151139,
            -17.376407
          ],
          [
            -66.151132,
            -17.376076
          ],
          [
            -66.151129,
            -17.375955
          ],
          [
            -66.151126,
            -17.375729
          ],
          [
            -66.151117,
            -17.375404
          ],
          [
            -66.151115,
            -17.375339
          ],
          [
            -66.151019,
            -17.37534
          ],
          [
            -66.150212,
            -17.375347
          ],
          [
            -66.149799,
            -17.375351
          ],
          [
            -66.149746,
            -17.375335
          ],
          [
            -66.149713,
            -17.37532
          ],
          [
            -66.149639,
            -17.37532
          ],
          [
            -66.149571,
            -17.375319
          ],
          [
            -66.149567,
            -17.375229
          ],
          [
            -66.149566,
            -17.375194
          ],
          [
            -66.149434,
            -17.375197
          ],
          [
            -66.148629,
            -17.375404
          ],
          [
            -66.148441,
            -17.375455
          ],
          [
            -66.148361,
            -17.375477
          ],
          [
            -66.148272,
            -17.375498
          ],
          [
            -66.14819,
            -17.375518
          ],
          [
            -66.147482,
            -17.375697
          ],
          [
            -66.147419,
            -17.375375
          ],
          [
            -66.147413,
            -17.375347
          ],
          [
            -66.147407,
            -17.375312
          ],
          [
            -66.147266,
            -17.374584
          ],
          [
            -66.147163,
            -17.374035
          ],
          [
            -66.147069,
            -17.373612
          ],
          [
            -66.147054,
            -17.373546
          ],
          [
            -66.147045,
            -17.373456
          ],
          [
            -66.14716,
            -17.373446
          ],
          [
            -66.147731,
            -17.373404
          ],
          [
            -66.149171,
            -17.373317
          ],
          [
            -66.149376,
            -17.373306
          ],
          [
            -66.149418,
            -17.373297
          ],
          [
            -66.149465,
            -17.373278
          ],
          [
            -66.149483,
            -17.373254
          ],
          [
            -66.149506,
            -17.373234
          ],
          [
            -66.14952,
            -17.373192
          ],
          [
            -66.149522,
            -17.373165
          ],
          [
            -66.149522,
            -17.373061
          ],
          [
            -66.149507,
            -17.372666
          ],
          [
            -66.149505,
            -17.372583
          ],
          [
            -66.149504,
            -17.372561
          ],
          [
            -66.149503,
            -17.372521
          ],
          [
            -66.1495,
            -17.372427
          ],
          [
            -66.149499,
            -17.372393
          ],
          [
            -66.149466,
            -17.371296
          ],
          [
            -66.149466,
            -17.371239
          ],
          [
            -66.149453,
            -17.370799
          ],
          [
            -66.149451,
            -17.370723
          ],
          [
            -66.149441,
            -17.370615
          ],
          [
            -66.149404,
            -17.370339
          ],
          [
            -66.149324,
            -17.369774
          ],
          [
            -66.149301,
            -17.369608
          ],
          [
            -66.149169,
            -17.368812
          ],
          [
            -66.149077,
            -17.368209
          ],
          [
            -66.148969,
            -17.367429
          ],
          [
            -66.148958,
            -17.367394
          ],
          [
            -66.148948,
            -17.367333
          ],
          [
            -66.148866,
            -17.367205
          ],
          [
            -66.148826,
            -17.367149
          ],
          [
            -66.148694,
            -17.367005
          ],
          [
            -66.148602,
            -17.366902
          ],
          [
            -66.14831,
            -17.366583
          ],
          [
            -66.147877,
            -17.366089
          ],
          [
            -66.147721,
            -17.365917
          ],
          [
            -66.147619,
            -17.365805
          ],
          [
            -66.147566,
            -17.365752
          ],
          [
            -66.147519,
            -17.365699
          ],
          [
            -66.147429,
            -17.365604
          ],
          [
            -66.147312,
            -17.365625
          ],
          [
            -66.147183,
            -17.365478
          ],
          [
            -66.147071,
            -17.365315
          ],
          [
            -66.146974,
            -17.365142
          ],
          [
            -66.146805,
            -17.364773
          ],
          [
            -66.146646,
            -17.36444
          ],
          [
            -66.146619,
            -17.364384
          ],
          [
            -66.146193,
            -17.363493
          ],
          [
            -66.145659,
            -17.362418
          ],
          [
            -66.145335,
            -17.361792
          ],
          [
            -66.14501,
            -17.361155
          ],
          [
            -66.146161,
            -17.361093
          ],
          [
            -66.146057,
            -17.360569
          ],
          [
            -66.146125,
            -17.360559
          ],
          [
            -66.146442,
            -17.360515
          ],
          [
            -66.14652,
            -17.360508
          ],
          [
            -66.147534,
            -17.360415
          ],
          [
            -66.147563,
            -17.360582
          ],
          [
            -66.147578,
            -17.360656
          ],
          [
            -66.147621,
            -17.360695
          ],
          [
            -66.147691,
            -17.36071
          ],
          [
            -66.147786,
            -17.360704
          ],
          [
            -66.14812,
            -17.360536
          ],
          [
            -66.148339,
            -17.360425
          ],
          [
            -66.148467,
            -17.360406
          ],
          [
            -66.14864,
            -17.361466
          ],
          [
            -66.148701,
            -17.361829
          ],
          [
            -66.148807,
            -17.362515
          ],
          [
            -66.148915,
            -17.362498
          ],
          [
            -66.149347,
            -17.362426
          ],
          [
            -66.149386,
            -17.362414
          ],
          [
            -66.149442,
            -17.362398
          ],
          [
            -66.149571,
            -17.36233
          ],
          [
            -66.149663,
            -17.362242
          ],
          [
            -66.149716,
            -17.362103
          ],
          [
            -66.149736,
            -17.361901
          ],
          [
            -66.149685,
            -17.361539
          ],
          [
            -66.149656,
            -17.361321
          ],
          [
            -66.149575,
            -17.360787
          ],
          [
            -66.149507,
            -17.360256
          ],
          [
            -66.149424,
            -17.359499
          ],
          [
            -66.149336,
            -17.358812
          ],
          [
            -66.14925,
            -17.358037
          ]
        ]
      }
    }
  ]
}