{
  "type": "FeatureCollection",
  "features": [
    {
      "type": "Feature",
      "properties": {
        "route_id": "10716517",
        "route_short_name": "36",
        "route_long_name": "MiniBus 36: Calle T'ikallajta \u2192 Calle Lisandro Quiroga"
      },
      "geometry": {
        "type": "LineString",
        "coordinates": [
          [
            -66.165522,
            -17.345341
          ],
          [
            -66.165558,
            -17.345402
          ],
          [
            -66.165615,
            -17.345499
          ],
          [
            -66.165833,
            -17.345867
          ],
          [
            -66.165982,
            -17.346113
          ],
          [
            -66.166155,
            -17.346418
          ],
          [
            -66.166159,
            -17.346424
          ],
          [
            -66.166344,
            -17.346759
          ],
          [
            -66.166467,
            -17.346957
          ],
          [
            -66.166804,
            -17.347512
          ],
          [
            -66.167387,
            -17.347194
          ],
          [
            -66.167457,
            -17.347175
          ],
          [
            -66.167772,
            -17.347266
          ],
          [
            -66.167847,
            -17.347245
          ],
          [
            -66.168098,
            -17.347082
          ],
          [
            -66.168532,
            -17.346781
          ],
          [
            -66.169093,
            -17.346404
          ],
          [
            -66.169475,
            -17.346923
          ],
          [
            -66.169954,
            -17.347574
          ],
          [
            -66.169973,
            -17.347599
          ],
          [
            -66.17068,
            -17.34852
          ],
          [
            -66.171001,
            -17.348927
          ],
          [
            -66.17137,
            -17.349419
          ],
          [
            -66.171425,
            -17.349508
          ],
          [
            -66.170844,
            -17.349898
          ],
          [
            -66.170418,
            -17.350198
          ],
          [
            -66.169982,
            -17.350476
          ],
          [
            -66.169394,
            -17.350765
          ],
          [
            -66.169094,
            -17.350861
          ],
          [
            -66.168924,
            -17.350871
          ],
          [
            -66.168755,
            -17.350855
          ],
          [
            -66.168699,
            -17.350852
          ],
          [
            -66.167775,
            -17.3508
          ],
          [
            -66.167158,
            -17.350784
          ],
          [
            -66.167531,
            -17.351538
          ],
          [
            -66.167833,
            -17.352126
          ],
          [
            -66.168447,
            -17.353361
          ],
          [
            -66.168989,
            -17.354452
          ],
          [
            -66.169532,
            -17.355542
          ],
          [
            -66.169903,
            -17.356285
          ],
          [
            -66.169942,
            -17.356372
          ],
          [
            -66.170478,
            -17.356265
          ],
          [
            -66.170224,
            -17.355713
          ],
          [
            -66.170248,
            -17.355699
          ],
          [
            -66.17046,
            -17.355592
          ],
          [
            -66.170858,
            -17.355367
          ],
          [
            -66.171302,
            -17.355114
          ],
          [
            -66.171612,
            -17.355586
          ],
          [
            -66.171788,
            -17.355898
          ],
          [
            -66.171828,
            -17.355968
          ],
          [
            -66.172047,
            -17.356385
          ],
          [
            -66.17229,
            -17.356859
          ],
          [
            -66.172541,
            -17.357353
          ],
          [
            -66.172735,
            -17.357731
          ],
          [
            -66.172747,
            -17.357754
          ],
          [
            -66.172901,
            -17.358055
          ],
          [
            -66.172544,
            -17.358255
          ],
          [
            -66.172419,
            -17.358336
          ],
          [
            -66.172232,
            -17.358612
          ],
          [
            -66.172175,
            -17.358713
          ],
          [
            -66.172155,
            -17.358772
          ],
          [
            -66.172133,
            -17.358845
          ],
          [
            -66.172133,
            -17.358907
          ],
          [
            -66.172143,
            -17.358953
          ],
          [
            -66.172183,
            -17.359106
          ],
          [
            -66.172194,
            -17.359144
          ],
          [
            -66.172228,
            -17.359256
          ],
          [
            -66.172264,
            -17.359344
          ],
          [
            -66.172317,
            -17.359501
          ],
          [
            -66.172503,
            -17.360114
          ],
          [
            -66.172738,
            -17.360877
          ],
          [
            -66.172757,
            -17.360941
          ],
          [
            -66.174055,
            -17.360344
          ],
          [
            -66.174246,
            -17.360727
          ],
          [
            -66.174294,
            -17.3608
          ],
          [
            -66.174361,
            -17.360862
          ],
          [
            -66.17447,
            -17.360933
          ],
          [
            -66.174545,
            -17.360972
          ],
          [
            -66.174847,
            -17.36115
          ],
          [
            -66.175618,
            -17.361585
          ],
          [
            -66.176391,
            -17.362039
          ],
          [
            -66.17606,
            -17.362552
          ],
          [
            -66.175471,
            -17.36352
          ],
          [
            -66.175765,
            -17.363693
          ],
          [
            -66.17623,
            -17.36396
          ],
          [
            -66.176296,
            -17.363997
          ],
          [
            -66.17639,
            -17.364283
          ],
          [
            -66.176509,
            -17.364649
          ],
          [
            -66.176596,
            -17.364901
          ],
          [
            -66.176627,
            -17.36499
          ],
          [
            -66.176655,
            -17.365083
          ],
          [
            -66.176535,
            -17.365121
          ],
          [
            -66.176474,
            -17.365139
          ],
          [
            -66.17516,
            -17.365542
          ],
          [
            -66.175014,
            -17.365589
          ],
          [
            -66.174918,
            -17.365615
          ],
          [
            -66.174781,
            -17.365645
          ],
          [
            -66.173324,
            -17.36574
          ],
          [
            -66.171798,
            -17.365827
          ],
          [
            -66.17156,
            -17.365844
          ],
          [
            -66.171415,
            -17.365855
          ],
          [
            -66.171303,
            -17.365866
          ],
          [
            -66.17115,
            -17.365898
          ],
          [
            -66.170556,
            -17.366068
          ],
          [
            -66.17039,
            -17.366106
          ],
          [
            -66.170215,
            -17.366125
          ],
          [
            -66.169994,
            -17.366127
          ],
          [
            -66.169799,
            -17.366111
          ],
          [
            -66.169604,
            -17.366074
          ],
          [
            -66.169333,
            -17.365991
          ],
          [
            -66.169187,
            -17.365938
          ],
          [
            -66.168955,
            -17.365866
          ],
          [
            -66.168734,
            -17.36583
          ],
          [
            -66.168565,
            -17.365816
          ],
          [
            -66.167953,
            -17.365761
          ],
          [
            -66.167801,
            -17.365773
          ],
          [
            -66.167643,
            -17.365805
          ],
          [
            -66.1675,
            -17.365855
          ],
          [
            -66.166968,
            -17.366139
          ],
          [
            -66.166684,
            -17.366326
          ],
          [
            -66.166331,
            -17.366568
          ],
          [
            -66.166121,
            -17.366717
          ],
          [
            -66.165837,
            -17.366928
          ],
          [
            -66.165123,
            -17.367435
          ],
          [
            -66.164249,
            -17.368057
          ],
          [
            -66.164157,
            -17.368131
          ],
          [
            -66.164089,
            -17.368196
          ],
          [
            -66.164035,
            -17.368262
          ],
          [
            -66.16405,
            -17.368325
          ],
          [
            -66.164055,
            -17.368424
          ],
          [
            -66.164041,
            -17.368517
          ],
          [
            -66.164022,
            -17.368577
          ],
          [
            -66.163988,
            -17.368632
          ],
          [
            -66.163927,
            -17.368708
          ],
          [
            -66.163883,
            -17.368751
          ],
          [
            -66.163826,
            -17.368816
          ],
          [
            -66.163797,
            -17.368861
          ],
          [
            -66.163757,
            -17.368921
          ],
          [
            -66.163734,
            -17.368975
          ],
          [
            -66.163589,
            -17.369499
          ],
          [
            -66.16331,
            -17.370427
          ],
          [
            -66.162963,
            -17.371627
          ],
          [
            -66.16275,
            -17.372366
          ],
          [
            -66.162724,
            -17.372453
          ],
          [
            -66.162697,
            -17.372548
          ],
          [
            -66.162668,
            -17.372642
          ],
          [
            -66.162647,
            -17.372715
          ],
          [
            -66.16198,
            -17.375005
          ],
          [
            -66.161913,
            -17.37522
          ],
          [
            -66.161886,
            -17.375306
          ],
          [
            -66.161849,
            -17.375428
          ],
          [
            -66.161827,
            -17.375498
          ],
          [
            -66.161548,
            -17.376453
          ],
          [
            -66.161352,
            -17.377128
          ],
          [
            -66.161152,
            -17.377817
          ],
          [
            -66.1611,
            -17.377993
          ],
          [
            -66.161078,
            -17.378075
          ],
          [
            -66.161027,
            -17.378256
          ],
          [
            -66.160737,
            -17.379244
          ],
          [
            -66.160421,
            -17.380327
          ],
          [
            -66.160388,
            -17.380454
          ],
          [
            -66.160384,
            -17.380521
          ],
          [
            -66.160395,
            -17.380571
          ],
          [
            -66.160434,
            -17.380703
          ],
          [
            -66.160445,
            -17.380747
          ],
          [
            -66.160451,
            -17.380788
          ],
          [
            -66.160449,
            -17.380831
          ],
          [
            -66.160432,
            -17.380879
          ],
          [
            -66.160394,
            -17.380945
          ],
          [
            -66.160348,
            -17.381026
          ],
          [
            -66.160324,
            -17.381095
          ],
          [
            -66.160303,
            -17.381155
          ],
          [
            -66.160284,
            -17.381209
          ],
          [
            -66.160265,
            -17.381271
          ],
          [
            -66.160255,
            -17.381306
          ],
          [
            -66.160149,
            -17.381663
          ],
          [
            -66.160139,
            -17.381699
          ],
          [
            -66.160118,
            -17.381778
          ],
          [
            -66.160107,
            -17.381844
          ],
          [
            -66.1601,
            -17.381917
          ],
          [
            -66.160102,
            -17.382008
          ],
          [
            -66.160124,
            -17.382136
          ],
          [
            -66.160147,
            -17.382213
          ],
          [
            -66.160147,
            -17.382293
          ],
          [
            -66.160134,
            -17.382365
          ],
          [
            -66.160105,
            -17.382433
          ],
          [
            -66.160049,
            -17.382493
          ],
          [
            -66.159948,
            -17.382564
          ],
          [
            -66.159811,
            -17.382667
          ],
          [
            -66.159744,
            -17.382741
          ],
          [
            -66.1597,
            -17.382801
          ],
          [
            -66.159604,
            -17.382936
          ],
          [
            -66.159491,
            -17.383083
          ],
          [
            -66.159325,
            -17.383296
          ],
          [
            -66.159292,
            -17.383339
          ],
          [
            -66.159241,
            -17.383405
          ],
          [
            -66.15909,
            -17.383596
          ],
          [
            -66.158875,
            -17.383893
          ],
          [
            -66.158834,
            -17.383948
          ],
          [
            -66.158793,
            -17.384001
          ],
          [
            -66.158446,
            -17.38444
          ],
          [
            -66.158365,
            -17.384554
          ],
          [
            -66.158256,
            -17.384691
          ],
          [
            -66.158175,
            -17.384799
          ],
          [
            -66.158068,
            -17.38494
          ],
          [
            -66.158014,
            -17.385013
          ],
          [
            -66.157971,
            -17.385072
          ],
          [
            -66.157936,
            -17.385118
          ],
          [
            -66.157861,
            -17.385215
          ],
          [
            -66.157761,
            -17.385339
          ],
          [
            -66.157508,
            -17.385663
          ],
          [
            -66.156861,
            -17.38651
          ],
          [
            -66.156792,
            -17.386601
          ],
          [
            -66.156849,
            -17.386637
          ],
          [
            -66.157592,
            -17.386993
          ],
          [
            -66.157641,
            -17.387005
          ],
          [
            -66.157737,
            -17.387017
          ],
          [
            -66.158638,
            -17.387139
          ],
          [
            -66.158692,
            -17.387146
          ],
          [
            -66.158743,
            -17.387153
          ],
          [
            -66.159828,
            -17.387331
          ],
          [
            -66.159895,
            -17.387344
          ],
          [
            -66.159742,
            -17.388177
          ],
          [
            -66.159721,
            -17.388281
          ],
          [
            -66.1597,
            -17.388402
          ],
          [
            -66.159517,
            -17.38928
          ],
          [
            -66.159502,
            -17.389357
          ],
          [
            -66.159493,
            -17.389406
          ],
          [
            -66.159313,
            -17.3904
          ],
          [
            -66.159307,
            -17.390434
          ],
          [
            -66.159292,
            -17.390506
          ],
          [
            -66.159241,
            -17.39076
          ],
          [
            -66.159109,
            -17.391403
          ],
          [
            -66.159096,
            -17.391477
          ],
          [
            -66.159088,
            -17.391515
          ],
          [
            -66.158889,
            -17.392506
          ],
          [
            -66.158879,
            -17.392559
          ],
          [
            -66.158862,
            -17.392647
          ],
          [
            -66.15885,
            -17.39271
          ],
          [
            -66.158694,
            -17.393514
          ],
          [
            -66.158678,
            -17.393586
          ],
          [
            -66.158669,
            -17.39363
          ],
          [
            -66.158468,
            -17.394624
          ],
          [
            -66.158285,
            -17.395625
          ],
          [
            -66.158278,
            -17.395669
          ],
          [
            -66.15827,
            -17.395715
          ],
          [
            -66.158136,
            -17.396672
          ],
          [
            -66.15813,
            -17.396715
          ],
          [
            -66.158124,
            -17.396768
          ],
          [
            -66.157969,
            -17.397736
          ],
          [
            -66.157959,
            -17.397794
          ],
          [
            -66.157949,
            -17.397857
          ],
          [
            -66.157771,
            -17.398908
          ],
          [
            -66.157688,
            -17.398891
          ],
          [
            -66.15658,
            -17.398655
          ],
          [
            -66.156424,
            -17.399487
          ],
          [
            -66.156402,
            -17.399592
          ],
          [
            -66.156219,
            -17.400783
          ],
          [
            -66.156116,
            -17.401314
          ],
          [
            -66.155948,
            -17.402196
          ],
          [
            -66.155911,
            -17.402295
          ],
          [
            -66.15542,
            -17.402301
          ],
          [
            -66.155316,
            -17.402192
          ],
          [
            -66.155307,
            -17.401651
          ],
          [
            -66.155285,
            -17.401299
          ],
          [
            -66.153977,
            -17.401365
          ],
          [
            -66.154027,
            -17.402254
          ],
          [
            -66.154504,
            -17.402243
          ],
          [
            -66.154511,
            -17.402304
          ],
          [
            -66.154513,
            -17.402353
          ],
          [
            -66.154515,
            -17.402434
          ],
          [
            -66.154517,
            -17.4025
          ],
          [
            -66.15452,
            -17.402584
          ],
          [
            -66.154522,
            -17.402665
          ],
          [
            -66.154523,
            -17.402697
          ],
          [
            -66.154526,
            -17.402774
          ],
          [
            -66.154528,
            -17.402846
          ],
          [
            -66.15453,
            -17.402926
          ],
          [
            -66.154532,
            -17.402994
          ],
          [
            -66.154533,
            -17.403095
          ],
          [
            -66.154504,
            -17.403108
          ],
          [
            -66.154456,
            -17.403138
          ],
          [
            -66.154394,
            -17.403181
          ],
          [
            -66.154301,
            -17.403226
          ],
          [
            -66.154231,
            -17.403253
          ],
          [
            -66.154171,
            -17.403261
          ],
          [
            -66.154097,
            -17.403268
          ],
          [
            -66.153956,
            -17.403274
          ],
          [
            -66.153442,
            -17.403298
          ],
          [
            -66.15341,
            -17.403313
          ],
          [
            -66.153388,
            -17.403336
          ],
          [
            -66.153366,
            -17.403379
          ],
          [
            -66.153397,
            -17.4048
          ],
          [
            -66.153401,
            -17.404862
          ],
          [
            -66.153416,
            -17.405281
          ],
          [
            -66.153426,
            -17.40555
          ],
          [
            -66.153445,
            -17.406098
          ],
          [
            -66.153469,
            -17.407052
          ],
          [
            -66.153476,
            -17.407557
          ],
          [
            -66.153504,
            -17.408299
          ],
          [
            -66.153572,
            -17.409841
          ],
          [
            -66.153576,
            -17.409968
          ],
          [
            -66.153601,
            -17.410292
          ],
          [
            -66.153653,
            -17.411827
          ],
          [
            -66.153664,
            -17.411966
          ],
          [
            -66.153688,
            -17.412037
          ],
          [
            -66.153745,
            -17.412092
          ],
          [
            -66.153869,
            -17.412158
          ],
          [
            -66.153899,
            -17.412175
          ],
          [
            -66.154605,
            -17.412548
          ],
          [
            -66.154925,
            -17.412748
          ],
          [
            -66.15524,
            -17.412919
          ],
          [
            -66.155336,
            -17.41299
          ],
          [
            -66.155595,
            -17.413077
          ],
          [
            -66.155655,
            -17.413095
          ],
          [
            -66.155784,
            -17.413118
          ],
          [
            -66.156233,
            -17.413194
          ],
          [
            -66.156369,
            -17.413217
          ],
          [
            -66.156538,
            -17.413242
          ],
          [
            -66.156636,
            -17.413261
          ],
          [
            -66.156706,
            -17.413267
          ],
          [
            -66.156782,
            -17.413263
          ],
          [
            -66.156897,
            -17.413251
          ],
          [
            -66.157292,
            -17.413201
          ],
          [
            -66.157345,
            -17.413194
          ],
          [
            -66.15746,
            -17.41318
          ],
          [
            -66.157888,
            -17.41312
          ],
          [
            -66.158547,
            -17.413016
          ],
          [
            -66.158678,
            -17.412983
          ],
          [
            -66.158976,
            -17.412907
          ],
          [
            -66.159314,
            -17.412809
          ],
          [
            -66.159387,
            -17.41279
          ],
          [
            -66.159483,
            -17.412758
          ],
          [
            -66.159522,
            -17.412736
          ],
          [
            -66.159567,
            -17.412726
          ],
          [
            -66.159612,
            -17.41273
          ],
          [
            -66.159654,
            -17.412747
          ],
          [
            -66.159689,
            -17.412775
          ],
          [
            -66.159713,
            -17.412811
          ],
          [
            -66.159769,
            -17.412953
          ],
          [
            -66.159813,
            -17.413018
          ],
          [
            -66.160702,
            -17.413696
          ],
          [
            -66.161531,
            -17.414315
          ],
          [
            -66.161719,
            -17.414443
          ],
          [
            -66.161906,
            -17.414527
          ],
          [
            -66.162046,
            -17.414559
          ],
          [
            -66.162161,
            -17.414587
          ],
          [
            -66.162485,
            -17.414614
          ],
          [
            -66.162584,
            -17.414623
          ],
          [
            -66.162666,
            -17.414648
          ],
          [
            -66.162799,
            -17.41471
          ],
          [
            -66.162909,
            -17.414807
          ],
          [
            -66.162984,
            -17.414929
          ],
          [
            -66.16302,
            -17.415066
          ],
          [
            -66.163013,
            -17.415208
          ],
          [
            -66.162964,
            -17.415342
          ],
          [
            -66.162876,
            -17.415456
          ],
          [
            -66.162758,
            -17.415542
          ],
          [
            -66.162619,
            -17.415592
          ],
          [
            -66.162329,
            -17.415677
          ],
          [
            -66.162092,
            -17.415781
          ],
          [
            -66.161878,
            -17.415923
          ],
          [
            -66.16168,
            -17.416134
          ],
          [
            -66.160809,
            -17.417189
          ],
          [
            -66.161192,
            -17.417434
          ],
          [
            -66.161269,
            -17.418171
          ],
          [
            -66.161316,
            -17.418885
          ],
          [
            -66.161372,
            -17.419607
          ],
          [
            -66.161441,
            -17.420334
          ],
          [
            -66.161489,
            -17.421059
          ],
          [
            -66.161529,
            -17.421453
          ],
          [
            -66.161658,
            -17.42176
          ],
          [
            -66.161972,
            -17.422236
          ],
          [
            -66.16203,
            -17.422331
          ],
          [
            -66.161988,
            -17.422779
          ],
          [
            -66.16198,
            -17.423611
          ],
          [
            -66.161964,
            -17.423707
          ],
          [
            -66.161939,
            -17.423805
          ],
          [
            -66.161906,
            -17.424666
          ],
          [
            -66.162454,
            -17.424663
          ],
          [
            -66.162347,
            -17.425846
          ],
          [
            -66.162347,
            -17.425907
          ],
          [
            -66.162297,
            -17.426857
          ],
          [
            -66.162287,
            -17.427108
          ],
          [
            -66.162469,
            -17.427118
          ]
        ]
      }
    }
  ]
}