{
  "type": "FeatureCollection",
  "features": [
    {
      "type": "Feature",
      "properties": {
        "route_id": "10786973",
        "route_short_name": "5",
        "route_long_name": "MiniBus 5: Ch'aska Rumi \u2192 Avenida Circuncalaci\u00f3n II"
      },
      "geometry": {
        "type": "LineString",
        "coordinates": [
          [
            -66.134906,
            -17.43959
          ],
          [
            -66.134439,
            -17.439557
          ],
          [
            -66.134149,
            -17.440307
          ],
          [
            -66.133974,
            -17.440762
          ],
          [
            -66.133417,
            -17.44056
          ],
          [
            -66.133597,
            -17.440063
          ],
          [
            -66.133786,
            -17.439622
          ],
          [
            -66.133971,
            -17.439235
          ],
          [
            -66.134139,
            -17.438803
          ],
          [
            -66.134193,
            -17.438663
          ],
          [
            -66.134236,
            -17.438499
          ],
          [
            -66.134273,
            -17.438301
          ],
          [
            -66.134289,
            -17.437998
          ],
          [
            -66.134307,
            -17.437573
          ],
          [
            -66.134297,
            -17.437104
          ],
          [
            -66.134257,
            -17.436922
          ],
          [
            -66.134203,
            -17.436762
          ],
          [
            -66.134132,
            -17.436645
          ],
          [
            -66.134034,
            -17.436554
          ],
          [
            -66.133882,
            -17.436467
          ],
          [
            -66.133515,
            -17.436358
          ],
          [
            -66.13322,
            -17.436263
          ],
          [
            -66.133088,
            -17.436193
          ],
          [
            -66.132969,
            -17.436134
          ],
          [
            -66.132818,
            -17.436047
          ],
          [
            -66.132663,
            -17.435927
          ],
          [
            -66.132532,
            -17.435799
          ],
          [
            -66.132436,
            -17.435666
          ],
          [
            -66.13229,
            -17.435439
          ],
          [
            -66.132257,
            -17.435345
          ],
          [
            -66.13216,
            -17.435238
          ],
          [
            -66.131985,
            -17.434985
          ],
          [
            -66.131895,
            -17.434833
          ],
          [
            -66.131838,
            -17.434714
          ],
          [
            -66.131804,
            -17.434601
          ],
          [
            -66.131801,
            -17.434506
          ],
          [
            -66.131794,
            -17.434363
          ],
          [
            -66.13185,
            -17.434215
          ],
          [
            -66.131899,
            -17.434041
          ],
          [
            -66.131885,
            -17.43396
          ],
          [
            -66.131823,
            -17.433979
          ],
          [
            -66.13172,
            -17.433977
          ],
          [
            -66.131405,
            -17.433967
          ],
          [
            -66.130556,
            -17.433975
          ],
          [
            -66.130226,
            -17.433961
          ],
          [
            -66.130334,
            -17.433825
          ],
          [
            -66.130669,
            -17.433426
          ],
          [
            -66.131025,
            -17.432967
          ],
          [
            -66.131225,
            -17.432723
          ],
          [
            -66.131342,
            -17.432562
          ],
          [
            -66.131418,
            -17.43243
          ],
          [
            -66.131604,
            -17.432201
          ],
          [
            -66.131927,
            -17.431793
          ],
          [
            -66.132124,
            -17.431549
          ],
          [
            -66.132188,
            -17.431477
          ],
          [
            -66.132286,
            -17.431347
          ],
          [
            -66.132459,
            -17.431074
          ],
          [
            -66.132543,
            -17.430972
          ],
          [
            -66.132802,
            -17.430613
          ],
          [
            -66.132894,
            -17.430513
          ],
          [
            -66.133018,
            -17.43041
          ],
          [
            -66.133122,
            -17.430322
          ],
          [
            -66.133198,
            -17.430243
          ],
          [
            -66.133289,
            -17.429911
          ],
          [
            -66.133359,
            -17.429729
          ],
          [
            -66.133425,
            -17.429635
          ],
          [
            -66.133642,
            -17.429339
          ],
          [
            -66.133839,
            -17.429118
          ],
          [
            -66.134195,
            -17.428753
          ],
          [
            -66.134321,
            -17.428631
          ],
          [
            -66.13461,
            -17.42838
          ],
          [
            -66.134799,
            -17.428251
          ],
          [
            -66.135028,
            -17.428056
          ],
          [
            -66.135091,
            -17.42801
          ],
          [
            -66.135431,
            -17.427712
          ],
          [
            -66.135552,
            -17.427594
          ],
          [
            -66.135936,
            -17.427217
          ],
          [
            -66.13615,
            -17.426997
          ],
          [
            -66.136219,
            -17.426903
          ],
          [
            -66.136368,
            -17.426291
          ],
          [
            -66.136394,
            -17.426208
          ],
          [
            -66.13643,
            -17.426135
          ],
          [
            -66.136957,
            -17.425423
          ],
          [
            -66.137141,
            -17.425177
          ],
          [
            -66.137273,
            -17.424943
          ],
          [
            -66.137543,
            -17.424689
          ],
          [
            -66.137854,
            -17.424448
          ],
          [
            -66.137994,
            -17.424312
          ],
          [
            -66.13803,
            -17.424252
          ],
          [
            -66.138198,
            -17.424114
          ],
          [
            -66.138342,
            -17.423958
          ],
          [
            -66.138421,
            -17.423861
          ],
          [
            -66.138536,
            -17.42372
          ],
          [
            -66.138618,
            -17.42357
          ],
          [
            -66.138986,
            -17.423018
          ],
          [
            -66.139454,
            -17.422493
          ],
          [
            -66.139569,
            -17.422374
          ],
          [
            -66.13965,
            -17.422294
          ],
          [
            -66.139716,
            -17.422245
          ],
          [
            -66.139795,
            -17.422201
          ],
          [
            -66.139842,
            -17.422185
          ],
          [
            -66.140208,
            -17.422077
          ],
          [
            -66.140333,
            -17.422048
          ],
          [
            -66.14044,
            -17.422043
          ],
          [
            -66.140404,
            -17.42159
          ],
          [
            -66.140368,
            -17.421529
          ],
          [
            -66.140338,
            -17.42091
          ],
          [
            -66.140289,
            -17.419977
          ],
          [
            -66.139993,
            -17.419992
          ],
          [
            -66.139816,
            -17.420001
          ],
          [
            -66.139729,
            -17.420002
          ],
          [
            -66.139684,
            -17.420001
          ],
          [
            -66.13964,
            -17.419993
          ],
          [
            -66.139598,
            -17.419979
          ],
          [
            -66.139558,
            -17.419959
          ],
          [
            -66.139522,
            -17.419933
          ],
          [
            -66.13949,
            -17.419903
          ],
          [
            -66.139464,
            -17.419868
          ],
          [
            -66.139443,
            -17.419829
          ],
          [
            -66.139429,
            -17.419788
          ],
          [
            -66.139421,
            -17.419746
          ],
          [
            -66.139421,
            -17.419703
          ],
          [
            -66.139427,
            -17.41966
          ],
          [
            -66.139441,
            -17.419619
          ],
          [
            -66.13946,
            -17.41958
          ],
          [
            -66.139486,
            -17.419544
          ],
          [
            -66.139517,
            -17.419513
          ],
          [
            -66.139553,
            -17.419487
          ],
          [
            -66.139593,
            -17.419466
          ],
          [
            -66.139635,
            -17.419451
          ],
          [
            -66.139679,
            -17.419442
          ],
          [
            -66.139724,
            -17.419441
          ],
          [
            -66.139769,
            -17.419445
          ],
          [
            -66.139813,
            -17.419456
          ],
          [
            -66.139918,
            -17.419494
          ],
          [
            -66.139964,
            -17.419511
          ],
          [
            -66.140017,
            -17.419521
          ],
          [
            -66.140052,
            -17.419522
          ],
          [
            -66.140073,
            -17.419523
          ],
          [
            -66.140258,
            -17.419512
          ],
          [
            -66.140515,
            -17.419497
          ],
          [
            -66.1409,
            -17.419475
          ],
          [
            -66.141492,
            -17.419443
          ],
          [
            -66.142106,
            -17.419412
          ],
          [
            -66.142722,
            -17.419376
          ],
          [
            -66.143133,
            -17.419356
          ],
          [
            -66.143227,
            -17.419372
          ],
          [
            -66.143291,
            -17.4194
          ],
          [
            -66.143395,
            -17.419458
          ],
          [
            -66.143463,
            -17.419485
          ],
          [
            -66.143516,
            -17.419503
          ],
          [
            -66.143572,
            -17.419509
          ],
          [
            -66.143944,
            -17.419493
          ],
          [
            -66.144559,
            -17.41945
          ],
          [
            -66.14468,
            -17.419442
          ],
          [
            -66.14559,
            -17.419387
          ],
          [
            -66.145995,
            -17.419362
          ],
          [
            -66.146369,
            -17.419342
          ],
          [
            -66.147011,
            -17.419302
          ],
          [
            -66.147611,
            -17.419268
          ],
          [
            -66.148208,
            -17.419229
          ],
          [
            -66.148651,
            -17.419206
          ],
          [
            -66.148764,
            -17.419206
          ],
          [
            -66.148856,
            -17.419217
          ],
          [
            -66.149125,
            -17.419273
          ],
          [
            -66.149195,
            -17.419259
          ],
          [
            -66.14924,
            -17.419241
          ],
          [
            -66.149277,
            -17.41922
          ],
          [
            -66.149359,
            -17.419166
          ],
          [
            -66.149809,
            -17.418529
          ],
          [
            -66.150034,
            -17.418204
          ],
          [
            -66.150075,
            -17.418125
          ],
          [
            -66.150099,
            -17.418058
          ],
          [
            -66.150125,
            -17.417964
          ],
          [
            -66.150198,
            -17.417568
          ],
          [
            -66.1503,
            -17.417085
          ],
          [
            -66.150368,
            -17.416656
          ],
          [
            -66.150383,
            -17.416561
          ],
          [
            -66.150385,
            -17.416487
          ],
          [
            -66.150362,
            -17.416201
          ],
          [
            -66.150333,
            -17.415936
          ],
          [
            -66.150312,
            -17.415788
          ],
          [
            -66.150279,
            -17.41562
          ],
          [
            -66.150222,
            -17.415457
          ],
          [
            -66.150147,
            -17.415268
          ],
          [
            -66.150048,
            -17.415089
          ],
          [
            -66.149916,
            -17.414881
          ],
          [
            -66.149759,
            -17.414696
          ],
          [
            -66.149592,
            -17.41452
          ],
          [
            -66.149357,
            -17.414242
          ],
          [
            -66.148911,
            -17.413712
          ],
          [
            -66.148596,
            -17.413417
          ],
          [
            -66.148173,
            -17.412958
          ],
          [
            -66.148099,
            -17.412903
          ],
          [
            -66.148012,
            -17.412851
          ],
          [
            -66.147863,
            -17.412769
          ],
          [
            -66.147739,
            -17.41273
          ],
          [
            -66.147608,
            -17.412705
          ],
          [
            -66.14738,
            -17.412692
          ],
          [
            -66.146704,
            -17.412667
          ],
          [
            -66.146577,
            -17.41264
          ],
          [
            -66.146508,
            -17.412608
          ],
          [
            -66.146438,
            -17.412566
          ],
          [
            -66.146443,
            -17.412477
          ],
          [
            -66.1477,
            -17.411701
          ],
          [
            -66.147441,
            -17.411221
          ],
          [
            -66.147333,
            -17.410976
          ],
          [
            -66.147305,
            -17.410877
          ],
          [
            -66.147288,
            -17.410786
          ],
          [
            -66.147267,
            -17.410401
          ],
          [
            -66.14721,
            -17.409543
          ],
          [
            -66.147195,
            -17.409066
          ],
          [
            -66.147206,
            -17.408962
          ],
          [
            -66.147226,
            -17.408899
          ],
          [
            -66.147251,
            -17.408847
          ],
          [
            -66.147387,
            -17.40863
          ],
          [
            -66.147583,
            -17.408375
          ],
          [
            -66.147647,
            -17.408298
          ],
          [
            -66.147736,
            -17.408212
          ],
          [
            -66.147871,
            -17.408323
          ],
          [
            -66.147972,
            -17.408407
          ],
          [
            -66.149635,
            -17.409502
          ],
          [
            -66.149855,
            -17.409645
          ],
          [
            -66.150019,
            -17.409748
          ],
          [
            -66.150648,
            -17.409725
          ],
          [
            -66.150695,
            -17.409717
          ],
          [
            -66.15072,
            -17.409685
          ],
          [
            -66.150763,
            -17.409683
          ],
          [
            -66.150857,
            -17.409685
          ],
          [
            -66.150919,
            -17.410017
          ],
          [
            -66.150965,
            -17.410245
          ],
          [
            -66.150979,
            -17.410314
          ],
          [
            -66.151028,
            -17.410396
          ],
          [
            -66.151799,
            -17.410919
          ],
          [
            -66.152629,
            -17.411454
          ],
          [
            -66.153291,
            -17.411875
          ],
          [
            -66.153365,
            -17.411899
          ],
          [
            -66.153431,
            -17.411905
          ],
          [
            -66.153471,
            -17.411895
          ],
          [
            -66.1535,
            -17.411849
          ],
          [
            -66.153445,
            -17.410312
          ],
          [
            -66.153484,
            -17.409979
          ],
          [
            -66.153479,
            -17.409859
          ],
          [
            -66.153411,
            -17.408299
          ],
          [
            -66.153385,
            -17.407559
          ],
          [
            -66.153376,
            -17.407055
          ],
          [
            -66.153342,
            -17.406101
          ],
          [
            -66.153317,
            -17.405283
          ],
          [
            -66.153303,
            -17.404861
          ],
          [
            -66.153302,
            -17.404799
          ],
          [
            -66.153296,
            -17.403607
          ],
          [
            -66.153297,
            -17.403542
          ],
          [
            -66.153293,
            -17.403209
          ],
          [
            -66.153319,
            -17.403127
          ],
          [
            -66.15332,
            -17.403075
          ],
          [
            -66.15332,
            -17.402958
          ],
          [
            -66.15332,
            -17.402878
          ],
          [
            -66.15332,
            -17.40281
          ],
          [
            -66.153319,
            -17.402737
          ],
          [
            -66.153322,
            -17.402658
          ],
          [
            -66.153323,
            -17.402572
          ],
          [
            -66.153325,
            -17.402501
          ],
          [
            -66.153323,
            -17.402429
          ],
          [
            -66.153324,
            -17.402364
          ],
          [
            -66.153324,
            -17.40229
          ],
          [
            -66.153295,
            -17.401383
          ],
          [
            -66.15325,
            -17.400725
          ],
          [
            -66.153227,
            -17.399898
          ],
          [
            -66.153197,
            -17.399102
          ],
          [
            -66.153192,
            -17.398998
          ],
          [
            -66.153184,
            -17.398846
          ],
          [
            -66.153188,
            -17.398769
          ],
          [
            -66.153253,
            -17.398424
          ],
          [
            -66.153322,
            -17.398064
          ],
          [
            -66.153532,
            -17.397006
          ],
          [
            -66.153732,
            -17.395947
          ],
          [
            -66.153922,
            -17.394892
          ],
          [
            -66.154001,
            -17.394466
          ],
          [
            -66.154011,
            -17.394412
          ],
          [
            -66.154112,
            -17.393861
          ],
          [
            -66.154297,
            -17.392943
          ],
          [
            -66.154313,
            -17.392865
          ],
          [
            -66.154321,
            -17.392824
          ],
          [
            -66.154328,
            -17.392791
          ],
          [
            -66.154493,
            -17.391925
          ],
          [
            -66.1545,
            -17.391876
          ],
          [
            -66.154518,
            -17.391787
          ],
          [
            -66.154529,
            -17.391726
          ],
          [
            -66.154722,
            -17.39071
          ],
          [
            -66.154916,
            -17.38972
          ],
          [
            -66.154921,
            -17.389693
          ],
          [
            -66.155119,
            -17.388731
          ],
          [
            -66.155132,
            -17.388666
          ],
          [
            -66.155061,
            -17.388655
          ],
          [
            -66.154029,
            -17.388432
          ],
          [
            -66.152984,
            -17.388202
          ],
          [
            -66.15314,
            -17.387542
          ],
          [
            -66.153253,
            -17.387049
          ],
          [
            -66.153805,
            -17.385921
          ],
          [
            -66.153926,
            -17.385696
          ],
          [
            -66.153977,
            -17.385604
          ],
          [
            -66.15403,
            -17.3855
          ],
          [
            -66.154284,
            -17.38518
          ],
          [
            -66.154327,
            -17.385126
          ],
          [
            -66.154368,
            -17.385073
          ],
          [
            -66.155502,
            -17.383564
          ],
          [
            -66.155559,
            -17.383489
          ],
          [
            -66.156035,
            -17.382868
          ],
          [
            -66.156166,
            -17.382697
          ],
          [
            -66.15646,
            -17.382314
          ],
          [
            -66.156482,
            -17.382257
          ],
          [
            -66.156735,
            -17.38192
          ],
          [
            -66.156747,
            -17.381883
          ],
          [
            -66.156757,
            -17.381847
          ],
          [
            -66.156766,
            -17.381777
          ],
          [
            -66.156779,
            -17.3817
          ],
          [
            -66.156925,
            -17.380955
          ],
          [
            -66.15694,
            -17.380876
          ],
          [
            -66.15702,
            -17.380507
          ],
          [
            -66.157033,
            -17.380424
          ],
          [
            -66.157033,
            -17.38034
          ],
          [
            -66.157033,
            -17.380275
          ],
          [
            -66.157032,
            -17.380188
          ],
          [
            -66.157032,
            -17.380026
          ],
          [
            -66.15705,
            -17.379908
          ],
          [
            -66.157002,
            -17.378197
          ],
          [
            -66.156999,
            -17.378121
          ],
          [
            -66.156994,
            -17.378031
          ],
          [
            -66.156954,
            -17.377028
          ],
          [
            -66.156944,
            -17.376374
          ],
          [
            -66.156921,
            -17.375501
          ],
          [
            -66.156903,
            -17.375115
          ],
          [
            -66.156902,
            -17.375057
          ],
          [
            -66.1569,
            -17.374962
          ],
          [
            -66.156899,
            -17.374944
          ],
          [
            -66.156884,
            -17.374518
          ],
          [
            -66.156856,
            -17.373878
          ],
          [
            -66.156901,
            -17.373252
          ],
          [
            -66.156886,
            -17.373222
          ],
          [
            -66.156851,
            -17.373185
          ],
          [
            -66.156796,
            -17.373128
          ],
          [
            -66.156725,
            -17.373097
          ],
          [
            -66.156666,
            -17.37305
          ],
          [
            -66.156621,
            -17.372989
          ],
          [
            -66.156592,
            -17.372913
          ],
          [
            -66.156587,
            -17.372831
          ],
          [
            -66.156606,
            -17.372751
          ],
          [
            -66.156636,
            -17.372696
          ],
          [
            -66.156678,
            -17.372649
          ],
          [
            -66.15673,
            -17.372611
          ],
          [
            -66.15679,
            -17.372585
          ],
          [
            -66.15684,
            -17.372573
          ],
          [
            -66.156892,
            -17.37257
          ],
          [
            -66.156944,
            -17.372576
          ],
          [
            -66.156994,
            -17.37259
          ],
          [
            -66.157054,
            -17.372621
          ],
          [
            -66.157105,
            -17.372663
          ],
          [
            -66.157145,
            -17.372716
          ],
          [
            -66.157187,
            -17.372778
          ],
          [
            -66.157209,
            -17.372801
          ],
          [
            -66.15724,
            -17.372806
          ],
          [
            -66.158923,
            -17.372692
          ],
          [
            -66.158985,
            -17.372688
          ],
          [
            -66.15907,
            -17.372683
          ],
          [
            -66.159154,
            -17.372679
          ],
          [
            -66.159475,
            -17.37266
          ],
          [
            -66.159727,
            -17.372646
          ],
          [
            -66.160482,
            -17.372595
          ],
          [
            -66.16056,
            -17.372591
          ],
          [
            -66.160492,
            -17.371634
          ],
          [
            -66.160469,
            -17.371427
          ],
          [
            -66.160419,
            -17.370577
          ],
          [
            -66.160382,
            -17.369986
          ],
          [
            -66.160366,
            -17.369668
          ],
          [
            -66.160303,
            -17.368914
          ],
          [
            -66.160267,
            -17.368416
          ],
          [
            -66.160254,
            -17.36816
          ],
          [
            -66.160244,
            -17.368046
          ],
          [
            -66.160235,
            -17.367908
          ],
          [
            -66.16023,
            -17.367818
          ],
          [
            -66.160205,
            -17.367422
          ],
          [
            -66.160214,
            -17.367345
          ],
          [
            -66.160224,
            -17.367299
          ],
          [
            -66.160419,
            -17.367063
          ],
          [
            -66.161064,
            -17.366401
          ],
          [
            -66.161441,
            -17.366013
          ],
          [
            -66.162285,
            -17.365191
          ],
          [
            -66.162268,
            -17.365148
          ],
          [
            -66.16224,
            -17.365094
          ],
          [
            -66.162206,
            -17.36504
          ],
          [
            -66.162182,
            -17.364989
          ],
          [
            -66.162127,
            -17.364909
          ],
          [
            -66.161853,
            -17.364153
          ],
          [
            -66.161824,
            -17.364071
          ],
          [
            -66.161351,
            -17.362768
          ],
          [
            -66.162608,
            -17.362337
          ],
          [
            -66.163721,
            -17.36197
          ],
          [
            -66.164061,
            -17.361853
          ],
          [
            -66.164181,
            -17.361805
          ],
          [
            -66.163819,
            -17.360919
          ],
          [
            -66.163633,
            -17.360508
          ],
          [
            -66.163439,
            -17.360025
          ],
          [
            -66.163496,
            -17.360035
          ],
          [
            -66.164371,
            -17.359707
          ],
          [
            -66.165177,
            -17.359404
          ],
          [
            -66.166018,
            -17.359089
          ],
          [
            -66.166005,
            -17.359057
          ],
          [
            -66.165655,
            -17.358215
          ],
          [
            -66.16564,
            -17.35817
          ],
          [
            -66.165611,
            -17.358104
          ],
          [
            -66.165473,
            -17.357699
          ],
          [
            -66.1654,
            -17.357487
          ],
          [
            -66.165297,
            -17.357213
          ],
          [
            -66.165167,
            -17.356853
          ],
          [
            -66.165129,
            -17.356741
          ],
          [
            -66.164992,
            -17.356383
          ],
          [
            -66.164897,
            -17.35613
          ],
          [
            -66.164668,
            -17.355523
          ],
          [
            -66.164622,
            -17.35539
          ],
          [
            -66.1644,
            -17.354807
          ],
          [
            -66.164839,
            -17.354541
          ],
          [
            -66.165019,
            -17.35443
          ],
          [
            -66.164545,
            -17.353946
          ],
          [
            -66.164088,
            -17.353462
          ],
          [
            -66.163619,
            -17.35299
          ],
          [
            -66.163529,
            -17.352892
          ],
          [
            -66.163062,
            -17.352423
          ],
          [
            -66.162604,
            -17.351946
          ],
          [
            -66.162132,
            -17.351491
          ]
        ]
      }
    }
  ]
}