{
  "type": "FeatureCollection",
  "features": [
    {
      "type": "Feature",
      "properties": {
        "route_id": "9466783",
        "route_short_name": "6",
        "route_long_name": "MiniBus 6: Avenida Conchupata \u2192 Avenida Sexta"
      },
      "geometry": {
        "type": "LineString",
        "coordinates": [
          [
            -66.112684,
            -17.442407
          ],
          [
            -66.11254,
            -17.44241
          ],
          [
            -66.112645,
            -17.441835
          ],
          [
            -66.112749,
            -17.441267
          ],
          [
            -66.112865,
            -17.44063
          ],
          [
            -66.112904,
            -17.440414
          ],
          [
            -66.112926,
            -17.440295
          ],
          [
            -66.113032,
            -17.439714
          ],
          [
            -66.113136,
            -17.439144
          ],
          [
            -66.113202,
            -17.438781
          ],
          [
            -66.113312,
            -17.438175
          ],
          [
            -66.1134,
            -17.437691
          ],
          [
            -66.113493,
            -17.437184
          ],
          [
            -66.113643,
            -17.437199
          ],
          [
            -66.113999,
            -17.437241
          ],
          [
            -66.114351,
            -17.437258
          ],
          [
            -66.114718,
            -17.437236
          ],
          [
            -66.11495,
            -17.43719
          ],
          [
            -66.115249,
            -17.437119
          ],
          [
            -66.115424,
            -17.437095
          ],
          [
            -66.11581,
            -17.437047
          ],
          [
            -66.11625,
            -17.436984
          ],
          [
            -66.116403,
            -17.436971
          ],
          [
            -66.116888,
            -17.436908
          ],
          [
            -66.117033,
            -17.436897
          ],
          [
            -66.117025,
            -17.436666
          ],
          [
            -66.117377,
            -17.436567
          ],
          [
            -66.117656,
            -17.4365
          ],
          [
            -66.117877,
            -17.436427
          ],
          [
            -66.118311,
            -17.436324
          ],
          [
            -66.118658,
            -17.436274
          ],
          [
            -66.118881,
            -17.436265
          ],
          [
            -66.119428,
            -17.436245
          ],
          [
            -66.119452,
            -17.436953
          ],
          [
            -66.119618,
            -17.436949
          ],
          [
            -66.119619,
            -17.436666
          ],
          [
            -66.119605,
            -17.436177
          ],
          [
            -66.119584,
            -17.435961
          ],
          [
            -66.119568,
            -17.435838
          ],
          [
            -66.119543,
            -17.435731
          ],
          [
            -66.119484,
            -17.435555
          ],
          [
            -66.119379,
            -17.435321
          ],
          [
            -66.119302,
            -17.43518
          ],
          [
            -66.120136,
            -17.435307
          ],
          [
            -66.121332,
            -17.435479
          ],
          [
            -66.122288,
            -17.435634
          ],
          [
            -66.122408,
            -17.434978
          ],
          [
            -66.122416,
            -17.434935
          ],
          [
            -66.122456,
            -17.434714
          ],
          [
            -66.122507,
            -17.434431
          ],
          [
            -66.122603,
            -17.433906
          ],
          [
            -66.122636,
            -17.433741
          ],
          [
            -66.122771,
            -17.432904
          ],
          [
            -66.122786,
            -17.432774
          ],
          [
            -66.122797,
            -17.432607
          ],
          [
            -66.122864,
            -17.431611
          ],
          [
            -66.122908,
            -17.430513
          ],
          [
            -66.122918,
            -17.430393
          ],
          [
            -66.123046,
            -17.428019
          ],
          [
            -66.123112,
            -17.428024
          ],
          [
            -66.123923,
            -17.428068
          ],
          [
            -66.124419,
            -17.428095
          ],
          [
            -66.124932,
            -17.428128
          ],
          [
            -66.125593,
            -17.428163
          ],
          [
            -66.125824,
            -17.428178
          ],
          [
            -66.126499,
            -17.428214
          ],
          [
            -66.127263,
            -17.428253
          ],
          [
            -66.127325,
            -17.427086
          ],
          [
            -66.127365,
            -17.42646
          ],
          [
            -66.127397,
            -17.425843
          ],
          [
            -66.127445,
            -17.425096
          ],
          [
            -66.127473,
            -17.424608
          ],
          [
            -66.127534,
            -17.423379
          ],
          [
            -66.127537,
            -17.423267
          ],
          [
            -66.127573,
            -17.422605
          ],
          [
            -66.127616,
            -17.421952
          ],
          [
            -66.127629,
            -17.421844
          ],
          [
            -66.127691,
            -17.420741
          ],
          [
            -66.127723,
            -17.420229
          ],
          [
            -66.127728,
            -17.420146
          ],
          [
            -66.127769,
            -17.41937
          ],
          [
            -66.127796,
            -17.418859
          ],
          [
            -66.127799,
            -17.41878
          ],
          [
            -66.127826,
            -17.418415
          ],
          [
            -66.127858,
            -17.417848
          ],
          [
            -66.127877,
            -17.417503
          ],
          [
            -66.127889,
            -17.417399
          ],
          [
            -66.1279,
            -17.417307
          ],
          [
            -66.12792,
            -17.417225
          ],
          [
            -66.12803,
            -17.417245
          ],
          [
            -66.129019,
            -17.417452
          ],
          [
            -66.129154,
            -17.41748
          ],
          [
            -66.12923,
            -17.417496
          ],
          [
            -66.129383,
            -17.417523
          ],
          [
            -66.129752,
            -17.41759
          ],
          [
            -66.130032,
            -17.41764
          ],
          [
            -66.1301,
            -17.417653
          ],
          [
            -66.131171,
            -17.41786
          ],
          [
            -66.131335,
            -17.417887
          ],
          [
            -66.131538,
            -17.417924
          ],
          [
            -66.131723,
            -17.417968
          ],
          [
            -66.131823,
            -17.417997
          ],
          [
            -66.131912,
            -17.418026
          ],
          [
            -66.132003,
            -17.418063
          ],
          [
            -66.132112,
            -17.41811
          ],
          [
            -66.132255,
            -17.418183
          ],
          [
            -66.13238,
            -17.418252
          ],
          [
            -66.132515,
            -17.41833
          ],
          [
            -66.132684,
            -17.418436
          ],
          [
            -66.132797,
            -17.418513
          ],
          [
            -66.13291,
            -17.41859
          ],
          [
            -66.133085,
            -17.418716
          ],
          [
            -66.133355,
            -17.418903
          ],
          [
            -66.133474,
            -17.418972
          ],
          [
            -66.133583,
            -17.419026
          ],
          [
            -66.133717,
            -17.419075
          ],
          [
            -66.133855,
            -17.419122
          ],
          [
            -66.13396,
            -17.41915
          ],
          [
            -66.134041,
            -17.419167
          ],
          [
            -66.134151,
            -17.419181
          ],
          [
            -66.134309,
            -17.419182
          ],
          [
            -66.134495,
            -17.419177
          ],
          [
            -66.134671,
            -17.419155
          ],
          [
            -66.134877,
            -17.419115
          ],
          [
            -66.135064,
            -17.419053
          ],
          [
            -66.135256,
            -17.418975
          ],
          [
            -66.135453,
            -17.418858
          ],
          [
            -66.135609,
            -17.418751
          ],
          [
            -66.135655,
            -17.418799
          ],
          [
            -66.135756,
            -17.418902
          ],
          [
            -66.136016,
            -17.419149
          ],
          [
            -66.13651,
            -17.419631
          ],
          [
            -66.136788,
            -17.419864
          ],
          [
            -66.137249,
            -17.420269
          ],
          [
            -66.137542,
            -17.420525
          ],
          [
            -66.138048,
            -17.420984
          ],
          [
            -66.138717,
            -17.420301
          ],
          [
            -66.13927,
            -17.419722
          ],
          [
            -66.139333,
            -17.419662
          ],
          [
            -66.139364,
            -17.419632
          ],
          [
            -66.139437,
            -17.419575
          ],
          [
            -66.139517,
            -17.419513
          ],
          [
            -66.139553,
            -17.419487
          ],
          [
            -66.139593,
            -17.419466
          ],
          [
            -66.139635,
            -17.419451
          ],
          [
            -66.139679,
            -17.419442
          ],
          [
            -66.139724,
            -17.419441
          ],
          [
            -66.139769,
            -17.419445
          ],
          [
            -66.139813,
            -17.419456
          ],
          [
            -66.139918,
            -17.419494
          ],
          [
            -66.139964,
            -17.419511
          ],
          [
            -66.140017,
            -17.419521
          ],
          [
            -66.140052,
            -17.419522
          ],
          [
            -66.140073,
            -17.419523
          ],
          [
            -66.140258,
            -17.419512
          ],
          [
            -66.140515,
            -17.419497
          ],
          [
            -66.1409,
            -17.419475
          ],
          [
            -66.141492,
            -17.419443
          ],
          [
            -66.142106,
            -17.419412
          ],
          [
            -66.142722,
            -17.419376
          ],
          [
            -66.143133,
            -17.419356
          ],
          [
            -66.143227,
            -17.419372
          ],
          [
            -66.143291,
            -17.4194
          ],
          [
            -66.143395,
            -17.419458
          ],
          [
            -66.143463,
            -17.419485
          ],
          [
            -66.143516,
            -17.419503
          ],
          [
            -66.143572,
            -17.419509
          ],
          [
            -66.143944,
            -17.419493
          ],
          [
            -66.144559,
            -17.41945
          ],
          [
            -66.14468,
            -17.419442
          ],
          [
            -66.14559,
            -17.419387
          ],
          [
            -66.145995,
            -17.419362
          ],
          [
            -66.146369,
            -17.419342
          ],
          [
            -66.147011,
            -17.419302
          ],
          [
            -66.147611,
            -17.419268
          ],
          [
            -66.148208,
            -17.419229
          ],
          [
            -66.148651,
            -17.419206
          ],
          [
            -66.148764,
            -17.419206
          ],
          [
            -66.148856,
            -17.419217
          ],
          [
            -66.149125,
            -17.419273
          ],
          [
            -66.149195,
            -17.419259
          ],
          [
            -66.14924,
            -17.419241
          ],
          [
            -66.149277,
            -17.41922
          ],
          [
            -66.149359,
            -17.419166
          ],
          [
            -66.149809,
            -17.418529
          ],
          [
            -66.150034,
            -17.418204
          ],
          [
            -66.150075,
            -17.418125
          ],
          [
            -66.150099,
            -17.418058
          ],
          [
            -66.150125,
            -17.417964
          ],
          [
            -66.150198,
            -17.417568
          ],
          [
            -66.1503,
            -17.417085
          ],
          [
            -66.150368,
            -17.416656
          ],
          [
            -66.150383,
            -17.416561
          ],
          [
            -66.150385,
            -17.416487
          ],
          [
            -66.150362,
            -17.416201
          ],
          [
            -66.150333,
            -17.415936
          ],
          [
            -66.150312,
            -17.415788
          ],
          [
            -66.150279,
            -17.41562
          ],
          [
            -66.150222,
            -17.415457
          ],
          [
            -66.150147,
            -17.415268
          ],
          [
            -66.150048,
            -17.415089
          ],
          [
            -66.149916,
            -17.414881
          ],
          [
            -66.149759,
            -17.414696
          ],
          [
            -66.149592,
            -17.41452
          ],
          [
            -66.149357,
            -17.414242
          ],
          [
            -66.150334,
            -17.41372
          ],
          [
            -66.151179,
            -17.413273
          ],
          [
            -66.151109,
            -17.412696
          ],
          [
            -66.151068,
            -17.412381
          ],
          [
            -66.151041,
            -17.411901
          ],
          [
            -66.150983,
            -17.41141
          ],
          [
            -66.150856,
            -17.410413
          ],
          [
            -66.150787,
            -17.409593
          ],
          [
            -66.150772,
            -17.409345
          ],
          [
            -66.150746,
            -17.408778
          ],
          [
            -66.150722,
            -17.408425
          ],
          [
            -66.150694,
            -17.407638
          ],
          [
            -66.150771,
            -17.404984
          ],
          [
            -66.150768,
            -17.404973
          ],
          [
            -66.150766,
            -17.40496
          ],
          [
            -66.150768,
            -17.404947
          ],
          [
            -66.150773,
            -17.404936
          ],
          [
            -66.150781,
            -17.404925
          ],
          [
            -66.150847,
            -17.404629
          ],
          [
            -66.150896,
            -17.404378
          ],
          [
            -66.150927,
            -17.403979
          ],
          [
            -66.150924,
            -17.403489
          ],
          [
            -66.150914,
            -17.403316
          ],
          [
            -66.150874,
            -17.402585
          ],
          [
            -66.150867,
            -17.402385
          ],
          [
            -66.150883,
            -17.402211
          ],
          [
            -66.150914,
            -17.402076
          ],
          [
            -66.150949,
            -17.401945
          ],
          [
            -66.151026,
            -17.401798
          ],
          [
            -66.151171,
            -17.401522
          ],
          [
            -66.151179,
            -17.401503
          ],
          [
            -66.151186,
            -17.401446
          ],
          [
            -66.15122,
            -17.401284
          ],
          [
            -66.151222,
            -17.401146
          ],
          [
            -66.151208,
            -17.401011
          ],
          [
            -66.151194,
            -17.400919
          ],
          [
            -66.15116,
            -17.400784
          ],
          [
            -66.151108,
            -17.400672
          ],
          [
            -66.151067,
            -17.400598
          ],
          [
            -66.151,
            -17.400493
          ],
          [
            -66.150916,
            -17.400394
          ],
          [
            -66.150843,
            -17.400317
          ],
          [
            -66.150872,
            -17.400238
          ],
          [
            -66.150904,
            -17.400106
          ],
          [
            -66.150921,
            -17.399952
          ],
          [
            -66.150986,
            -17.399285
          ],
          [
            -66.151085,
            -17.39854
          ],
          [
            -66.15109,
            -17.398457
          ],
          [
            -66.151156,
            -17.397775
          ],
          [
            -66.15131,
            -17.396615
          ],
          [
            -66.151505,
            -17.395543
          ],
          [
            -66.151571,
            -17.395216
          ],
          [
            -66.151709,
            -17.394524
          ],
          [
            -66.151906,
            -17.393465
          ],
          [
            -66.152094,
            -17.392431
          ],
          [
            -66.152271,
            -17.391539
          ],
          [
            -66.152286,
            -17.391471
          ],
          [
            -66.152305,
            -17.391382
          ],
          [
            -66.152382,
            -17.391394
          ],
          [
            -66.152895,
            -17.391491
          ],
          [
            -66.153323,
            -17.391576
          ],
          [
            -66.153374,
            -17.391585
          ],
          [
            -66.153422,
            -17.391594
          ],
          [
            -66.154042,
            -17.391704
          ],
          [
            -66.154453,
            -17.391776
          ],
          [
            -66.154518,
            -17.391787
          ],
          [
            -66.154597,
            -17.3918
          ],
          [
            -66.155536,
            -17.391967
          ],
          [
            -66.155601,
            -17.391978
          ],
          [
            -66.155662,
            -17.391988
          ],
          [
            -66.156629,
            -17.39217
          ],
          [
            -66.156673,
            -17.392178
          ],
          [
            -66.156727,
            -17.392187
          ],
          [
            -66.157322,
            -17.392289
          ],
          [
            -66.157699,
            -17.392354
          ],
          [
            -66.157753,
            -17.392363
          ],
          [
            -66.157797,
            -17.392371
          ],
          [
            -66.158706,
            -17.392529
          ],
          [
            -66.158786,
            -17.392542
          ],
          [
            -66.158879,
            -17.392559
          ],
          [
            -66.15894,
            -17.39257
          ],
          [
            -66.159876,
            -17.392724
          ],
          [
            -66.15992,
            -17.392731
          ],
          [
            -66.159972,
            -17.39274
          ],
          [
            -66.161004,
            -17.392913
          ],
          [
            -66.161061,
            -17.392926
          ],
          [
            -66.161129,
            -17.392944
          ],
          [
            -66.161993,
            -17.393095
          ],
          [
            -66.162063,
            -17.393107
          ],
          [
            -66.162213,
            -17.391989
          ],
          [
            -66.162294,
            -17.391444
          ],
          [
            -66.162316,
            -17.391302
          ],
          [
            -66.162375,
            -17.390901
          ],
          [
            -66.162385,
            -17.39084
          ],
          [
            -66.162464,
            -17.39029
          ],
          [
            -66.162501,
            -17.390033
          ],
          [
            -66.162511,
            -17.389961
          ],
          [
            -66.16252,
            -17.3899
          ],
          [
            -66.16253,
            -17.389833
          ],
          [
            -66.162677,
            -17.388798
          ],
          [
            -66.162686,
            -17.388749
          ],
          [
            -66.162695,
            -17.388683
          ],
          [
            -66.162761,
            -17.3883
          ],
          [
            -66.162821,
            -17.387901
          ],
          [
            -66.162829,
            -17.387845
          ],
          [
            -66.162891,
            -17.387855
          ],
          [
            -66.163743,
            -17.388
          ],
          [
            -66.163796,
            -17.387988
          ],
          [
            -66.163884,
            -17.387961
          ],
          [
            -66.163957,
            -17.387933
          ],
          [
            -66.164175,
            -17.387854
          ],
          [
            -66.164332,
            -17.387795
          ],
          [
            -66.164394,
            -17.387774
          ],
          [
            -66.164877,
            -17.387582
          ],
          [
            -66.165077,
            -17.387474
          ],
          [
            -66.165576,
            -17.387283
          ],
          [
            -66.165672,
            -17.387244
          ],
          [
            -66.165773,
            -17.387183
          ],
          [
            -66.16588,
            -17.387087
          ],
          [
            -66.16594,
            -17.387011
          ],
          [
            -66.166123,
            -17.386783
          ],
          [
            -66.166447,
            -17.386384
          ],
          [
            -66.166545,
            -17.386262
          ],
          [
            -66.166587,
            -17.386208
          ],
          [
            -66.167051,
            -17.385656
          ],
          [
            -66.167583,
            -17.385032
          ],
          [
            -66.168019,
            -17.385542
          ],
          [
            -66.168376,
            -17.385925
          ],
          [
            -66.168537,
            -17.386122
          ],
          [
            -66.169206,
            -17.386945
          ],
          [
            -66.170303,
            -17.387008
          ],
          [
            -66.170385,
            -17.387012
          ],
          [
            -66.170482,
            -17.387445
          ],
          [
            -66.170503,
            -17.387515
          ],
          [
            -66.170534,
            -17.38756
          ],
          [
            -66.170643,
            -17.387709
          ],
          [
            -66.170676,
            -17.387755
          ],
          [
            -66.170736,
            -17.387795
          ],
          [
            -66.170797,
            -17.387809
          ],
          [
            -66.172111,
            -17.387874
          ],
          [
            -66.173571,
            -17.387952
          ],
          [
            -66.173642,
            -17.387955
          ],
          [
            -66.173733,
            -17.387959
          ],
          [
            -66.173797,
            -17.387961
          ],
          [
            -66.174686,
            -17.387988
          ],
          [
            -66.174756,
            -17.38799
          ],
          [
            -66.17484,
            -17.38799
          ],
          [
            -66.176363,
            -17.387987
          ],
          [
            -66.177663,
            -17.387961
          ],
          [
            -66.177753,
            -17.387961
          ],
          [
            -66.177876,
            -17.38796
          ],
          [
            -66.178638,
            -17.38796
          ],
          [
            -66.178701,
            -17.387951
          ],
          [
            -66.178744,
            -17.387939
          ],
          [
            -66.178837,
            -17.387891
          ],
          [
            -66.17885,
            -17.387871
          ],
          [
            -66.17889,
            -17.387833
          ],
          [
            -66.17896,
            -17.387803
          ],
          [
            -66.179033,
            -17.387799
          ],
          [
            -66.179102,
            -17.387823
          ],
          [
            -66.179228,
            -17.387831
          ],
          [
            -66.17966,
            -17.3878
          ],
          [
            -66.180048,
            -17.387777
          ],
          [
            -66.181038,
            -17.387718
          ],
          [
            -66.181066,
            -17.387716
          ],
          [
            -66.181133,
            -17.387713
          ],
          [
            -66.181254,
            -17.387706
          ],
          [
            -66.181326,
            -17.38769
          ],
          [
            -66.181415,
            -17.387653
          ],
          [
            -66.181862,
            -17.387468
          ],
          [
            -66.181955,
            -17.387426
          ],
          [
            -66.182015,
            -17.387392
          ],
          [
            -66.182028,
            -17.387382
          ],
          [
            -66.18209,
            -17.387333
          ],
          [
            -66.182098,
            -17.387311
          ],
          [
            -66.182111,
            -17.387285
          ],
          [
            -66.182147,
            -17.387246
          ],
          [
            -66.182182,
            -17.38723
          ],
          [
            -66.182214,
            -17.387217
          ],
          [
            -66.182246,
            -17.387213
          ],
          [
            -66.182297,
            -17.387221
          ],
          [
            -66.182343,
            -17.387243
          ],
          [
            -66.182379,
            -17.387279
          ],
          [
            -66.182402,
            -17.387323
          ],
          [
            -66.182408,
            -17.387372
          ],
          [
            -66.182411,
            -17.38741
          ],
          [
            -66.18242,
            -17.387525
          ],
          [
            -66.182428,
            -17.387549
          ],
          [
            -66.182526,
            -17.387829
          ],
          [
            -66.183768,
            -17.387265
          ],
          [
            -66.183981,
            -17.387677
          ],
          [
            -66.184854,
            -17.387285
          ],
          [
            -66.185708,
            -17.389012
          ],
          [
            -66.185843,
            -17.388991
          ],
          [
            -66.185923,
            -17.388973
          ],
          [
            -66.186027,
            -17.388948
          ],
          [
            -66.186634,
            -17.388766
          ],
          [
            -66.187334,
            -17.388564
          ],
          [
            -66.188038,
            -17.388358
          ],
          [
            -66.188109,
            -17.388336
          ],
          [
            -66.188224,
            -17.3883
          ],
          [
            -66.188344,
            -17.388245
          ],
          [
            -66.188575,
            -17.388187
          ],
          [
            -66.18869,
            -17.388187
          ],
          [
            -66.188756,
            -17.38813
          ],
          [
            -66.188807,
            -17.388071
          ],
          [
            -66.189086,
            -17.387683
          ],
          [
            -66.18921,
            -17.3875
          ],
          [
            -66.189273,
            -17.38745
          ],
          [
            -66.18933,
            -17.387415
          ],
          [
            -66.189697,
            -17.38733
          ],
          [
            -66.189833,
            -17.387292
          ],
          [
            -66.190121,
            -17.387223
          ],
          [
            -66.19044,
            -17.387034
          ],
          [
            -66.190567,
            -17.388086
          ],
          [
            -66.19063,
            -17.388601
          ],
          [
            -66.190664,
            -17.388808
          ],
          [
            -66.190703,
            -17.389105
          ],
          [
            -66.190768,
            -17.389435
          ],
          [
            -66.190795,
            -17.389561
          ],
          [
            -66.190877,
            -17.389715
          ],
          [
            -66.192429,
            -17.389657
          ],
          [
            -66.193664,
            -17.389603
          ],
          [
            -66.193642,
            -17.389443
          ],
          [
            -66.194182,
            -17.389462
          ],
          [
            -66.193982,
            -17.38796
          ],
          [
            -66.195192,
            -17.387953
          ],
          [
            -66.195099,
            -17.387402
          ],
          [
            -66.195026,
            -17.386876
          ],
          [
            -66.194902,
            -17.386876
          ],
          [
            -66.194889,
            -17.386748
          ],
          [
            -66.195431,
            -17.386737
          ],
          [
            -66.195566,
            -17.386754
          ],
          [
            -66.195801,
            -17.386805
          ],
          [
            -66.196285,
            -17.386933
          ],
          [
            -66.19636,
            -17.386941
          ],
          [
            -66.19645,
            -17.386944
          ],
          [
            -66.196599,
            -17.386922
          ],
          [
            -66.197097,
            -17.386778
          ],
          [
            -66.197282,
            -17.386715
          ],
          [
            -66.197908,
            -17.386421
          ],
          [
            -66.198564,
            -17.386093
          ],
          [
            -66.198916,
            -17.385924
          ],
          [
            -66.199029,
            -17.385861
          ],
          [
            -66.199096,
            -17.385817
          ],
          [
            -66.199112,
            -17.385804
          ],
          [
            -66.199129,
            -17.385795
          ],
          [
            -66.199149,
            -17.38579
          ],
          [
            -66.199169,
            -17.385789
          ],
          [
            -66.199227,
            -17.385782
          ],
          [
            -66.199281,
            -17.385776
          ],
          [
            -66.199364,
            -17.385756
          ],
          [
            -66.199493,
            -17.385716
          ],
          [
            -66.199946,
            -17.385564
          ],
          [
            -66.200226,
            -17.385476
          ],
          [
            -66.20149,
            -17.385061
          ],
          [
            -66.201775,
            -17.384939
          ],
          [
            -66.202319,
            -17.384695
          ],
          [
            -66.202498,
            -17.384627
          ],
          [
            -66.202759,
            -17.384563
          ],
          [
            -66.202753,
            -17.383591
          ],
          [
            -66.203293,
            -17.383561
          ],
          [
            -66.203991,
            -17.383471
          ],
          [
            -66.204396,
            -17.383439
          ],
          [
            -66.205159,
            -17.38338
          ],
          [
            -66.206688,
            -17.38326
          ],
          [
            -66.206751,
            -17.383194
          ],
          [
            -66.206853,
            -17.383058
          ],
          [
            -66.207024,
            -17.383091
          ],
          [
            -66.207784,
            -17.383069
          ],
          [
            -66.207903,
            -17.383032
          ]
        ]
      }
    }
  ]
}