{
  "type": "FeatureCollection",
  "features": [
    {
      "type": "Feature",
      "properties": {
        "route_id": "10688684",
        "route_short_name": "8",
        "route_long_name": "MiniBus 8: Lomas de Santa B\u00e1rbara \u2192 El Abra"
      },
      "geometry": {
        "type": "LineString",
        "coordinates": [
          [
            -66.101161,
            -17.45917
          ],
          [
            -66.101213,
            -17.459259
          ],
          [
            -66.101682,
            -17.459755
          ],
          [
            -66.102125,
            -17.460208
          ],
          [
            -66.102566,
            -17.460659
          ],
          [
            -66.103025,
            -17.461128
          ],
          [
            -66.103426,
            -17.461538
          ],
          [
            -66.1034,
            -17.461818
          ],
          [
            -66.103394,
            -17.46193
          ],
          [
            -66.103944,
            -17.462018
          ],
          [
            -66.104492,
            -17.462132
          ],
          [
            -66.105049,
            -17.462239
          ],
          [
            -66.105587,
            -17.462356
          ],
          [
            -66.106168,
            -17.462476
          ],
          [
            -66.106747,
            -17.46259
          ],
          [
            -66.107308,
            -17.4627
          ],
          [
            -66.10786,
            -17.462836
          ],
          [
            -66.107818,
            -17.463272
          ],
          [
            -66.107784,
            -17.46361
          ],
          [
            -66.107762,
            -17.463838
          ],
          [
            -66.10774,
            -17.463925
          ],
          [
            -66.107709,
            -17.464018
          ],
          [
            -66.107622,
            -17.464164
          ],
          [
            -66.107537,
            -17.464278
          ],
          [
            -66.107224,
            -17.464696
          ],
          [
            -66.107159,
            -17.464797
          ],
          [
            -66.106863,
            -17.465251
          ],
          [
            -66.106804,
            -17.465323
          ],
          [
            -66.106772,
            -17.465385
          ],
          [
            -66.106748,
            -17.465468
          ],
          [
            -66.10669,
            -17.46562
          ],
          [
            -66.106667,
            -17.465687
          ],
          [
            -66.106641,
            -17.465738
          ],
          [
            -66.106599,
            -17.465782
          ],
          [
            -66.106522,
            -17.465843
          ],
          [
            -66.106434,
            -17.465905
          ],
          [
            -66.106308,
            -17.465983
          ],
          [
            -66.106049,
            -17.466125
          ],
          [
            -66.105929,
            -17.466176
          ],
          [
            -66.105829,
            -17.466203
          ],
          [
            -66.105709,
            -17.466224
          ],
          [
            -66.105643,
            -17.466241
          ],
          [
            -66.105594,
            -17.466266
          ],
          [
            -66.105569,
            -17.466296
          ],
          [
            -66.105577,
            -17.46634
          ],
          [
            -66.105606,
            -17.466363
          ],
          [
            -66.105689,
            -17.466383
          ],
          [
            -66.105886,
            -17.466409
          ],
          [
            -66.106019,
            -17.46641
          ],
          [
            -66.106222,
            -17.466394
          ],
          [
            -66.106436,
            -17.466346
          ],
          [
            -66.106579,
            -17.466302
          ],
          [
            -66.106782,
            -17.466226
          ],
          [
            -66.106873,
            -17.46618
          ],
          [
            -66.106962,
            -17.466131
          ],
          [
            -66.10703,
            -17.4661
          ],
          [
            -66.107068,
            -17.466096
          ],
          [
            -66.107102,
            -17.46611
          ],
          [
            -66.107117,
            -17.466149
          ],
          [
            -66.10711,
            -17.466197
          ],
          [
            -66.107052,
            -17.466289
          ],
          [
            -66.106956,
            -17.466408
          ],
          [
            -66.106873,
            -17.466501
          ],
          [
            -66.106737,
            -17.466626
          ],
          [
            -66.106697,
            -17.466671
          ],
          [
            -66.106688,
            -17.466707
          ],
          [
            -66.106622,
            -17.46678
          ],
          [
            -66.106513,
            -17.466872
          ],
          [
            -66.106331,
            -17.466974
          ],
          [
            -66.105957,
            -17.467185
          ],
          [
            -66.105916,
            -17.467218
          ],
          [
            -66.105898,
            -17.467254
          ],
          [
            -66.105902,
            -17.46729
          ],
          [
            -66.105929,
            -17.467348
          ],
          [
            -66.10598,
            -17.467392
          ],
          [
            -66.106039,
            -17.467415
          ],
          [
            -66.106112,
            -17.467428
          ],
          [
            -66.106638,
            -17.467446
          ],
          [
            -66.10668,
            -17.467455
          ],
          [
            -66.106713,
            -17.467472
          ],
          [
            -66.106726,
            -17.46749
          ],
          [
            -66.106728,
            -17.467531
          ],
          [
            -66.106709,
            -17.467586
          ],
          [
            -66.106675,
            -17.467638
          ],
          [
            -66.106629,
            -17.467711
          ],
          [
            -66.106647,
            -17.467788
          ],
          [
            -66.106683,
            -17.467848
          ],
          [
            -66.106924,
            -17.468205
          ],
          [
            -66.106993,
            -17.468315
          ],
          [
            -66.10725,
            -17.46869
          ],
          [
            -66.107355,
            -17.468838
          ],
          [
            -66.107701,
            -17.469318
          ],
          [
            -66.107823,
            -17.469493
          ],
          [
            -66.107956,
            -17.469671
          ],
          [
            -66.107994,
            -17.46971
          ],
          [
            -66.108032,
            -17.469732
          ],
          [
            -66.108082,
            -17.469727
          ],
          [
            -66.108122,
            -17.4697
          ],
          [
            -66.108997,
            -17.468934
          ],
          [
            -66.109255,
            -17.468672
          ],
          [
            -66.109418,
            -17.468541
          ],
          [
            -66.109574,
            -17.468407
          ],
          [
            -66.109637,
            -17.468336
          ],
          [
            -66.109672,
            -17.468286
          ],
          [
            -66.109701,
            -17.468208
          ],
          [
            -66.109796,
            -17.468018
          ],
          [
            -66.10994,
            -17.468615
          ],
          [
            -66.109979,
            -17.468706
          ],
          [
            -66.110025,
            -17.468767
          ],
          [
            -66.110073,
            -17.468801
          ],
          [
            -66.110124,
            -17.468829
          ],
          [
            -66.110178,
            -17.468847
          ],
          [
            -66.110715,
            -17.468822
          ],
          [
            -66.110971,
            -17.468831
          ],
          [
            -66.111048,
            -17.46882
          ],
          [
            -66.111129,
            -17.468784
          ],
          [
            -66.111332,
            -17.46867
          ],
          [
            -66.111479,
            -17.468588
          ],
          [
            -66.11162,
            -17.468482
          ],
          [
            -66.111688,
            -17.468446
          ],
          [
            -66.111727,
            -17.468442
          ],
          [
            -66.111763,
            -17.468454
          ],
          [
            -66.111799,
            -17.468494
          ],
          [
            -66.112348,
            -17.469369
          ],
          [
            -66.112905,
            -17.468697
          ],
          [
            -66.113297,
            -17.468208
          ],
          [
            -66.113536,
            -17.467918
          ],
          [
            -66.11366,
            -17.467999
          ],
          [
            -66.113757,
            -17.468045
          ],
          [
            -66.114146,
            -17.468294
          ],
          [
            -66.114829,
            -17.468707
          ],
          [
            -66.114905,
            -17.468719
          ],
          [
            -66.114993,
            -17.468705
          ],
          [
            -66.11513,
            -17.468626
          ],
          [
            -66.115181,
            -17.468525
          ],
          [
            -66.115793,
            -17.467429
          ],
          [
            -66.11598,
            -17.467106
          ],
          [
            -66.11607,
            -17.466958
          ],
          [
            -66.11618,
            -17.466843
          ],
          [
            -66.116262,
            -17.466752
          ],
          [
            -66.116338,
            -17.466681
          ],
          [
            -66.116496,
            -17.466554
          ],
          [
            -66.116604,
            -17.466499
          ],
          [
            -66.11668,
            -17.466463
          ],
          [
            -66.116755,
            -17.466429
          ],
          [
            -66.116871,
            -17.466383
          ],
          [
            -66.117068,
            -17.466329
          ],
          [
            -66.117229,
            -17.466287
          ],
          [
            -66.11764,
            -17.466216
          ],
          [
            -66.117793,
            -17.466189
          ],
          [
            -66.118109,
            -17.466143
          ],
          [
            -66.118401,
            -17.466071
          ],
          [
            -66.118655,
            -17.465985
          ],
          [
            -66.118803,
            -17.46592
          ],
          [
            -66.118943,
            -17.465852
          ],
          [
            -66.119192,
            -17.465703
          ],
          [
            -66.119438,
            -17.465531
          ],
          [
            -66.119627,
            -17.465363
          ],
          [
            -66.11978,
            -17.465213
          ],
          [
            -66.119927,
            -17.465038
          ],
          [
            -66.120068,
            -17.464837
          ],
          [
            -66.120178,
            -17.464653
          ],
          [
            -66.120274,
            -17.464472
          ],
          [
            -66.120365,
            -17.464281
          ],
          [
            -66.120456,
            -17.464082
          ],
          [
            -66.12068,
            -17.463592
          ],
          [
            -66.120911,
            -17.463111
          ],
          [
            -66.121155,
            -17.462639
          ],
          [
            -66.12135,
            -17.462354
          ],
          [
            -66.121491,
            -17.462167
          ],
          [
            -66.12163,
            -17.461994
          ],
          [
            -66.121735,
            -17.461868
          ],
          [
            -66.121954,
            -17.461639
          ],
          [
            -66.122083,
            -17.461505
          ],
          [
            -66.122164,
            -17.46142
          ],
          [
            -66.122544,
            -17.461012
          ],
          [
            -66.122996,
            -17.46051
          ],
          [
            -66.12312,
            -17.460351
          ],
          [
            -66.123408,
            -17.459883
          ],
          [
            -66.123682,
            -17.459417
          ],
          [
            -66.123804,
            -17.459195
          ],
          [
            -66.124028,
            -17.458785
          ],
          [
            -66.124195,
            -17.458502
          ],
          [
            -66.124393,
            -17.458109
          ],
          [
            -66.125568,
            -17.456066
          ],
          [
            -66.125897,
            -17.455572
          ],
          [
            -66.126188,
            -17.455183
          ],
          [
            -66.126664,
            -17.45462
          ],
          [
            -66.127191,
            -17.453987
          ],
          [
            -66.127962,
            -17.453075
          ],
          [
            -66.128382,
            -17.452514
          ],
          [
            -66.128491,
            -17.452378
          ],
          [
            -66.128562,
            -17.452286
          ],
          [
            -66.128783,
            -17.45203
          ],
          [
            -66.128923,
            -17.451867
          ],
          [
            -66.129084,
            -17.451678
          ],
          [
            -66.129172,
            -17.451584
          ],
          [
            -66.129268,
            -17.451476
          ],
          [
            -66.129421,
            -17.451316
          ],
          [
            -66.129881,
            -17.450858
          ],
          [
            -66.129982,
            -17.450757
          ],
          [
            -66.130618,
            -17.450121
          ],
          [
            -66.130782,
            -17.449974
          ],
          [
            -66.130959,
            -17.449803
          ],
          [
            -66.13116,
            -17.449613
          ],
          [
            -66.1314,
            -17.449402
          ],
          [
            -66.131888,
            -17.448994
          ],
          [
            -66.13232,
            -17.448667
          ],
          [
            -66.132568,
            -17.448487
          ],
          [
            -66.133177,
            -17.448063
          ],
          [
            -66.13367,
            -17.447749
          ],
          [
            -66.133908,
            -17.447598
          ],
          [
            -66.13404,
            -17.447537
          ],
          [
            -66.134149,
            -17.44747
          ],
          [
            -66.134288,
            -17.447363
          ],
          [
            -66.13444,
            -17.447242
          ],
          [
            -66.134495,
            -17.447198
          ],
          [
            -66.134577,
            -17.447132
          ],
          [
            -66.134636,
            -17.447098
          ],
          [
            -66.134763,
            -17.44703
          ],
          [
            -66.134881,
            -17.446972
          ],
          [
            -66.135221,
            -17.446811
          ],
          [
            -66.135289,
            -17.446792
          ],
          [
            -66.135333,
            -17.44678
          ],
          [
            -66.135387,
            -17.446752
          ],
          [
            -66.135619,
            -17.446631
          ],
          [
            -66.135901,
            -17.446479
          ],
          [
            -66.136955,
            -17.445887
          ],
          [
            -66.137257,
            -17.445718
          ],
          [
            -66.13744,
            -17.445616
          ],
          [
            -66.138862,
            -17.444822
          ],
          [
            -66.139624,
            -17.444395
          ],
          [
            -66.140103,
            -17.444109
          ],
          [
            -66.140457,
            -17.443862
          ],
          [
            -66.140692,
            -17.443673
          ],
          [
            -66.140781,
            -17.443601
          ],
          [
            -66.14103,
            -17.443375
          ],
          [
            -66.142246,
            -17.442256
          ],
          [
            -66.14231,
            -17.442201
          ],
          [
            -66.142369,
            -17.44213
          ],
          [
            -66.142401,
            -17.442078
          ],
          [
            -66.142428,
            -17.442036
          ],
          [
            -66.142501,
            -17.441906
          ],
          [
            -66.142527,
            -17.44187
          ],
          [
            -66.14259,
            -17.441802
          ],
          [
            -66.142675,
            -17.441719
          ],
          [
            -66.142714,
            -17.441686
          ],
          [
            -66.142785,
            -17.441626
          ],
          [
            -66.14298,
            -17.441488
          ],
          [
            -66.143297,
            -17.441275
          ],
          [
            -66.143397,
            -17.441185
          ],
          [
            -66.143469,
            -17.441114
          ],
          [
            -66.143557,
            -17.441029
          ],
          [
            -66.143597,
            -17.440978
          ],
          [
            -66.143624,
            -17.440944
          ],
          [
            -66.14382,
            -17.440699
          ],
          [
            -66.143995,
            -17.440435
          ],
          [
            -66.144193,
            -17.440106
          ],
          [
            -66.144212,
            -17.440072
          ],
          [
            -66.144457,
            -17.439626
          ],
          [
            -66.144856,
            -17.438912
          ],
          [
            -66.144978,
            -17.438688
          ],
          [
            -66.145084,
            -17.438519
          ],
          [
            -66.145178,
            -17.438354
          ],
          [
            -66.14525,
            -17.438213
          ],
          [
            -66.145299,
            -17.438096
          ],
          [
            -66.145345,
            -17.437993
          ],
          [
            -66.145387,
            -17.437914
          ],
          [
            -66.145442,
            -17.437807
          ],
          [
            -66.145486,
            -17.437727
          ],
          [
            -66.145575,
            -17.437613
          ],
          [
            -66.145697,
            -17.437464
          ],
          [
            -66.145918,
            -17.437209
          ],
          [
            -66.146114,
            -17.436949
          ],
          [
            -66.147339,
            -17.4353
          ],
          [
            -66.147476,
            -17.435112
          ],
          [
            -66.147932,
            -17.434489
          ],
          [
            -66.148213,
            -17.434112
          ],
          [
            -66.148527,
            -17.43369
          ],
          [
            -66.148831,
            -17.433281
          ],
          [
            -66.14923,
            -17.432744
          ],
          [
            -66.149392,
            -17.432521
          ],
          [
            -66.150031,
            -17.431682
          ],
          [
            -66.150076,
            -17.431623
          ],
          [
            -66.150243,
            -17.431364
          ],
          [
            -66.150367,
            -17.431185
          ],
          [
            -66.150423,
            -17.431105
          ],
          [
            -66.150532,
            -17.430913
          ],
          [
            -66.150748,
            -17.430506
          ],
          [
            -66.150812,
            -17.430366
          ],
          [
            -66.150909,
            -17.430102
          ],
          [
            -66.150968,
            -17.429915
          ],
          [
            -66.15102,
            -17.429817
          ],
          [
            -66.151054,
            -17.429752
          ],
          [
            -66.151107,
            -17.429634
          ],
          [
            -66.151205,
            -17.429472
          ],
          [
            -66.151295,
            -17.429342
          ],
          [
            -66.151366,
            -17.429247
          ],
          [
            -66.151432,
            -17.429182
          ],
          [
            -66.151507,
            -17.429114
          ],
          [
            -66.152039,
            -17.428621
          ],
          [
            -66.152461,
            -17.42822
          ],
          [
            -66.1527,
            -17.427972
          ],
          [
            -66.152909,
            -17.427711
          ],
          [
            -66.153068,
            -17.427467
          ],
          [
            -66.153295,
            -17.427048
          ],
          [
            -66.153379,
            -17.426876
          ],
          [
            -66.153435,
            -17.426736
          ],
          [
            -66.153524,
            -17.426482
          ],
          [
            -66.153587,
            -17.426263
          ],
          [
            -66.153693,
            -17.425864
          ],
          [
            -66.153745,
            -17.425652
          ],
          [
            -66.153775,
            -17.425501
          ],
          [
            -66.15379,
            -17.425373
          ],
          [
            -66.153814,
            -17.424963
          ],
          [
            -66.153816,
            -17.424643
          ],
          [
            -66.153814,
            -17.424367
          ],
          [
            -66.153794,
            -17.423956
          ],
          [
            -66.153761,
            -17.423641
          ],
          [
            -66.153701,
            -17.42324
          ],
          [
            -66.153533,
            -17.422413
          ],
          [
            -66.153476,
            -17.422187
          ],
          [
            -66.153432,
            -17.42206
          ],
          [
            -66.15339,
            -17.421973
          ],
          [
            -66.153312,
            -17.421854
          ],
          [
            -66.153211,
            -17.421764
          ],
          [
            -66.153182,
            -17.42174
          ],
          [
            -66.153087,
            -17.421646
          ],
          [
            -66.153042,
            -17.421593
          ],
          [
            -66.153019,
            -17.421547
          ],
          [
            -66.153006,
            -17.421501
          ],
          [
            -66.153007,
            -17.421454
          ],
          [
            -66.153021,
            -17.421409
          ],
          [
            -66.153036,
            -17.421351
          ],
          [
            -66.153057,
            -17.421267
          ],
          [
            -66.153065,
            -17.421166
          ],
          [
            -66.153057,
            -17.421039
          ],
          [
            -66.153031,
            -17.420896
          ],
          [
            -66.152931,
            -17.420655
          ],
          [
            -66.152796,
            -17.420382
          ],
          [
            -66.152612,
            -17.419982
          ],
          [
            -66.152597,
            -17.419952
          ],
          [
            -66.152478,
            -17.419719
          ],
          [
            -66.152314,
            -17.419402
          ],
          [
            -66.152183,
            -17.419166
          ],
          [
            -66.151813,
            -17.418523
          ],
          [
            -66.151701,
            -17.418313
          ],
          [
            -66.151593,
            -17.418084
          ],
          [
            -66.151559,
            -17.417976
          ],
          [
            -66.151539,
            -17.417899
          ],
          [
            -66.151529,
            -17.417838
          ],
          [
            -66.151521,
            -17.417765
          ],
          [
            -66.151517,
            -17.417669
          ],
          [
            -66.151517,
            -17.417625
          ],
          [
            -66.151519,
            -17.417497
          ],
          [
            -66.151536,
            -17.417316
          ],
          [
            -66.151545,
            -17.417199
          ],
          [
            -66.15157,
            -17.417081
          ],
          [
            -66.151569,
            -17.417045
          ],
          [
            -66.151577,
            -17.417011
          ],
          [
            -66.151572,
            -17.416849
          ],
          [
            -66.151556,
            -17.416545
          ],
          [
            -66.151454,
            -17.415614
          ],
          [
            -66.151448,
            -17.415552
          ],
          [
            -66.151276,
            -17.414022
          ],
          [
            -66.151261,
            -17.413878
          ],
          [
            -66.151179,
            -17.413273
          ],
          [
            -66.151109,
            -17.412696
          ],
          [
            -66.151068,
            -17.412381
          ],
          [
            -66.151041,
            -17.411901
          ],
          [
            -66.150983,
            -17.41141
          ],
          [
            -66.150856,
            -17.410413
          ],
          [
            -66.150787,
            -17.409593
          ],
          [
            -66.150772,
            -17.409345
          ],
          [
            -66.150746,
            -17.408778
          ],
          [
            -66.150722,
            -17.408425
          ],
          [
            -66.150694,
            -17.407638
          ],
          [
            -66.150771,
            -17.404984
          ],
          [
            -66.150768,
            -17.404973
          ],
          [
            -66.150766,
            -17.40496
          ],
          [
            -66.150768,
            -17.404947
          ],
          [
            -66.150773,
            -17.404936
          ],
          [
            -66.150781,
            -17.404925
          ],
          [
            -66.150847,
            -17.404629
          ],
          [
            -66.150896,
            -17.404378
          ],
          [
            -66.150927,
            -17.403979
          ],
          [
            -66.150924,
            -17.403489
          ],
          [
            -66.150914,
            -17.403316
          ],
          [
            -66.150874,
            -17.402585
          ],
          [
            -66.150867,
            -17.402385
          ],
          [
            -66.150883,
            -17.402211
          ],
          [
            -66.150914,
            -17.402076
          ],
          [
            -66.150949,
            -17.401945
          ],
          [
            -66.151026,
            -17.401798
          ],
          [
            -66.151171,
            -17.401522
          ],
          [
            -66.151179,
            -17.401503
          ],
          [
            -66.151186,
            -17.401446
          ],
          [
            -66.15122,
            -17.401284
          ],
          [
            -66.151222,
            -17.401146
          ],
          [
            -66.151208,
            -17.401011
          ],
          [
            -66.151194,
            -17.400919
          ],
          [
            -66.15116,
            -17.400784
          ],
          [
            -66.151108,
            -17.400672
          ],
          [
            -66.151067,
            -17.400598
          ],
          [
            -66.151,
            -17.400493
          ],
          [
            -66.150916,
            -17.400394
          ],
          [
            -66.150843,
            -17.400317
          ],
          [
            -66.150872,
            -17.400238
          ],
          [
            -66.150904,
            -17.400106
          ],
          [
            -66.150921,
            -17.399952
          ],
          [
            -66.150986,
            -17.399285
          ],
          [
            -66.151085,
            -17.39854
          ],
          [
            -66.15109,
            -17.398457
          ],
          [
            -66.151156,
            -17.397775
          ],
          [
            -66.15131,
            -17.396615
          ],
          [
            -66.151505,
            -17.395543
          ],
          [
            -66.150442,
            -17.395355
          ],
          [
            -66.149464,
            -17.395183
          ],
          [
            -66.149211,
            -17.395138
          ],
          [
            -66.149167,
            -17.395129
          ],
          [
            -66.149183,
            -17.395061
          ],
          [
            -66.149237,
            -17.394778
          ],
          [
            -66.149304,
            -17.394431
          ],
          [
            -66.149356,
            -17.394142
          ],
          [
            -66.149354,
            -17.394092
          ],
          [
            -66.149356,
            -17.394018
          ],
          [
            -66.149548,
            -17.393105
          ],
          [
            -66.149557,
            -17.393052
          ],
          [
            -66.14957,
            -17.392986
          ],
          [
            -66.149753,
            -17.392078
          ],
          [
            -66.149763,
            -17.392027
          ],
          [
            -66.149774,
            -17.391967
          ],
          [
            -66.149858,
            -17.391506
          ],
          [
            -66.149937,
            -17.391102
          ],
          [
            -66.149952,
            -17.391033
          ],
          [
            -66.149959,
            -17.390989
          ],
          [
            -66.149967,
            -17.390948
          ],
          [
            -66.149981,
            -17.390874
          ],
          [
            -66.150176,
            -17.389914
          ],
          [
            -66.150161,
            -17.38987
          ],
          [
            -66.150144,
            -17.389838
          ],
          [
            -66.150125,
            -17.389809
          ],
          [
            -66.150106,
            -17.389779
          ],
          [
            -66.150077,
            -17.389743
          ],
          [
            -66.149859,
            -17.389437
          ],
          [
            -66.149627,
            -17.389111
          ],
          [
            -66.149445,
            -17.388837
          ],
          [
            -66.149307,
            -17.388624
          ],
          [
            -66.14858,
            -17.387599
          ],
          [
            -66.148459,
            -17.387413
          ],
          [
            -66.148433,
            -17.387373
          ],
          [
            -66.148333,
            -17.387224
          ],
          [
            -66.148305,
            -17.387189
          ],
          [
            -66.147941,
            -17.386654
          ],
          [
            -66.147566,
            -17.386131
          ],
          [
            -66.147513,
            -17.38605
          ],
          [
            -66.147457,
            -17.385965
          ],
          [
            -66.147405,
            -17.385889
          ],
          [
            -66.146332,
            -17.384319
          ],
          [
            -66.146263,
            -17.384218
          ],
          [
            -66.146249,
            -17.3842
          ],
          [
            -66.146244,
            -17.384193
          ],
          [
            -66.146221,
            -17.384158
          ],
          [
            -66.146135,
            -17.384032
          ],
          [
            -66.145632,
            -17.383295
          ],
          [
            -66.145069,
            -17.382472
          ],
          [
            -66.144975,
            -17.382339
          ],
          [
            -66.144265,
            -17.381317
          ],
          [
            -66.144201,
            -17.381221
          ],
          [
            -66.143856,
            -17.380725
          ],
          [
            -66.143137,
            -17.379675
          ],
          [
            -66.142995,
            -17.379451
          ],
          [
            -66.142953,
            -17.379385
          ],
          [
            -66.142886,
            -17.379299
          ],
          [
            -66.142853,
            -17.379261
          ],
          [
            -66.142811,
            -17.379233
          ],
          [
            -66.142747,
            -17.379208
          ],
          [
            -66.142498,
            -17.379121
          ],
          [
            -66.14244,
            -17.379107
          ],
          [
            -66.14238,
            -17.379106
          ],
          [
            -66.142315,
            -17.37911
          ],
          [
            -66.142275,
            -17.379112
          ],
          [
            -66.142249,
            -17.37912
          ],
          [
            -66.142215,
            -17.379123
          ],
          [
            -66.14218,
            -17.379117
          ],
          [
            -66.142153,
            -17.379102
          ],
          [
            -66.142131,
            -17.379086
          ],
          [
            -66.142117,
            -17.379066
          ],
          [
            -66.142104,
            -17.379036
          ],
          [
            -66.142105,
            -17.378998
          ],
          [
            -66.142109,
            -17.378933
          ],
          [
            -66.142124,
            -17.378772
          ],
          [
            -66.142183,
            -17.378166
          ],
          [
            -66.142186,
            -17.378133
          ],
          [
            -66.142201,
            -17.377951
          ],
          [
            -66.142189,
            -17.377901
          ],
          [
            -66.142173,
            -17.377847
          ],
          [
            -66.142129,
            -17.377757
          ],
          [
            -66.142093,
            -17.377702
          ],
          [
            -66.142045,
            -17.377647
          ],
          [
            -66.141913,
            -17.377531
          ],
          [
            -66.141836,
            -17.377468
          ],
          [
            -66.141773,
            -17.37742
          ],
          [
            -66.141709,
            -17.377378
          ],
          [
            -66.141283,
            -17.377271
          ],
          [
            -66.140656,
            -17.377104
          ],
          [
            -66.140125,
            -17.376967
          ],
          [
            -66.139821,
            -17.376891
          ],
          [
            -66.13932,
            -17.376765
          ],
          [
            -66.13909,
            -17.376694
          ],
          [
            -66.138899,
            -17.376631
          ],
          [
            -66.138653,
            -17.376542
          ],
          [
            -66.138421,
            -17.376449
          ],
          [
            -66.138135,
            -17.376318
          ],
          [
            -66.137861,
            -17.376186
          ],
          [
            -66.137543,
            -17.376019
          ],
          [
            -66.13752,
            -17.376008
          ],
          [
            -66.137172,
            -17.375795
          ],
          [
            -66.137143,
            -17.375777
          ],
          [
            -66.136593,
            -17.37541
          ],
          [
            -66.136414,
            -17.375293
          ],
          [
            -66.136325,
            -17.375234
          ],
          [
            -66.136068,
            -17.375072
          ],
          [
            -66.135847,
            -17.374948
          ],
          [
            -66.135669,
            -17.374866
          ],
          [
            -66.135451,
            -17.374785
          ],
          [
            -66.135217,
            -17.37472
          ],
          [
            -66.135007,
            -17.374673
          ],
          [
            -66.134778,
            -17.374635
          ],
          [
            -66.134522,
            -17.374611
          ],
          [
            -66.134332,
            -17.374611
          ],
          [
            -66.133264,
            -17.374608
          ],
          [
            -66.132129,
            -17.374607
          ],
          [
            -66.131903,
            -17.374608
          ],
          [
            -66.131871,
            -17.37461
          ],
          [
            -66.131338,
            -17.374608
          ],
          [
            -66.131179,
            -17.374602
          ],
          [
            -66.130955,
            -17.374604
          ],
          [
            -66.130783,
            -17.374607
          ],
          [
            -66.13054,
            -17.37462
          ],
          [
            -66.130316,
            -17.37466
          ],
          [
            -66.130107,
            -17.374703
          ],
          [
            -66.129922,
            -17.374758
          ],
          [
            -66.129819,
            -17.374792
          ],
          [
            -66.129692,
            -17.374848
          ],
          [
            -66.129616,
            -17.374893
          ],
          [
            -66.129547,
            -17.374952
          ],
          [
            -66.129499,
            -17.375006
          ],
          [
            -66.129452,
            -17.37506
          ],
          [
            -66.129379,
            -17.375134
          ],
          [
            -66.129319,
            -17.375189
          ],
          [
            -66.129294,
            -17.375212
          ],
          [
            -66.129258,
            -17.375237
          ],
          [
            -66.129218,
            -17.375255
          ],
          [
            -66.129101,
            -17.375289
          ],
          [
            -66.129012,
            -17.375302
          ],
          [
            -66.128935,
            -17.375315
          ],
          [
            -66.128886,
            -17.375327
          ],
          [
            -66.128812,
            -17.375356
          ],
          [
            -66.128766,
            -17.375381
          ],
          [
            -66.12866,
            -17.375444
          ],
          [
            -66.128525,
            -17.375535
          ],
          [
            -66.128314,
            -17.375685
          ],
          [
            -66.127645,
            -17.376159
          ],
          [
            -66.127395,
            -17.37634
          ],
          [
            -66.127167,
            -17.376498
          ],
          [
            -66.125716,
            -17.3775
          ],
          [
            -66.12482,
            -17.378111
          ],
          [
            -66.124194,
            -17.378542
          ],
          [
            -66.123518,
            -17.378986
          ],
          [
            -66.122702,
            -17.379518
          ],
          [
            -66.122536,
            -17.379624
          ],
          [
            -66.122254,
            -17.379812
          ],
          [
            -66.121879,
            -17.380054
          ],
          [
            -66.121282,
            -17.380452
          ],
          [
            -66.121208,
            -17.380501
          ],
          [
            -66.120926,
            -17.380704
          ],
          [
            -66.120891,
            -17.380739
          ],
          [
            -66.120766,
            -17.380863
          ],
          [
            -66.12066,
            -17.381007
          ],
          [
            -66.120494,
            -17.381222
          ],
          [
            -66.120477,
            -17.381249
          ],
          [
            -66.120419,
            -17.381373
          ],
          [
            -66.120196,
            -17.381709
          ],
          [
            -66.120166,
            -17.381791
          ],
          [
            -66.119812,
            -17.382278
          ],
          [
            -66.119323,
            -17.382991
          ],
          [
            -66.118712,
            -17.383847
          ],
          [
            -66.118146,
            -17.384686
          ],
          [
            -66.118089,
            -17.384767
          ],
          [
            -66.117871,
            -17.385099
          ],
          [
            -66.117814,
            -17.38523
          ],
          [
            -66.11781,
            -17.385259
          ],
          [
            -66.117796,
            -17.385285
          ],
          [
            -66.117775,
            -17.385306
          ],
          [
            -66.117747,
            -17.385318
          ],
          [
            -66.117717,
            -17.385322
          ],
          [
            -66.117648,
            -17.385342
          ],
          [
            -66.116928,
            -17.385843
          ],
          [
            -66.116451,
            -17.386147
          ],
          [
            -66.116385,
            -17.386193
          ],
          [
            -66.116302,
            -17.386241
          ],
          [
            -66.115308,
            -17.386913
          ],
          [
            -66.115235,
            -17.386961
          ],
          [
            -66.115173,
            -17.387004
          ],
          [
            -66.114223,
            -17.38763
          ],
          [
            -66.113735,
            -17.387956
          ],
          [
            -66.113269,
            -17.38826
          ],
          [
            -66.113129,
            -17.38833
          ],
          [
            -66.112,
            -17.388727
          ],
          [
            -66.110801,
            -17.389027
          ],
          [
            -66.111115,
            -17.390355
          ],
          [
            -66.111513,
            -17.391994
          ],
          [
            -66.111529,
            -17.392062
          ],
          [
            -66.111912,
            -17.393553
          ],
          [
            -66.111957,
            -17.393721
          ],
          [
            -66.112114,
            -17.394387
          ],
          [
            -66.112151,
            -17.394531
          ],
          [
            -66.112174,
            -17.394634
          ],
          [
            -66.112431,
            -17.395636
          ],
          [
            -66.1125,
            -17.395911
          ],
          [
            -66.112546,
            -17.396155
          ],
          [
            -66.112571,
            -17.396339
          ],
          [
            -66.112735,
            -17.397584
          ],
          [
            -66.112805,
            -17.39856
          ],
          [
            -66.11283,
            -17.398844
          ],
          [
            -66.112816,
            -17.399061
          ],
          [
            -66.112653,
            -17.399409
          ],
          [
            -66.112392,
            -17.399978
          ],
          [
            -66.111524,
            -17.40182
          ],
          [
            -66.111249,
            -17.401871
          ],
          [
            -66.110697,
            -17.401966
          ],
          [
            -66.109897,
            -17.402123
          ],
          [
            -66.109535,
            -17.402185
          ],
          [
            -66.109096,
            -17.402261
          ],
          [
            -66.109054,
            -17.402508
          ],
          [
            -66.109008,
            -17.402876
          ],
          [
            -66.109008,
            -17.402879
          ],
          [
            -66.108941,
            -17.403417
          ],
          [
            -66.108865,
            -17.404031
          ],
          [
            -66.108831,
            -17.404402
          ],
          [
            -66.10877,
            -17.404916
          ]
        ]
      }
    }
  ]
}