{
  "type": "FeatureCollection",
  "features": [
    {
      "type": "Feature",
      "properties": {
        "route_id": "10688865",
        "route_short_name": "9",
        "route_long_name": "MiniBus 9: San Marcos \u2192 Calle Mar\u00eda Nu\u00f1ez del Prado"
      },
      "geometry": {
        "type": "LineString",
        "coordinates": [
          [
            -66.167422,
            -17.441341
          ],
          [
            -66.167552,
            -17.441892
          ],
          [
            -66.167275,
            -17.441939
          ],
          [
            -66.167128,
            -17.441969
          ],
          [
            -66.16643,
            -17.441989
          ],
          [
            -66.166111,
            -17.442009
          ],
          [
            -66.165263,
            -17.442089
          ],
          [
            -66.165024,
            -17.442103
          ],
          [
            -66.164756,
            -17.442117
          ],
          [
            -66.164156,
            -17.442198
          ],
          [
            -66.163422,
            -17.442325
          ],
          [
            -66.163313,
            -17.442347
          ],
          [
            -66.163241,
            -17.442187
          ],
          [
            -66.162809,
            -17.441181
          ],
          [
            -66.162796,
            -17.44115
          ],
          [
            -66.162757,
            -17.441037
          ],
          [
            -66.162708,
            -17.440849
          ],
          [
            -66.162591,
            -17.440242
          ],
          [
            -66.162563,
            -17.440095
          ],
          [
            -66.162551,
            -17.439951
          ],
          [
            -66.162515,
            -17.439734
          ],
          [
            -66.16242,
            -17.439307
          ],
          [
            -66.162407,
            -17.439205
          ],
          [
            -66.162381,
            -17.439068
          ],
          [
            -66.162339,
            -17.438851
          ],
          [
            -66.162283,
            -17.43856
          ],
          [
            -66.162361,
            -17.438545
          ],
          [
            -66.162685,
            -17.438476
          ],
          [
            -66.162679,
            -17.438029
          ],
          [
            -66.162723,
            -17.437905
          ],
          [
            -66.162726,
            -17.437574
          ],
          [
            -66.162729,
            -17.436933
          ],
          [
            -66.162745,
            -17.436304
          ],
          [
            -66.162754,
            -17.435664
          ],
          [
            -66.162763,
            -17.435018
          ],
          [
            -66.162778,
            -17.43396
          ],
          [
            -66.162646,
            -17.433943
          ],
          [
            -66.162556,
            -17.43394
          ],
          [
            -66.162443,
            -17.433952
          ],
          [
            -66.16238,
            -17.433963
          ],
          [
            -66.162243,
            -17.433968
          ],
          [
            -66.162188,
            -17.433961
          ],
          [
            -66.162138,
            -17.43394
          ],
          [
            -66.162061,
            -17.433885
          ],
          [
            -66.16202,
            -17.433837
          ],
          [
            -66.161991,
            -17.433775
          ],
          [
            -66.162012,
            -17.433223
          ],
          [
            -66.162034,
            -17.432531
          ],
          [
            -66.162075,
            -17.431263
          ],
          [
            -66.162142,
            -17.430155
          ],
          [
            -66.162153,
            -17.429958
          ],
          [
            -66.162175,
            -17.429906
          ],
          [
            -66.162214,
            -17.429841
          ],
          [
            -66.162251,
            -17.429785
          ],
          [
            -66.162345,
            -17.429787
          ],
          [
            -66.162498,
            -17.429796
          ],
          [
            -66.163498,
            -17.428942
          ],
          [
            -66.163624,
            -17.428834
          ],
          [
            -66.163722,
            -17.428752
          ],
          [
            -66.164567,
            -17.428015
          ],
          [
            -66.165351,
            -17.427318
          ],
          [
            -66.165478,
            -17.427207
          ],
          [
            -66.165709,
            -17.427006
          ],
          [
            -66.165998,
            -17.426738
          ],
          [
            -66.166034,
            -17.426692
          ],
          [
            -66.166058,
            -17.42664
          ],
          [
            -66.166063,
            -17.426589
          ],
          [
            -66.166075,
            -17.426407
          ],
          [
            -66.166113,
            -17.426073
          ],
          [
            -66.166114,
            -17.426025
          ],
          [
            -66.166222,
            -17.424838
          ],
          [
            -66.165824,
            -17.424805
          ],
          [
            -66.165395,
            -17.424793
          ],
          [
            -66.164686,
            -17.424766
          ],
          [
            -66.164224,
            -17.424743
          ],
          [
            -66.164222,
            -17.424259
          ],
          [
            -66.164198,
            -17.423786
          ],
          [
            -66.164199,
            -17.423327
          ],
          [
            -66.164207,
            -17.422851
          ],
          [
            -66.164208,
            -17.422284
          ],
          [
            -66.164069,
            -17.421422
          ],
          [
            -66.163955,
            -17.42071
          ],
          [
            -66.163844,
            -17.42001
          ],
          [
            -66.163725,
            -17.419286
          ],
          [
            -66.163608,
            -17.418564
          ],
          [
            -66.163518,
            -17.417852
          ],
          [
            -66.163395,
            -17.417119
          ],
          [
            -66.163434,
            -17.417112
          ],
          [
            -66.164744,
            -17.416919
          ],
          [
            -66.163422,
            -17.415869
          ],
          [
            -66.163346,
            -17.415814
          ],
          [
            -66.163227,
            -17.415748
          ],
          [
            -66.163055,
            -17.415679
          ],
          [
            -66.162912,
            -17.415645
          ],
          [
            -66.162775,
            -17.415622
          ],
          [
            -66.162619,
            -17.415592
          ],
          [
            -66.162474,
            -17.415602
          ],
          [
            -66.162331,
            -17.415572
          ],
          [
            -66.162204,
            -17.415505
          ],
          [
            -66.162101,
            -17.415407
          ],
          [
            -66.162031,
            -17.415285
          ],
          [
            -66.162,
            -17.415149
          ],
          [
            -66.161935,
            -17.414991
          ],
          [
            -66.161827,
            -17.414766
          ],
          [
            -66.161764,
            -17.414657
          ],
          [
            -66.161697,
            -17.414567
          ],
          [
            -66.161603,
            -17.414464
          ],
          [
            -66.161507,
            -17.414376
          ],
          [
            -66.160986,
            -17.413968
          ],
          [
            -66.16058,
            -17.413709
          ],
          [
            -66.159767,
            -17.413057
          ],
          [
            -66.159714,
            -17.413034
          ],
          [
            -66.159615,
            -17.413014
          ],
          [
            -66.159463,
            -17.413065
          ],
          [
            -66.158767,
            -17.413273
          ],
          [
            -66.158705,
            -17.413287
          ],
          [
            -66.158588,
            -17.413312
          ],
          [
            -66.158529,
            -17.413317
          ],
          [
            -66.157617,
            -17.413443
          ],
          [
            -66.157565,
            -17.41345
          ],
          [
            -66.157399,
            -17.413471
          ],
          [
            -66.156872,
            -17.413536
          ],
          [
            -66.156779,
            -17.413539
          ],
          [
            -66.156677,
            -17.413522
          ],
          [
            -66.15646,
            -17.413474
          ],
          [
            -66.156185,
            -17.413421
          ],
          [
            -66.155913,
            -17.413379
          ],
          [
            -66.155728,
            -17.413352
          ],
          [
            -66.155588,
            -17.413321
          ],
          [
            -66.155624,
            -17.413205
          ],
          [
            -66.155655,
            -17.413095
          ],
          [
            -66.155687,
            -17.412961
          ],
          [
            -66.155779,
            -17.412296
          ],
          [
            -66.15582,
            -17.412159
          ],
          [
            -66.155828,
            -17.412033
          ],
          [
            -66.155875,
            -17.411548
          ],
          [
            -66.155925,
            -17.411204
          ],
          [
            -66.155961,
            -17.411004
          ],
          [
            -66.155973,
            -17.410807
          ],
          [
            -66.155994,
            -17.410651
          ],
          [
            -66.156059,
            -17.410112
          ],
          [
            -66.156188,
            -17.40929
          ],
          [
            -66.156209,
            -17.409158
          ],
          [
            -66.156324,
            -17.408398
          ],
          [
            -66.156391,
            -17.407897
          ],
          [
            -66.156402,
            -17.407758
          ],
          [
            -66.156408,
            -17.407674
          ],
          [
            -66.156417,
            -17.407578
          ],
          [
            -66.156419,
            -17.407471
          ],
          [
            -66.156393,
            -17.407327
          ],
          [
            -66.156186,
            -17.406089
          ],
          [
            -66.155968,
            -17.40497
          ],
          [
            -66.155783,
            -17.404114
          ],
          [
            -66.155649,
            -17.403486
          ],
          [
            -66.155537,
            -17.402966
          ],
          [
            -66.155537,
            -17.402826
          ],
          [
            -66.155513,
            -17.402717
          ],
          [
            -66.155497,
            -17.402642
          ],
          [
            -66.155476,
            -17.402549
          ],
          [
            -66.155468,
            -17.402503
          ],
          [
            -66.155452,
            -17.402434
          ],
          [
            -66.155439,
            -17.402374
          ],
          [
            -66.15542,
            -17.402301
          ],
          [
            -66.155316,
            -17.402192
          ],
          [
            -66.155307,
            -17.401651
          ],
          [
            -66.155285,
            -17.401299
          ],
          [
            -66.155201,
            -17.400649
          ],
          [
            -66.155177,
            -17.40015
          ],
          [
            -66.155175,
            -17.400035
          ],
          [
            -66.155179,
            -17.39997
          ],
          [
            -66.155189,
            -17.399895
          ],
          [
            -66.155283,
            -17.399341
          ],
          [
            -66.155304,
            -17.399247
          ],
          [
            -66.155347,
            -17.39926
          ],
          [
            -66.156322,
            -17.399465
          ],
          [
            -66.156424,
            -17.399487
          ],
          [
            -66.156591,
            -17.399495
          ],
          [
            -66.156693,
            -17.399496
          ],
          [
            -66.156793,
            -17.39949
          ],
          [
            -66.157154,
            -17.39944
          ],
          [
            -66.157566,
            -17.399369
          ],
          [
            -66.157636,
            -17.399359
          ],
          [
            -66.157637,
            -17.399303
          ],
          [
            -66.157688,
            -17.398891
          ],
          [
            -66.157872,
            -17.397844
          ],
          [
            -66.157881,
            -17.397779
          ],
          [
            -66.157889,
            -17.39773
          ],
          [
            -66.158032,
            -17.396755
          ],
          [
            -66.158039,
            -17.396701
          ],
          [
            -66.158045,
            -17.396656
          ],
          [
            -66.158192,
            -17.395699
          ],
          [
            -66.158199,
            -17.395655
          ],
          [
            -66.158205,
            -17.395615
          ],
          [
            -66.158379,
            -17.394609
          ],
          [
            -66.158578,
            -17.393617
          ],
          [
            -66.158584,
            -17.393568
          ],
          [
            -66.15859,
            -17.393498
          ],
          [
            -66.158596,
            -17.393464
          ],
          [
            -66.158758,
            -17.392695
          ],
          [
            -66.15877,
            -17.392632
          ],
          [
            -66.158786,
            -17.392542
          ],
          [
            -66.158796,
            -17.392491
          ],
          [
            -66.159011,
            -17.391503
          ],
          [
            -66.159019,
            -17.391465
          ],
          [
            -66.159035,
            -17.391385
          ],
          [
            -66.159196,
            -17.390491
          ],
          [
            -66.159211,
            -17.39042
          ],
          [
            -66.159214,
            -17.390385
          ],
          [
            -66.159411,
            -17.389392
          ],
          [
            -66.15942,
            -17.389343
          ],
          [
            -66.159435,
            -17.389266
          ],
          [
            -66.159615,
            -17.388382
          ],
          [
            -66.159636,
            -17.388296
          ],
          [
            -66.159662,
            -17.388213
          ],
          [
            -66.159828,
            -17.387331
          ],
          [
            -66.15984,
            -17.387273
          ],
          [
            -66.160067,
            -17.386105
          ],
          [
            -66.160167,
            -17.38557
          ],
          [
            -66.160393,
            -17.384357
          ],
          [
            -66.160398,
            -17.384317
          ],
          [
            -66.160449,
            -17.384044
          ],
          [
            -66.160456,
            -17.384003
          ],
          [
            -66.160518,
            -17.383676
          ],
          [
            -66.160607,
            -17.383227
          ],
          [
            -66.160588,
            -17.383185
          ],
          [
            -66.160582,
            -17.383169
          ],
          [
            -66.160579,
            -17.383147
          ],
          [
            -66.160594,
            -17.383065
          ],
          [
            -66.160658,
            -17.382755
          ],
          [
            -66.160654,
            -17.382712
          ],
          [
            -66.160641,
            -17.38269
          ],
          [
            -66.160618,
            -17.382669
          ],
          [
            -66.160555,
            -17.382638
          ],
          [
            -66.160291,
            -17.382555
          ],
          [
            -66.160233,
            -17.382541
          ],
          [
            -66.160145,
            -17.382546
          ],
          [
            -66.160076,
            -17.382572
          ],
          [
            -66.159965,
            -17.382635
          ],
          [
            -66.159823,
            -17.382735
          ],
          [
            -66.159785,
            -17.382773
          ],
          [
            -66.159741,
            -17.382828
          ],
          [
            -66.159604,
            -17.382936
          ],
          [
            -66.159491,
            -17.383083
          ],
          [
            -66.159325,
            -17.383296
          ],
          [
            -66.159292,
            -17.383339
          ],
          [
            -66.159241,
            -17.383405
          ],
          [
            -66.15909,
            -17.383596
          ],
          [
            -66.158875,
            -17.383893
          ],
          [
            -66.158834,
            -17.383948
          ],
          [
            -66.158756,
            -17.383892
          ],
          [
            -66.158599,
            -17.383779
          ],
          [
            -66.158529,
            -17.383729
          ],
          [
            -66.158565,
            -17.383682
          ],
          [
            -66.159147,
            -17.382915
          ],
          [
            -66.159366,
            -17.382617
          ],
          [
            -66.159389,
            -17.382586
          ],
          [
            -66.159408,
            -17.382554
          ],
          [
            -66.159444,
            -17.382482
          ],
          [
            -66.159455,
            -17.382366
          ],
          [
            -66.159451,
            -17.382231
          ],
          [
            -66.159457,
            -17.382162
          ],
          [
            -66.159487,
            -17.382101
          ],
          [
            -66.159538,
            -17.382038
          ],
          [
            -66.159627,
            -17.381971
          ],
          [
            -66.159723,
            -17.381927
          ],
          [
            -66.159806,
            -17.38188
          ],
          [
            -66.159864,
            -17.381847
          ],
          [
            -66.159926,
            -17.381785
          ],
          [
            -66.159974,
            -17.381712
          ],
          [
            -66.159998,
            -17.381654
          ],
          [
            -66.160007,
            -17.381625
          ],
          [
            -66.160104,
            -17.381266
          ],
          [
            -66.160113,
            -17.381231
          ],
          [
            -66.160118,
            -17.381162
          ],
          [
            -66.160104,
            -17.381052
          ],
          [
            -66.160081,
            -17.380973
          ],
          [
            -66.160052,
            -17.380923
          ],
          [
            -66.160035,
            -17.380896
          ],
          [
            -66.160023,
            -17.380862
          ],
          [
            -66.160015,
            -17.380781
          ],
          [
            -66.160025,
            -17.380729
          ],
          [
            -66.160048,
            -17.38068
          ],
          [
            -66.160084,
            -17.38064
          ],
          [
            -66.160117,
            -17.380616
          ],
          [
            -66.160157,
            -17.380586
          ],
          [
            -66.160216,
            -17.380543
          ],
          [
            -66.160249,
            -17.380499
          ],
          [
            -66.160273,
            -17.380442
          ],
          [
            -66.160915,
            -17.378227
          ],
          [
            -66.160967,
            -17.378046
          ],
          [
            -66.160991,
            -17.377965
          ],
          [
            -66.161051,
            -17.377775
          ],
          [
            -66.16101,
            -17.377688
          ],
          [
            -66.16094,
            -17.377531
          ],
          [
            -66.160932,
            -17.377494
          ],
          [
            -66.160915,
            -17.377409
          ],
          [
            -66.160883,
            -17.376701
          ],
          [
            -66.16085,
            -17.375884
          ],
          [
            -66.160822,
            -17.375231
          ],
          [
            -66.160778,
            -17.374294
          ],
          [
            -66.160774,
            -17.373898
          ],
          [
            -66.160769,
            -17.373648
          ],
          [
            -66.160763,
            -17.373515
          ],
          [
            -66.160739,
            -17.373214
          ],
          [
            -66.160699,
            -17.373036
          ],
          [
            -66.160622,
            -17.372754
          ],
          [
            -66.160639,
            -17.372717
          ],
          [
            -66.160655,
            -17.37268
          ],
          [
            -66.160674,
            -17.372643
          ],
          [
            -66.160706,
            -17.372606
          ],
          [
            -66.160768,
            -17.372577
          ],
          [
            -66.161667,
            -17.372521
          ],
          [
            -66.162529,
            -17.372468
          ],
          [
            -66.162617,
            -17.372462
          ],
          [
            -66.162724,
            -17.372453
          ],
          [
            -66.162804,
            -17.372448
          ],
          [
            -66.163684,
            -17.37239
          ],
          [
            -66.16378,
            -17.372384
          ],
          [
            -66.165044,
            -17.372299
          ],
          [
            -66.165925,
            -17.37225
          ],
          [
            -66.166711,
            -17.372195
          ],
          [
            -66.167622,
            -17.372137
          ],
          [
            -66.16817,
            -17.372101
          ],
          [
            -66.168218,
            -17.37209
          ],
          [
            -66.168292,
            -17.372065
          ],
          [
            -66.168323,
            -17.372035
          ],
          [
            -66.168362,
            -17.372018
          ],
          [
            -66.168404,
            -17.372015
          ],
          [
            -66.168445,
            -17.372027
          ],
          [
            -66.16848,
            -17.372052
          ],
          [
            -66.168565,
            -17.372066
          ],
          [
            -66.168635,
            -17.372067
          ],
          [
            -66.16909,
            -17.372042
          ],
          [
            -66.1694,
            -17.372025
          ],
          [
            -66.169898,
            -17.371992
          ],
          [
            -66.170647,
            -17.371944
          ],
          [
            -66.171289,
            -17.371897
          ],
          [
            -66.171789,
            -17.371861
          ],
          [
            -66.171889,
            -17.371842
          ],
          [
            -66.171916,
            -17.371823
          ],
          [
            -66.171959,
            -17.371809
          ],
          [
            -66.172001,
            -17.371801
          ],
          [
            -66.172065,
            -17.371799
          ],
          [
            -66.172111,
            -17.371806
          ],
          [
            -66.17215,
            -17.371826
          ],
          [
            -66.172201,
            -17.371835
          ],
          [
            -66.172243,
            -17.371839
          ],
          [
            -66.17277,
            -17.371805
          ],
          [
            -66.17285,
            -17.371802
          ],
          [
            -66.172927,
            -17.371796
          ],
          [
            -66.173,
            -17.37179
          ],
          [
            -66.173294,
            -17.371774
          ],
          [
            -66.173596,
            -17.371757
          ],
          [
            -66.174253,
            -17.371713
          ],
          [
            -66.174907,
            -17.371667
          ],
          [
            -66.175621,
            -17.371624
          ],
          [
            -66.175696,
            -17.371619
          ],
          [
            -66.175805,
            -17.371612
          ],
          [
            -66.175904,
            -17.371606
          ],
          [
            -66.176998,
            -17.37154
          ],
          [
            -66.177691,
            -17.371491
          ],
          [
            -66.178259,
            -17.371456
          ],
          [
            -66.179692,
            -17.37136
          ],
          [
            -66.179872,
            -17.371348
          ],
          [
            -66.180184,
            -17.371329
          ],
          [
            -66.180258,
            -17.371326
          ],
          [
            -66.180312,
            -17.371323
          ],
          [
            -66.181198,
            -17.371273
          ],
          [
            -66.182976,
            -17.371168
          ],
          [
            -66.182928,
            -17.370456
          ],
          [
            -66.182882,
            -17.369692
          ],
          [
            -66.182876,
            -17.369495
          ],
          [
            -66.182861,
            -17.369399
          ],
          [
            -66.182818,
            -17.369295
          ],
          [
            -66.182554,
            -17.368854
          ],
          [
            -66.182086,
            -17.368093
          ],
          [
            -66.181879,
            -17.367708
          ],
          [
            -66.182146,
            -17.367567
          ],
          [
            -66.182417,
            -17.367463
          ],
          [
            -66.183056,
            -17.367809
          ],
          [
            -66.18316,
            -17.367593
          ],
          [
            -66.183046,
            -17.367218
          ],
          [
            -66.18288,
            -17.366494
          ],
          [
            -66.18284,
            -17.366324
          ],
          [
            -66.182851,
            -17.366275
          ],
          [
            -66.182883,
            -17.366258
          ],
          [
            -66.182934,
            -17.366216
          ],
          [
            -66.183128,
            -17.365724
          ],
          [
            -66.183188,
            -17.365656
          ],
          [
            -66.183197,
            -17.365611
          ],
          [
            -66.183176,
            -17.365564
          ],
          [
            -66.183093,
            -17.365218
          ],
          [
            -66.18308,
            -17.365156
          ],
          [
            -66.183005,
            -17.364701
          ],
          [
            -66.182982,
            -17.364579
          ],
          [
            -66.182857,
            -17.364071
          ],
          [
            -66.183294,
            -17.3639
          ],
          [
            -66.183742,
            -17.363729
          ],
          [
            -66.184813,
            -17.363312
          ],
          [
            -66.185166,
            -17.363175
          ],
          [
            -66.185732,
            -17.362949
          ],
          [
            -66.185535,
            -17.362464
          ],
          [
            -66.185494,
            -17.362427
          ],
          [
            -66.185448,
            -17.362402
          ],
          [
            -66.185402,
            -17.362395
          ],
          [
            -66.185359,
            -17.362377
          ],
          [
            -66.185316,
            -17.362335
          ],
          [
            -66.185284,
            -17.362294
          ],
          [
            -66.18526,
            -17.362248
          ],
          [
            -66.185231,
            -17.362189
          ],
          [
            -66.18521,
            -17.362142
          ],
          [
            -66.185199,
            -17.3621
          ],
          [
            -66.185203,
            -17.362066
          ],
          [
            -66.185216,
            -17.362037
          ],
          [
            -66.18522,
            -17.361981
          ],
          [
            -66.185224,
            -17.361925
          ],
          [
            -66.184826,
            -17.361303
          ],
          [
            -66.1865,
            -17.36045
          ],
          [
            -66.186693,
            -17.360352
          ],
          [
            -66.186774,
            -17.360313
          ],
          [
            -66.18683,
            -17.360266
          ],
          [
            -66.186776,
            -17.360197
          ],
          [
            -66.186189,
            -17.359323
          ],
          [
            -66.185867,
            -17.358805
          ],
          [
            -66.185984,
            -17.358741
          ],
          [
            -66.186882,
            -17.360111
          ],
          [
            -66.187176,
            -17.359731
          ],
          [
            -66.187451,
            -17.359388
          ],
          [
            -66.187482,
            -17.359345
          ],
          [
            -66.187632,
            -17.35916
          ],
          [
            -66.187681,
            -17.359116
          ],
          [
            -66.187744,
            -17.359075
          ],
          [
            -66.187913,
            -17.359018
          ],
          [
            -66.188234,
            -17.359407
          ],
          [
            -66.188276,
            -17.359458
          ],
          [
            -66.188555,
            -17.3598
          ],
          [
            -66.188558,
            -17.359822
          ],
          [
            -66.188502,
            -17.359887
          ],
          [
            -66.188811,
            -17.360292
          ],
          [
            -66.189532,
            -17.359712
          ],
          [
            -66.189573,
            -17.359682
          ],
          [
            -66.190276,
            -17.35912
          ],
          [
            -66.189889,
            -17.358246
          ],
          [
            -66.189397,
            -17.357118
          ]
        ]
      }
    }
  ]
}