{
  "type": "FeatureCollection",
  "features": [
    {
      "type": "Feature",
      "properties": {
        "route_id": "4269609",
        "route_short_name": "A",
        "route_long_name": "MicroBus A: R\u00edo Taqui\u00f1a \u2192 Villa Israel"
      },
      "geometry": {
        "type": "LineString",
        "coordinates": [
          [
            -66.187861,
            -17.332088
          ],
          [
            -66.187387,
            -17.332359
          ],
          [
            -66.18715,
            -17.332363
          ],
          [
            -66.187179,
            -17.332642
          ],
          [
            -66.187173,
            -17.332765
          ],
          [
            -66.187092,
            -17.332923
          ],
          [
            -66.187076,
            -17.33304
          ],
          [
            -66.186737,
            -17.333158
          ],
          [
            -66.186643,
            -17.33323
          ],
          [
            -66.186645,
            -17.333392
          ],
          [
            -66.186798,
            -17.333723
          ],
          [
            -66.186867,
            -17.333856
          ],
          [
            -66.186986,
            -17.334245
          ],
          [
            -66.187049,
            -17.334478
          ],
          [
            -66.187227,
            -17.335126
          ],
          [
            -66.18727,
            -17.335305
          ],
          [
            -66.187377,
            -17.335505
          ],
          [
            -66.18742,
            -17.335699
          ],
          [
            -66.187393,
            -17.336037
          ],
          [
            -66.187347,
            -17.336228
          ],
          [
            -66.187314,
            -17.336296
          ],
          [
            -66.18744,
            -17.337188
          ],
          [
            -66.187534,
            -17.337799
          ],
          [
            -66.187581,
            -17.33804
          ],
          [
            -66.187851,
            -17.338915
          ],
          [
            -66.188187,
            -17.339949
          ],
          [
            -66.1878,
            -17.340715
          ],
          [
            -66.187123,
            -17.342115
          ],
          [
            -66.186702,
            -17.342777
          ],
          [
            -66.183303,
            -17.343212
          ],
          [
            -66.183328,
            -17.343337
          ],
          [
            -66.183328,
            -17.343595
          ],
          [
            -66.183316,
            -17.343814
          ],
          [
            -66.183314,
            -17.344062
          ],
          [
            -66.183339,
            -17.344341
          ],
          [
            -66.182065,
            -17.344613
          ],
          [
            -66.180945,
            -17.344856
          ],
          [
            -66.180756,
            -17.344892
          ],
          [
            -66.180326,
            -17.344987
          ],
          [
            -66.17964,
            -17.345134
          ],
          [
            -66.179427,
            -17.345177
          ],
          [
            -66.179086,
            -17.345254
          ],
          [
            -66.178583,
            -17.345368
          ],
          [
            -66.178955,
            -17.346102
          ],
          [
            -66.17913,
            -17.34647
          ],
          [
            -66.179205,
            -17.346586
          ],
          [
            -66.179542,
            -17.346883
          ],
          [
            -66.179716,
            -17.347037
          ],
          [
            -66.179781,
            -17.347104
          ],
          [
            -66.179899,
            -17.347288
          ],
          [
            -66.179922,
            -17.347324
          ],
          [
            -66.179993,
            -17.347407
          ],
          [
            -66.180108,
            -17.347467
          ],
          [
            -66.180246,
            -17.347513
          ],
          [
            -66.180516,
            -17.347608
          ],
          [
            -66.180785,
            -17.347716
          ],
          [
            -66.180902,
            -17.347868
          ],
          [
            -66.181014,
            -17.348017
          ],
          [
            -66.181032,
            -17.348199
          ],
          [
            -66.181063,
            -17.348267
          ],
          [
            -66.181153,
            -17.348466
          ],
          [
            -66.181288,
            -17.348573
          ],
          [
            -66.181315,
            -17.348597
          ],
          [
            -66.181724,
            -17.349786
          ],
          [
            -66.182003,
            -17.350598
          ],
          [
            -66.18228,
            -17.351369
          ],
          [
            -66.182479,
            -17.351951
          ],
          [
            -66.182545,
            -17.352157
          ],
          [
            -66.182554,
            -17.352274
          ],
          [
            -66.18245,
            -17.352385
          ],
          [
            -66.182267,
            -17.352536
          ],
          [
            -66.181367,
            -17.353276
          ],
          [
            -66.180876,
            -17.353821
          ],
          [
            -66.180516,
            -17.354291
          ],
          [
            -66.180226,
            -17.354608
          ],
          [
            -66.180143,
            -17.354691
          ],
          [
            -66.179965,
            -17.354814
          ],
          [
            -66.179477,
            -17.355005
          ],
          [
            -66.179242,
            -17.355117
          ],
          [
            -66.178894,
            -17.355329
          ],
          [
            -66.178379,
            -17.355683
          ],
          [
            -66.177539,
            -17.356289
          ],
          [
            -66.177576,
            -17.356568
          ],
          [
            -66.177641,
            -17.357001
          ],
          [
            -66.177731,
            -17.357548
          ],
          [
            -66.17783,
            -17.358154
          ],
          [
            -66.177896,
            -17.358427
          ],
          [
            -66.178132,
            -17.359142
          ],
          [
            -66.178955,
            -17.361736
          ],
          [
            -66.178976,
            -17.361794
          ],
          [
            -66.179449,
            -17.361652
          ],
          [
            -66.179507,
            -17.361649
          ],
          [
            -66.179548,
            -17.361738
          ],
          [
            -66.179869,
            -17.362222
          ],
          [
            -66.180073,
            -17.362497
          ],
          [
            -66.180182,
            -17.362615
          ],
          [
            -66.180378,
            -17.363136
          ],
          [
            -66.180404,
            -17.363218
          ],
          [
            -66.180434,
            -17.363309
          ],
          [
            -66.179986,
            -17.36366
          ],
          [
            -66.179677,
            -17.3639
          ],
          [
            -66.179423,
            -17.364078
          ],
          [
            -66.179134,
            -17.364237
          ],
          [
            -66.178971,
            -17.364323
          ],
          [
            -66.178758,
            -17.364437
          ],
          [
            -66.178623,
            -17.364489
          ],
          [
            -66.178568,
            -17.364505
          ],
          [
            -66.178353,
            -17.364571
          ],
          [
            -66.177977,
            -17.364683
          ],
          [
            -66.176792,
            -17.365041
          ],
          [
            -66.176754,
            -17.365053
          ],
          [
            -66.176655,
            -17.365083
          ],
          [
            -66.176535,
            -17.365121
          ],
          [
            -66.176474,
            -17.365139
          ],
          [
            -66.17516,
            -17.365542
          ],
          [
            -66.175014,
            -17.365589
          ],
          [
            -66.174918,
            -17.365615
          ],
          [
            -66.174781,
            -17.365645
          ],
          [
            -66.173324,
            -17.36574
          ],
          [
            -66.171798,
            -17.365827
          ],
          [
            -66.17156,
            -17.365844
          ],
          [
            -66.171415,
            -17.365855
          ],
          [
            -66.171303,
            -17.365866
          ],
          [
            -66.17115,
            -17.365898
          ],
          [
            -66.170556,
            -17.366068
          ],
          [
            -66.17039,
            -17.366106
          ],
          [
            -66.170215,
            -17.366125
          ],
          [
            -66.169994,
            -17.366127
          ],
          [
            -66.169799,
            -17.366111
          ],
          [
            -66.169604,
            -17.366074
          ],
          [
            -66.169333,
            -17.365991
          ],
          [
            -66.169187,
            -17.365938
          ],
          [
            -66.168955,
            -17.365866
          ],
          [
            -66.168734,
            -17.36583
          ],
          [
            -66.168565,
            -17.365816
          ],
          [
            -66.167953,
            -17.365761
          ],
          [
            -66.167801,
            -17.365773
          ],
          [
            -66.167643,
            -17.365805
          ],
          [
            -66.1675,
            -17.365855
          ],
          [
            -66.166968,
            -17.366139
          ],
          [
            -66.166684,
            -17.366326
          ],
          [
            -66.166331,
            -17.366568
          ],
          [
            -66.166121,
            -17.366717
          ],
          [
            -66.165837,
            -17.366928
          ],
          [
            -66.165123,
            -17.367435
          ],
          [
            -66.164249,
            -17.368057
          ],
          [
            -66.164157,
            -17.368131
          ],
          [
            -66.164089,
            -17.368196
          ],
          [
            -66.164035,
            -17.368262
          ],
          [
            -66.16405,
            -17.368325
          ],
          [
            -66.164055,
            -17.368424
          ],
          [
            -66.164041,
            -17.368517
          ],
          [
            -66.164022,
            -17.368577
          ],
          [
            -66.163988,
            -17.368632
          ],
          [
            -66.163927,
            -17.368708
          ],
          [
            -66.163883,
            -17.368751
          ],
          [
            -66.163826,
            -17.368816
          ],
          [
            -66.163797,
            -17.368861
          ],
          [
            -66.163757,
            -17.368921
          ],
          [
            -66.163734,
            -17.368975
          ],
          [
            -66.163589,
            -17.369499
          ],
          [
            -66.16331,
            -17.370427
          ],
          [
            -66.162963,
            -17.371627
          ],
          [
            -66.16275,
            -17.372366
          ],
          [
            -66.162724,
            -17.372453
          ],
          [
            -66.162697,
            -17.372548
          ],
          [
            -66.162668,
            -17.372642
          ],
          [
            -66.162647,
            -17.372715
          ],
          [
            -66.16198,
            -17.375005
          ],
          [
            -66.161913,
            -17.37522
          ],
          [
            -66.161886,
            -17.375306
          ],
          [
            -66.161849,
            -17.375428
          ],
          [
            -66.161827,
            -17.375498
          ],
          [
            -66.161548,
            -17.376453
          ],
          [
            -66.161352,
            -17.377128
          ],
          [
            -66.161152,
            -17.377817
          ],
          [
            -66.1611,
            -17.377993
          ],
          [
            -66.161078,
            -17.378075
          ],
          [
            -66.161027,
            -17.378256
          ],
          [
            -66.160737,
            -17.379244
          ],
          [
            -66.160421,
            -17.380327
          ],
          [
            -66.160388,
            -17.380454
          ],
          [
            -66.160384,
            -17.380521
          ],
          [
            -66.160395,
            -17.380571
          ],
          [
            -66.160434,
            -17.380703
          ],
          [
            -66.160445,
            -17.380747
          ],
          [
            -66.160451,
            -17.380788
          ],
          [
            -66.160449,
            -17.380831
          ],
          [
            -66.160432,
            -17.380879
          ],
          [
            -66.160394,
            -17.380945
          ],
          [
            -66.160348,
            -17.381026
          ],
          [
            -66.160324,
            -17.381095
          ],
          [
            -66.160303,
            -17.381155
          ],
          [
            -66.160284,
            -17.381209
          ],
          [
            -66.160265,
            -17.381271
          ],
          [
            -66.160255,
            -17.381306
          ],
          [
            -66.160149,
            -17.381663
          ],
          [
            -66.160139,
            -17.381699
          ],
          [
            -66.160118,
            -17.381778
          ],
          [
            -66.160107,
            -17.381844
          ],
          [
            -66.1601,
            -17.381917
          ],
          [
            -66.160102,
            -17.382008
          ],
          [
            -66.160124,
            -17.382136
          ],
          [
            -66.160147,
            -17.382213
          ],
          [
            -66.160147,
            -17.382293
          ],
          [
            -66.160134,
            -17.382365
          ],
          [
            -66.160105,
            -17.382433
          ],
          [
            -66.160049,
            -17.382493
          ],
          [
            -66.159948,
            -17.382564
          ],
          [
            -66.159811,
            -17.382667
          ],
          [
            -66.159744,
            -17.382741
          ],
          [
            -66.1597,
            -17.382801
          ],
          [
            -66.159604,
            -17.382936
          ],
          [
            -66.159491,
            -17.383083
          ],
          [
            -66.159325,
            -17.383296
          ],
          [
            -66.159292,
            -17.383339
          ],
          [
            -66.159241,
            -17.383405
          ],
          [
            -66.15909,
            -17.383596
          ],
          [
            -66.158875,
            -17.383893
          ],
          [
            -66.158834,
            -17.383948
          ],
          [
            -66.158793,
            -17.384001
          ],
          [
            -66.158446,
            -17.38444
          ],
          [
            -66.158365,
            -17.384554
          ],
          [
            -66.158256,
            -17.384691
          ],
          [
            -66.158175,
            -17.384799
          ],
          [
            -66.158068,
            -17.38494
          ],
          [
            -66.158014,
            -17.385013
          ],
          [
            -66.157971,
            -17.385072
          ],
          [
            -66.157936,
            -17.385118
          ],
          [
            -66.157861,
            -17.385215
          ],
          [
            -66.157761,
            -17.385339
          ],
          [
            -66.157508,
            -17.385663
          ],
          [
            -66.156861,
            -17.38651
          ],
          [
            -66.156792,
            -17.386601
          ],
          [
            -66.156737,
            -17.386671
          ],
          [
            -66.156066,
            -17.387551
          ],
          [
            -66.156053,
            -17.387598
          ],
          [
            -66.15605,
            -17.387649
          ],
          [
            -66.156049,
            -17.387711
          ],
          [
            -66.156298,
            -17.387754
          ],
          [
            -66.156283,
            -17.387852
          ],
          [
            -66.156222,
            -17.388261
          ],
          [
            -66.156215,
            -17.388311
          ],
          [
            -66.156154,
            -17.388718
          ],
          [
            -66.156144,
            -17.388828
          ],
          [
            -66.155976,
            -17.389805
          ],
          [
            -66.155965,
            -17.389864
          ],
          [
            -66.155961,
            -17.389889
          ],
          [
            -66.155958,
            -17.389908
          ],
          [
            -66.155796,
            -17.390905
          ],
          [
            -66.155613,
            -17.391912
          ],
          [
            -66.155601,
            -17.391978
          ],
          [
            -66.155571,
            -17.392067
          ],
          [
            -66.15555,
            -17.392135
          ],
          [
            -66.15538,
            -17.393009
          ],
          [
            -66.155185,
            -17.394046
          ],
          [
            -66.15519,
            -17.394103
          ],
          [
            -66.155102,
            -17.394555
          ],
          [
            -66.155099,
            -17.394569
          ],
          [
            -66.155095,
            -17.394591
          ],
          [
            -66.155047,
            -17.394856
          ],
          [
            -66.155014,
            -17.395035
          ],
          [
            -66.155006,
            -17.395076
          ],
          [
            -66.154837,
            -17.39592
          ],
          [
            -66.15481,
            -17.396053
          ],
          [
            -66.154794,
            -17.396134
          ],
          [
            -66.15467,
            -17.396758
          ],
          [
            -66.15458,
            -17.397192
          ],
          [
            -66.154382,
            -17.398223
          ],
          [
            -66.154227,
            -17.399006
          ],
          [
            -66.154206,
            -17.399084
          ],
          [
            -66.154045,
            -17.399999
          ],
          [
            -66.15393,
            -17.400709
          ],
          [
            -66.153977,
            -17.401365
          ],
          [
            -66.154027,
            -17.402254
          ],
          [
            -66.154504,
            -17.402243
          ],
          [
            -66.154967,
            -17.402208
          ],
          [
            -66.155316,
            -17.402192
          ],
          [
            -66.155948,
            -17.402196
          ],
          [
            -66.156667,
            -17.402209
          ],
          [
            -66.156736,
            -17.400874
          ],
          [
            -66.157393,
            -17.400959
          ],
          [
            -66.157479,
            -17.40097
          ],
          [
            -66.15759,
            -17.400982
          ],
          [
            -66.157572,
            -17.401163
          ],
          [
            -66.157533,
            -17.401542
          ],
          [
            -66.157493,
            -17.401979
          ],
          [
            -66.157476,
            -17.40212
          ],
          [
            -66.15746,
            -17.40225
          ],
          [
            -66.157367,
            -17.402927
          ],
          [
            -66.15729,
            -17.403424
          ],
          [
            -66.157198,
            -17.403985
          ],
          [
            -66.157174,
            -17.404029
          ],
          [
            -66.157149,
            -17.404081
          ],
          [
            -66.156975,
            -17.405144
          ],
          [
            -66.156929,
            -17.405396
          ],
          [
            -66.156715,
            -17.406568
          ],
          [
            -66.156675,
            -17.406831
          ],
          [
            -66.156608,
            -17.407373
          ],
          [
            -66.156579,
            -17.407596
          ],
          [
            -66.156564,
            -17.407672
          ],
          [
            -66.156552,
            -17.407749
          ],
          [
            -66.156392,
            -17.408892
          ],
          [
            -66.156442,
            -17.409252
          ],
          [
            -66.156499,
            -17.409537
          ],
          [
            -66.156531,
            -17.409702
          ],
          [
            -66.156552,
            -17.409773
          ],
          [
            -66.156684,
            -17.410014
          ],
          [
            -66.156885,
            -17.41048
          ],
          [
            -66.156917,
            -17.410604
          ],
          [
            -66.15693,
            -17.410758
          ],
          [
            -66.156958,
            -17.410897
          ],
          [
            -66.156963,
            -17.410925
          ],
          [
            -66.15697,
            -17.410962
          ],
          [
            -66.156989,
            -17.411016
          ],
          [
            -66.157027,
            -17.411099
          ],
          [
            -66.157163,
            -17.411241
          ],
          [
            -66.15735,
            -17.411413
          ],
          [
            -66.157631,
            -17.411658
          ],
          [
            -66.157828,
            -17.411771
          ],
          [
            -66.15804,
            -17.411859
          ],
          [
            -66.158197,
            -17.411907
          ],
          [
            -66.158425,
            -17.41196
          ],
          [
            -66.158511,
            -17.411998
          ],
          [
            -66.158585,
            -17.412041
          ],
          [
            -66.159426,
            -17.412699
          ],
          [
            -66.159469,
            -17.412718
          ],
          [
            -66.159522,
            -17.412736
          ],
          [
            -66.159567,
            -17.412726
          ],
          [
            -66.159612,
            -17.41273
          ],
          [
            -66.159654,
            -17.412747
          ],
          [
            -66.159689,
            -17.412775
          ],
          [
            -66.159713,
            -17.412811
          ],
          [
            -66.159725,
            -17.41286
          ],
          [
            -66.159718,
            -17.41291
          ],
          [
            -66.159693,
            -17.412954
          ],
          [
            -66.15966,
            -17.412996
          ],
          [
            -66.159615,
            -17.413014
          ],
          [
            -66.159463,
            -17.413065
          ],
          [
            -66.158767,
            -17.413273
          ],
          [
            -66.158705,
            -17.413287
          ],
          [
            -66.158588,
            -17.413312
          ],
          [
            -66.158529,
            -17.413317
          ],
          [
            -66.157617,
            -17.413443
          ],
          [
            -66.157565,
            -17.41345
          ],
          [
            -66.157399,
            -17.413471
          ],
          [
            -66.156872,
            -17.413536
          ],
          [
            -66.156796,
            -17.41357
          ],
          [
            -66.156749,
            -17.413594
          ],
          [
            -66.156717,
            -17.413629
          ],
          [
            -66.156694,
            -17.413677
          ],
          [
            -66.156681,
            -17.413735
          ],
          [
            -66.156692,
            -17.413795
          ],
          [
            -66.156836,
            -17.414583
          ],
          [
            -66.156829,
            -17.414708
          ],
          [
            -66.156992,
            -17.415539
          ],
          [
            -66.157009,
            -17.415627
          ],
          [
            -66.157023,
            -17.41571
          ],
          [
            -66.157197,
            -17.416571
          ],
          [
            -66.157207,
            -17.416628
          ],
          [
            -66.157223,
            -17.416711
          ],
          [
            -66.15737,
            -17.417621
          ],
          [
            -66.157533,
            -17.41871
          ],
          [
            -66.157607,
            -17.419193
          ],
          [
            -66.157692,
            -17.419748
          ],
          [
            -66.157757,
            -17.420172
          ],
          [
            -66.157766,
            -17.420231
          ],
          [
            -66.157808,
            -17.420502
          ],
          [
            -66.157878,
            -17.420959
          ],
          [
            -66.15791,
            -17.421167
          ],
          [
            -66.157981,
            -17.421644
          ],
          [
            -66.157997,
            -17.421777
          ],
          [
            -66.158148,
            -17.422665
          ],
          [
            -66.158168,
            -17.422791
          ],
          [
            -66.158291,
            -17.423584
          ],
          [
            -66.158488,
            -17.424531
          ],
          [
            -66.158738,
            -17.425724
          ],
          [
            -66.158753,
            -17.425782
          ],
          [
            -66.159078,
            -17.426985
          ],
          [
            -66.159217,
            -17.427518
          ],
          [
            -66.159255,
            -17.427654
          ],
          [
            -66.159317,
            -17.427875
          ],
          [
            -66.159443,
            -17.428333
          ],
          [
            -66.159735,
            -17.429338
          ],
          [
            -66.159762,
            -17.42942
          ],
          [
            -66.160211,
            -17.430958
          ],
          [
            -66.16027,
            -17.431169
          ],
          [
            -66.160668,
            -17.43255
          ],
          [
            -66.160913,
            -17.433402
          ],
          [
            -66.161179,
            -17.434335
          ],
          [
            -66.161284,
            -17.434691
          ],
          [
            -66.161634,
            -17.435937
          ],
          [
            -66.162102,
            -17.437555
          ],
          [
            -66.162361,
            -17.438545
          ],
          [
            -66.162465,
            -17.439057
          ],
          [
            -66.162486,
            -17.439195
          ],
          [
            -66.162583,
            -17.439721
          ],
          [
            -66.162624,
            -17.439937
          ],
          [
            -66.162659,
            -17.44008
          ],
          [
            -66.162805,
            -17.440811
          ],
          [
            -66.162864,
            -17.441019
          ],
          [
            -66.16291,
            -17.441146
          ],
          [
            -66.163422,
            -17.442325
          ],
          [
            -66.163639,
            -17.442943
          ],
          [
            -66.163686,
            -17.443185
          ],
          [
            -66.163725,
            -17.443466
          ],
          [
            -66.163946,
            -17.444173
          ],
          [
            -66.164199,
            -17.444887
          ],
          [
            -66.164576,
            -17.446147
          ],
          [
            -66.16485,
            -17.446987
          ],
          [
            -66.165043,
            -17.447525
          ],
          [
            -66.165063,
            -17.447642
          ],
          [
            -66.165116,
            -17.447958
          ],
          [
            -66.165162,
            -17.448236
          ],
          [
            -66.165233,
            -17.448592
          ],
          [
            -66.165429,
            -17.44944
          ],
          [
            -66.165648,
            -17.450194
          ],
          [
            -66.165844,
            -17.450853
          ],
          [
            -66.16609,
            -17.451633
          ],
          [
            -66.166204,
            -17.451955
          ],
          [
            -66.166271,
            -17.452147
          ],
          [
            -66.166338,
            -17.452356
          ],
          [
            -66.166493,
            -17.452965
          ],
          [
            -66.166602,
            -17.453342
          ],
          [
            -66.166736,
            -17.453738
          ],
          [
            -66.167072,
            -17.45479
          ],
          [
            -66.167092,
            -17.454855
          ],
          [
            -66.167279,
            -17.455739
          ],
          [
            -66.167568,
            -17.457149
          ],
          [
            -66.167716,
            -17.457953
          ],
          [
            -66.168043,
            -17.459308
          ],
          [
            -66.168405,
            -17.460714
          ],
          [
            -66.16863,
            -17.461627
          ],
          [
            -66.168738,
            -17.462031
          ],
          [
            -66.168814,
            -17.462533
          ],
          [
            -66.168835,
            -17.462704
          ],
          [
            -66.168873,
            -17.463199
          ],
          [
            -66.168884,
            -17.46331
          ],
          [
            -66.168898,
            -17.463455
          ],
          [
            -66.168944,
            -17.463752
          ],
          [
            -66.169006,
            -17.463997
          ],
          [
            -66.169082,
            -17.46422
          ],
          [
            -66.169266,
            -17.464693
          ],
          [
            -66.169456,
            -17.465366
          ],
          [
            -66.169709,
            -17.466552
          ],
          [
            -66.169763,
            -17.466843
          ],
          [
            -66.169785,
            -17.466964
          ],
          [
            -66.170177,
            -17.468856
          ],
          [
            -66.170276,
            -17.469272
          ],
          [
            -66.170576,
            -17.470278
          ],
          [
            -66.170604,
            -17.470443
          ],
          [
            -66.170608,
            -17.47052
          ],
          [
            -66.170591,
            -17.471217
          ],
          [
            -66.170582,
            -17.471489
          ],
          [
            -66.170591,
            -17.471691
          ],
          [
            -66.170632,
            -17.471884
          ],
          [
            -66.170933,
            -17.472655
          ],
          [
            -66.171038,
            -17.473091
          ],
          [
            -66.171176,
            -17.473705
          ],
          [
            -66.171312,
            -17.474429
          ],
          [
            -66.171683,
            -17.476137
          ],
          [
            -66.17191,
            -17.477221
          ],
          [
            -66.171949,
            -17.477407
          ],
          [
            -66.172376,
            -17.479178
          ],
          [
            -66.172551,
            -17.479903
          ],
          [
            -66.172585,
            -17.480049
          ],
          [
            -66.17283,
            -17.481106
          ],
          [
            -66.173007,
            -17.481875
          ],
          [
            -66.173015,
            -17.481955
          ],
          [
            -66.173022,
            -17.48203
          ],
          [
            -66.173017,
            -17.482185
          ],
          [
            -66.172852,
            -17.483416
          ],
          [
            -66.172605,
            -17.485189
          ],
          [
            -66.172463,
            -17.486212
          ],
          [
            -66.172457,
            -17.486285
          ],
          [
            -66.172382,
            -17.486565
          ],
          [
            -66.172292,
            -17.48731
          ],
          [
            -66.17217,
            -17.488495
          ],
          [
            -66.172039,
            -17.489497
          ],
          [
            -66.172029,
            -17.489648
          ],
          [
            -66.172027,
            -17.48981
          ],
          [
            -66.172032,
            -17.489992
          ],
          [
            -66.172038,
            -17.490116
          ],
          [
            -66.172083,
            -17.490395
          ]
        ]
      }
    }
  ]
}