{
  "type": "FeatureCollection",
  "features": [
    {
      "type": "Feature",
      "properties": {
        "route_id": "4420889",
        "route_short_name": "B",
        "route_long_name": "MicroBus B: Pasaje F \u2192 Aeropuerto \u2192 Calle Las Buganvillas"
      },
      "geometry": {
        "type": "LineString",
        "coordinates": [
          [
            -66.188746,
            -17.398122
          ],
          [
            -66.188838,
            -17.398292
          ],
          [
            -66.189087,
            -17.398824
          ],
          [
            -66.189149,
            -17.398968
          ],
          [
            -66.188327,
            -17.399041
          ],
          [
            -66.187502,
            -17.39911
          ],
          [
            -66.186549,
            -17.3992
          ],
          [
            -66.186468,
            -17.399265
          ],
          [
            -66.186435,
            -17.399304
          ],
          [
            -66.186414,
            -17.399356
          ],
          [
            -66.186404,
            -17.399415
          ],
          [
            -66.186401,
            -17.399475
          ],
          [
            -66.186427,
            -17.399553
          ],
          [
            -66.186521,
            -17.399835
          ],
          [
            -66.186599,
            -17.400069
          ],
          [
            -66.186621,
            -17.400134
          ],
          [
            -66.186648,
            -17.400215
          ],
          [
            -66.18667,
            -17.400279
          ],
          [
            -66.186726,
            -17.400476
          ],
          [
            -66.186743,
            -17.400533
          ],
          [
            -66.186768,
            -17.400704
          ],
          [
            -66.186806,
            -17.400937
          ],
          [
            -66.186815,
            -17.401013
          ],
          [
            -66.186551,
            -17.401022
          ],
          [
            -66.184542,
            -17.40107
          ],
          [
            -66.183913,
            -17.401105
          ],
          [
            -66.183304,
            -17.401168
          ],
          [
            -66.183222,
            -17.401187
          ],
          [
            -66.183145,
            -17.401216
          ],
          [
            -66.183082,
            -17.401249
          ],
          [
            -66.183043,
            -17.401269
          ],
          [
            -66.183004,
            -17.401298
          ],
          [
            -66.182958,
            -17.401315
          ],
          [
            -66.18286,
            -17.401371
          ],
          [
            -66.182837,
            -17.401384
          ],
          [
            -66.182781,
            -17.401421
          ],
          [
            -66.182711,
            -17.401482
          ],
          [
            -66.182656,
            -17.401535
          ],
          [
            -66.182121,
            -17.402234
          ],
          [
            -66.181465,
            -17.403092
          ],
          [
            -66.180817,
            -17.403906
          ],
          [
            -66.180632,
            -17.404129
          ],
          [
            -66.180512,
            -17.404251
          ],
          [
            -66.18023,
            -17.404509
          ],
          [
            -66.179972,
            -17.404726
          ],
          [
            -66.179789,
            -17.404861
          ],
          [
            -66.179701,
            -17.404914
          ],
          [
            -66.179285,
            -17.405157
          ],
          [
            -66.178122,
            -17.405754
          ],
          [
            -66.177626,
            -17.406005
          ],
          [
            -66.177329,
            -17.406175
          ],
          [
            -66.177058,
            -17.406365
          ],
          [
            -66.176646,
            -17.406681
          ],
          [
            -66.176554,
            -17.406754
          ],
          [
            -66.176215,
            -17.407046
          ],
          [
            -66.176112,
            -17.407153
          ],
          [
            -66.1761,
            -17.407176
          ],
          [
            -66.175692,
            -17.407688
          ],
          [
            -66.175089,
            -17.408482
          ],
          [
            -66.174863,
            -17.408787
          ],
          [
            -66.174773,
            -17.408907
          ],
          [
            -66.174706,
            -17.408975
          ],
          [
            -66.174605,
            -17.409063
          ],
          [
            -66.174538,
            -17.409129
          ],
          [
            -66.17421,
            -17.409481
          ],
          [
            -66.174158,
            -17.409531
          ],
          [
            -66.174166,
            -17.409584
          ],
          [
            -66.174173,
            -17.409621
          ],
          [
            -66.174192,
            -17.409683
          ],
          [
            -66.174238,
            -17.409752
          ],
          [
            -66.174339,
            -17.409831
          ],
          [
            -66.174784,
            -17.410144
          ],
          [
            -66.175131,
            -17.410389
          ],
          [
            -66.175194,
            -17.41045
          ],
          [
            -66.175227,
            -17.41051
          ],
          [
            -66.175262,
            -17.410722
          ],
          [
            -66.175287,
            -17.410923
          ],
          [
            -66.175331,
            -17.411046
          ],
          [
            -66.175387,
            -17.411168
          ],
          [
            -66.1755,
            -17.411315
          ],
          [
            -66.175693,
            -17.411436
          ],
          [
            -66.175893,
            -17.411553
          ],
          [
            -66.176119,
            -17.411664
          ],
          [
            -66.176369,
            -17.411758
          ],
          [
            -66.17661,
            -17.411836
          ],
          [
            -66.176853,
            -17.411889
          ],
          [
            -66.176992,
            -17.411911
          ],
          [
            -66.177115,
            -17.41193
          ],
          [
            -66.177347,
            -17.411959
          ],
          [
            -66.177654,
            -17.411993
          ],
          [
            -66.178673,
            -17.412101
          ],
          [
            -66.179099,
            -17.412144
          ],
          [
            -66.179296,
            -17.412173
          ],
          [
            -66.179424,
            -17.412218
          ],
          [
            -66.179522,
            -17.412272
          ],
          [
            -66.179601,
            -17.412341
          ],
          [
            -66.179658,
            -17.412402
          ],
          [
            -66.179697,
            -17.412457
          ],
          [
            -66.17973,
            -17.412523
          ],
          [
            -66.17975,
            -17.412574
          ],
          [
            -66.179767,
            -17.412676
          ],
          [
            -66.179767,
            -17.412791
          ],
          [
            -66.179692,
            -17.41294
          ],
          [
            -66.17968,
            -17.41296
          ],
          [
            -66.179637,
            -17.413009
          ],
          [
            -66.179601,
            -17.413044
          ],
          [
            -66.179433,
            -17.413193
          ],
          [
            -66.179087,
            -17.413488
          ],
          [
            -66.179024,
            -17.413541
          ],
          [
            -66.178798,
            -17.413736
          ],
          [
            -66.178753,
            -17.413776
          ],
          [
            -66.178518,
            -17.413979
          ],
          [
            -66.17847,
            -17.41402
          ],
          [
            -66.178242,
            -17.414217
          ],
          [
            -66.178186,
            -17.414266
          ],
          [
            -66.177977,
            -17.414444
          ],
          [
            -66.17787,
            -17.414538
          ],
          [
            -66.177685,
            -17.414694
          ],
          [
            -66.177614,
            -17.414725
          ],
          [
            -66.177497,
            -17.41474
          ],
          [
            -66.177438,
            -17.414707
          ],
          [
            -66.177383,
            -17.414658
          ],
          [
            -66.177329,
            -17.414578
          ],
          [
            -66.177301,
            -17.414495
          ],
          [
            -66.177281,
            -17.41441
          ],
          [
            -66.177292,
            -17.414241
          ],
          [
            -66.177314,
            -17.414134
          ],
          [
            -66.177345,
            -17.414062
          ],
          [
            -66.177404,
            -17.413971
          ],
          [
            -66.177515,
            -17.41386
          ],
          [
            -66.177809,
            -17.413609
          ],
          [
            -66.178352,
            -17.413146
          ],
          [
            -66.178518,
            -17.413004
          ],
          [
            -66.178557,
            -17.412972
          ],
          [
            -66.178589,
            -17.412943
          ],
          [
            -66.178793,
            -17.412756
          ],
          [
            -66.178837,
            -17.412706
          ],
          [
            -66.178865,
            -17.41265
          ],
          [
            -66.178888,
            -17.412579
          ],
          [
            -66.178886,
            -17.412495
          ],
          [
            -66.178862,
            -17.41241
          ],
          [
            -66.178819,
            -17.412327
          ],
          [
            -66.178742,
            -17.412254
          ],
          [
            -66.178677,
            -17.412221
          ],
          [
            -66.178585,
            -17.412186
          ],
          [
            -66.178502,
            -17.412174
          ],
          [
            -66.178274,
            -17.41213
          ],
          [
            -66.17792,
            -17.412085
          ],
          [
            -66.177701,
            -17.41206
          ],
          [
            -66.177654,
            -17.412055
          ],
          [
            -66.177317,
            -17.412029
          ],
          [
            -66.177245,
            -17.412011
          ],
          [
            -66.177068,
            -17.411987
          ],
          [
            -66.176803,
            -17.411942
          ],
          [
            -66.176507,
            -17.411872
          ],
          [
            -66.176165,
            -17.411755
          ],
          [
            -66.175863,
            -17.411615
          ],
          [
            -66.175682,
            -17.411517
          ],
          [
            -66.174882,
            -17.411034
          ],
          [
            -66.174705,
            -17.410944
          ],
          [
            -66.174692,
            -17.410935
          ],
          [
            -66.174545,
            -17.410831
          ],
          [
            -66.174294,
            -17.410599
          ],
          [
            -66.174068,
            -17.410381
          ],
          [
            -66.17397,
            -17.410298
          ],
          [
            -66.173784,
            -17.410208
          ],
          [
            -66.173747,
            -17.41019
          ],
          [
            -66.17371,
            -17.410176
          ],
          [
            -66.173687,
            -17.410167
          ],
          [
            -66.173625,
            -17.410144
          ],
          [
            -66.173463,
            -17.410113
          ],
          [
            -66.173317,
            -17.410109
          ],
          [
            -66.173116,
            -17.410123
          ],
          [
            -66.173017,
            -17.410133
          ],
          [
            -66.172731,
            -17.41014
          ],
          [
            -66.171822,
            -17.410142
          ],
          [
            -66.171219,
            -17.410144
          ],
          [
            -66.171138,
            -17.410154
          ],
          [
            -66.170922,
            -17.410212
          ],
          [
            -66.1709,
            -17.410221
          ],
          [
            -66.170877,
            -17.410223
          ],
          [
            -66.170654,
            -17.410223
          ],
          [
            -66.169899,
            -17.41023
          ],
          [
            -66.168505,
            -17.410241
          ],
          [
            -66.16831,
            -17.410246
          ],
          [
            -66.168141,
            -17.410259
          ],
          [
            -66.167947,
            -17.410284
          ],
          [
            -66.167788,
            -17.410308
          ],
          [
            -66.167756,
            -17.410313
          ],
          [
            -66.167287,
            -17.410412
          ],
          [
            -66.167138,
            -17.410446
          ],
          [
            -66.166394,
            -17.41062
          ],
          [
            -66.165809,
            -17.410756
          ],
          [
            -66.165398,
            -17.410851
          ],
          [
            -66.165241,
            -17.410905
          ],
          [
            -66.165058,
            -17.410996
          ],
          [
            -66.164924,
            -17.411094
          ],
          [
            -66.164857,
            -17.411163
          ],
          [
            -66.164763,
            -17.411213
          ],
          [
            -66.164657,
            -17.411232
          ],
          [
            -66.164551,
            -17.411217
          ],
          [
            -66.164478,
            -17.411185
          ],
          [
            -66.164416,
            -17.411137
          ],
          [
            -66.164367,
            -17.411077
          ],
          [
            -66.164323,
            -17.410951
          ],
          [
            -66.164338,
            -17.410819
          ],
          [
            -66.164381,
            -17.410735
          ],
          [
            -66.164443,
            -17.410663
          ],
          [
            -66.164465,
            -17.410613
          ],
          [
            -66.16449,
            -17.41047
          ],
          [
            -66.164485,
            -17.410393
          ],
          [
            -66.164473,
            -17.410332
          ],
          [
            -66.164344,
            -17.409638
          ],
          [
            -66.164337,
            -17.409587
          ],
          [
            -66.164329,
            -17.409545
          ],
          [
            -66.164294,
            -17.409371
          ],
          [
            -66.164281,
            -17.409289
          ],
          [
            -66.164039,
            -17.408148
          ],
          [
            -66.163852,
            -17.407207
          ],
          [
            -66.163637,
            -17.406105
          ],
          [
            -66.163447,
            -17.405077
          ],
          [
            -66.16334,
            -17.404504
          ],
          [
            -66.16321,
            -17.404066
          ],
          [
            -66.163028,
            -17.403557
          ],
          [
            -66.162974,
            -17.403343
          ],
          [
            -66.162929,
            -17.403094
          ],
          [
            -66.162851,
            -17.402102
          ],
          [
            -66.162822,
            -17.401639
          ],
          [
            -66.162803,
            -17.401266
          ],
          [
            -66.162783,
            -17.401128
          ],
          [
            -66.162765,
            -17.401045
          ],
          [
            -66.162692,
            -17.40085
          ],
          [
            -66.162592,
            -17.40064
          ],
          [
            -66.162521,
            -17.400537
          ],
          [
            -66.162446,
            -17.400425
          ],
          [
            -66.162411,
            -17.400388
          ],
          [
            -66.162303,
            -17.400282
          ],
          [
            -66.162188,
            -17.400173
          ],
          [
            -66.162105,
            -17.40011
          ],
          [
            -66.161993,
            -17.400038
          ],
          [
            -66.161773,
            -17.39992
          ],
          [
            -66.161544,
            -17.399845
          ],
          [
            -66.16062,
            -17.399589
          ],
          [
            -66.160505,
            -17.399561
          ],
          [
            -66.160408,
            -17.399545
          ],
          [
            -66.160357,
            -17.399541
          ],
          [
            -66.160293,
            -17.39954
          ],
          [
            -66.160224,
            -17.399539
          ],
          [
            -66.160128,
            -17.399539
          ],
          [
            -66.160063,
            -17.399539
          ],
          [
            -66.160006,
            -17.39954
          ],
          [
            -66.159251,
            -17.399522
          ],
          [
            -66.158666,
            -17.399515
          ],
          [
            -66.15781,
            -17.399491
          ],
          [
            -66.157729,
            -17.399487
          ],
          [
            -66.157636,
            -17.399482
          ],
          [
            -66.157568,
            -17.399479
          ],
          [
            -66.156846,
            -17.399579
          ],
          [
            -66.156742,
            -17.399592
          ],
          [
            -66.156599,
            -17.399596
          ],
          [
            -66.156402,
            -17.399592
          ],
          [
            -66.156219,
            -17.400783
          ],
          [
            -66.156116,
            -17.401314
          ],
          [
            -66.155948,
            -17.402196
          ],
          [
            -66.156667,
            -17.402209
          ],
          [
            -66.156959,
            -17.402219
          ],
          [
            -66.157257,
            -17.40223
          ],
          [
            -66.15734,
            -17.402237
          ],
          [
            -66.157356,
            -17.402108
          ],
          [
            -66.157459,
            -17.401163
          ],
          [
            -66.157479,
            -17.40097
          ],
          [
            -66.157628,
            -17.399698
          ],
          [
            -66.157634,
            -17.399554
          ],
          [
            -66.157636,
            -17.399482
          ],
          [
            -66.157636,
            -17.399359
          ],
          [
            -66.157637,
            -17.399303
          ],
          [
            -66.157688,
            -17.398891
          ],
          [
            -66.157872,
            -17.397844
          ],
          [
            -66.157881,
            -17.397779
          ],
          [
            -66.157889,
            -17.39773
          ],
          [
            -66.158032,
            -17.396755
          ],
          [
            -66.158039,
            -17.396701
          ],
          [
            -66.158045,
            -17.396656
          ],
          [
            -66.158192,
            -17.395699
          ],
          [
            -66.158199,
            -17.395655
          ],
          [
            -66.158205,
            -17.395615
          ],
          [
            -66.158379,
            -17.394609
          ],
          [
            -66.158578,
            -17.393617
          ],
          [
            -66.158584,
            -17.393568
          ],
          [
            -66.15859,
            -17.393498
          ],
          [
            -66.158596,
            -17.393464
          ],
          [
            -66.158758,
            -17.392695
          ],
          [
            -66.15877,
            -17.392632
          ],
          [
            -66.15869,
            -17.392617
          ],
          [
            -66.158366,
            -17.392559
          ],
          [
            -66.15829,
            -17.392545
          ],
          [
            -66.157782,
            -17.39246
          ],
          [
            -66.157737,
            -17.392451
          ],
          [
            -66.157684,
            -17.392442
          ],
          [
            -66.157305,
            -17.392376
          ],
          [
            -66.156712,
            -17.392274
          ],
          [
            -66.156656,
            -17.392263
          ],
          [
            -66.156614,
            -17.392256
          ],
          [
            -66.156188,
            -17.392183
          ],
          [
            -66.156156,
            -17.392177
          ],
          [
            -66.155647,
            -17.392082
          ],
          [
            -66.155571,
            -17.392067
          ],
          [
            -66.15552,
            -17.392057
          ],
          [
            -66.154582,
            -17.391891
          ],
          [
            -66.1545,
            -17.391876
          ],
          [
            -66.154438,
            -17.391864
          ],
          [
            -66.154032,
            -17.391794
          ],
          [
            -66.15365,
            -17.391724
          ],
          [
            -66.153404,
            -17.39168
          ],
          [
            -66.153354,
            -17.391672
          ],
          [
            -66.153306,
            -17.391662
          ],
          [
            -66.152362,
            -17.391484
          ],
          [
            -66.152286,
            -17.391471
          ],
          [
            -66.152228,
            -17.39146
          ],
          [
            -66.151264,
            -17.391283
          ],
          [
            -66.151208,
            -17.391273
          ],
          [
            -66.151149,
            -17.391262
          ],
          [
            -66.150065,
            -17.391058
          ],
          [
            -66.149952,
            -17.391033
          ],
          [
            -66.149877,
            -17.39102
          ],
          [
            -66.149282,
            -17.390901
          ],
          [
            -66.148968,
            -17.390837
          ],
          [
            -66.148894,
            -17.390824
          ],
          [
            -66.148886,
            -17.390867
          ],
          [
            -66.148704,
            -17.391766
          ],
          [
            -66.148691,
            -17.391834
          ],
          [
            -66.149763,
            -17.392027
          ],
          [
            -66.149774,
            -17.391967
          ],
          [
            -66.149858,
            -17.391506
          ],
          [
            -66.149937,
            -17.391102
          ],
          [
            -66.149952,
            -17.391033
          ],
          [
            -66.149959,
            -17.390989
          ],
          [
            -66.149967,
            -17.390948
          ],
          [
            -66.149981,
            -17.390874
          ],
          [
            -66.150176,
            -17.389914
          ],
          [
            -66.150161,
            -17.38987
          ],
          [
            -66.150144,
            -17.389838
          ],
          [
            -66.150125,
            -17.389809
          ],
          [
            -66.150106,
            -17.389779
          ],
          [
            -66.150077,
            -17.389743
          ],
          [
            -66.149859,
            -17.389437
          ],
          [
            -66.149627,
            -17.389111
          ],
          [
            -66.149445,
            -17.388837
          ],
          [
            -66.149307,
            -17.388624
          ],
          [
            -66.14858,
            -17.387599
          ],
          [
            -66.148459,
            -17.387413
          ],
          [
            -66.148433,
            -17.387373
          ],
          [
            -66.148333,
            -17.387224
          ],
          [
            -66.148305,
            -17.387189
          ],
          [
            -66.147941,
            -17.386654
          ],
          [
            -66.147566,
            -17.386131
          ],
          [
            -66.147513,
            -17.38605
          ],
          [
            -66.147457,
            -17.385965
          ],
          [
            -66.147405,
            -17.385889
          ],
          [
            -66.146332,
            -17.384319
          ],
          [
            -66.146263,
            -17.384218
          ],
          [
            -66.146249,
            -17.3842
          ],
          [
            -66.146244,
            -17.384193
          ],
          [
            -66.146221,
            -17.384158
          ],
          [
            -66.146135,
            -17.384032
          ],
          [
            -66.145632,
            -17.383295
          ],
          [
            -66.145069,
            -17.382472
          ],
          [
            -66.144975,
            -17.382339
          ],
          [
            -66.144265,
            -17.381317
          ],
          [
            -66.144201,
            -17.381221
          ],
          [
            -66.143856,
            -17.380725
          ],
          [
            -66.143137,
            -17.379675
          ],
          [
            -66.142995,
            -17.379451
          ],
          [
            -66.142953,
            -17.379385
          ],
          [
            -66.142886,
            -17.379299
          ],
          [
            -66.142853,
            -17.379261
          ],
          [
            -66.142811,
            -17.379233
          ],
          [
            -66.142747,
            -17.379208
          ],
          [
            -66.142498,
            -17.379121
          ],
          [
            -66.14244,
            -17.379107
          ],
          [
            -66.14238,
            -17.379106
          ],
          [
            -66.142315,
            -17.37911
          ],
          [
            -66.142275,
            -17.379112
          ],
          [
            -66.142249,
            -17.37912
          ],
          [
            -66.142215,
            -17.379123
          ],
          [
            -66.14218,
            -17.379117
          ],
          [
            -66.142153,
            -17.379102
          ],
          [
            -66.142131,
            -17.379086
          ],
          [
            -66.142117,
            -17.379066
          ],
          [
            -66.142104,
            -17.379036
          ],
          [
            -66.142105,
            -17.378998
          ],
          [
            -66.142109,
            -17.378933
          ],
          [
            -66.142124,
            -17.378772
          ],
          [
            -66.142183,
            -17.378166
          ],
          [
            -66.142186,
            -17.378133
          ],
          [
            -66.142201,
            -17.377951
          ],
          [
            -66.142208,
            -17.37777
          ],
          [
            -66.142202,
            -17.377718
          ],
          [
            -66.142196,
            -17.377669
          ],
          [
            -66.142173,
            -17.377626
          ],
          [
            -66.142167,
            -17.377586
          ],
          [
            -66.142171,
            -17.377554
          ],
          [
            -66.142177,
            -17.37753
          ],
          [
            -66.142193,
            -17.377495
          ],
          [
            -66.142222,
            -17.377468
          ],
          [
            -66.142255,
            -17.377451
          ],
          [
            -66.142295,
            -17.377438
          ],
          [
            -66.142319,
            -17.377422
          ],
          [
            -66.142335,
            -17.377405
          ],
          [
            -66.142359,
            -17.377311
          ],
          [
            -66.14246,
            -17.376944
          ],
          [
            -66.142464,
            -17.376929
          ],
          [
            -66.14247,
            -17.376868
          ],
          [
            -66.142475,
            -17.376827
          ],
          [
            -66.142481,
            -17.376762
          ],
          [
            -66.142518,
            -17.376325
          ],
          [
            -66.142528,
            -17.37622
          ],
          [
            -66.142593,
            -17.375761
          ],
          [
            -66.142654,
            -17.375325
          ],
          [
            -66.142695,
            -17.375031
          ],
          [
            -66.142705,
            -17.374963
          ],
          [
            -66.142718,
            -17.374868
          ],
          [
            -66.142815,
            -17.374244
          ],
          [
            -66.142819,
            -17.374184
          ],
          [
            -66.142805,
            -17.374126
          ],
          [
            -66.142778,
            -17.374054
          ],
          [
            -66.142717,
            -17.374017
          ],
          [
            -66.142668,
            -17.373972
          ],
          [
            -66.14264,
            -17.373935
          ],
          [
            -66.142611,
            -17.373882
          ],
          [
            -66.142592,
            -17.373825
          ],
          [
            -66.142586,
            -17.373722
          ],
          [
            -66.142617,
            -17.373611
          ],
          [
            -66.142652,
            -17.373555
          ],
          [
            -66.142699,
            -17.373505
          ],
          [
            -66.142728,
            -17.373355
          ],
          [
            -66.142732,
            -17.373298
          ],
          [
            -66.142732,
            -17.373234
          ],
          [
            -66.142585,
            -17.372596
          ],
          [
            -66.142468,
            -17.372088
          ],
          [
            -66.142446,
            -17.371996
          ],
          [
            -66.142412,
            -17.371844
          ],
          [
            -66.142152,
            -17.370634
          ],
          [
            -66.142128,
            -17.370543
          ],
          [
            -66.142081,
            -17.370497
          ],
          [
            -66.142032,
            -17.370465
          ],
          [
            -66.141979,
            -17.370455
          ],
          [
            -66.141874,
            -17.370465
          ],
          [
            -66.140975,
            -17.371065
          ],
          [
            -66.140921,
            -17.370974
          ],
          [
            -66.140877,
            -17.370897
          ],
          [
            -66.140384,
            -17.369779
          ],
          [
            -66.140203,
            -17.369356
          ],
          [
            -66.139916,
            -17.368692
          ],
          [
            -66.140727,
            -17.368409
          ],
          [
            -66.141551,
            -17.368119
          ],
          [
            -66.142198,
            -17.36788
          ],
          [
            -66.142314,
            -17.367829
          ],
          [
            -66.142453,
            -17.367696
          ],
          [
            -66.14252,
            -17.367611
          ],
          [
            -66.142572,
            -17.367545
          ],
          [
            -66.142489,
            -17.367003
          ],
          [
            -66.143281,
            -17.366893
          ],
          [
            -66.143858,
            -17.366799
          ],
          [
            -66.14431,
            -17.366709
          ],
          [
            -66.145372,
            -17.366532
          ],
          [
            -66.145203,
            -17.366008
          ],
          [
            -66.145169,
            -17.365939
          ],
          [
            -66.144771,
            -17.36519
          ],
          [
            -66.144332,
            -17.364324
          ],
          [
            -66.143786,
            -17.36325
          ],
          [
            -66.143769,
            -17.363209
          ],
          [
            -66.143627,
            -17.362873
          ],
          [
            -66.143564,
            -17.362724
          ],
          [
            -66.14336,
            -17.362234
          ],
          [
            -66.143294,
            -17.362082
          ],
          [
            -66.143243,
            -17.361967
          ],
          [
            -66.142976,
            -17.361343
          ],
          [
            -66.141807,
            -17.362195
          ],
          [
            -66.140982,
            -17.362807
          ],
          [
            -66.140588,
            -17.362299
          ],
          [
            -66.14005,
            -17.362715
          ],
          [
            -66.139467,
            -17.362883
          ]
        ]
      }
    }
  ]
}