{
  "type": "FeatureCollection",
  "features": [
    {
      "type": "Feature",
      "properties": {
        "route_id": "4433300",
        "route_short_name": "C",
        "route_long_name": "MicroBus C: Calle Manuel Carrasco Jimenez \u2192 Avenida Pedro de la Gasca"
      },
      "geometry": {
        "type": "LineString",
        "coordinates": [
          [
            -66.175351,
            -17.359724
          ],
          [
            -66.174055,
            -17.360344
          ],
          [
            -66.172757,
            -17.360941
          ],
          [
            -66.172661,
            -17.360986
          ],
          [
            -66.17264,
            -17.360912
          ],
          [
            -66.172534,
            -17.360572
          ],
          [
            -66.172421,
            -17.360209
          ],
          [
            -66.172406,
            -17.36016
          ],
          [
            -66.172248,
            -17.359643
          ],
          [
            -66.172207,
            -17.359526
          ],
          [
            -66.172175,
            -17.359466
          ],
          [
            -66.172104,
            -17.359371
          ],
          [
            -66.172065,
            -17.359321
          ],
          [
            -66.171995,
            -17.359244
          ],
          [
            -66.172128,
            -17.359179
          ],
          [
            -66.172194,
            -17.359144
          ],
          [
            -66.172248,
            -17.359117
          ],
          [
            -66.172291,
            -17.359097
          ],
          [
            -66.173213,
            -17.358669
          ],
          [
            -66.174791,
            -17.35794
          ],
          [
            -66.174987,
            -17.357837
          ],
          [
            -66.17515,
            -17.357738
          ],
          [
            -66.175527,
            -17.357498
          ],
          [
            -66.17567,
            -17.357389
          ],
          [
            -66.175755,
            -17.357331
          ],
          [
            -66.17589,
            -17.357244
          ],
          [
            -66.175997,
            -17.357406
          ],
          [
            -66.176124,
            -17.357805
          ],
          [
            -66.176187,
            -17.357977
          ],
          [
            -66.176265,
            -17.35814
          ],
          [
            -66.17634,
            -17.358275
          ],
          [
            -66.176404,
            -17.358377
          ],
          [
            -66.176708,
            -17.3588
          ],
          [
            -66.176787,
            -17.358926
          ],
          [
            -66.176817,
            -17.358979
          ],
          [
            -66.176847,
            -17.359031
          ],
          [
            -66.176879,
            -17.359095
          ],
          [
            -66.176911,
            -17.35916
          ],
          [
            -66.177235,
            -17.359952
          ],
          [
            -66.177467,
            -17.36055
          ],
          [
            -66.177568,
            -17.360933
          ],
          [
            -66.177902,
            -17.362163
          ],
          [
            -66.177914,
            -17.36222
          ],
          [
            -66.178104,
            -17.363183
          ],
          [
            -66.178114,
            -17.36322
          ],
          [
            -66.178213,
            -17.363555
          ],
          [
            -66.178522,
            -17.364416
          ],
          [
            -66.178568,
            -17.364505
          ],
          [
            -66.178597,
            -17.364553
          ],
          [
            -66.178915,
            -17.365269
          ],
          [
            -66.17898,
            -17.365584
          ],
          [
            -66.179012,
            -17.365725
          ],
          [
            -66.179029,
            -17.365801
          ],
          [
            -66.179221,
            -17.366802
          ],
          [
            -66.179225,
            -17.366825
          ],
          [
            -66.179309,
            -17.367247
          ],
          [
            -66.179379,
            -17.367657
          ],
          [
            -66.179412,
            -17.368116
          ],
          [
            -66.179422,
            -17.368254
          ],
          [
            -66.179437,
            -17.368364
          ],
          [
            -66.179614,
            -17.369085
          ],
          [
            -66.179834,
            -17.369875
          ],
          [
            -66.180001,
            -17.370635
          ],
          [
            -66.180157,
            -17.371217
          ],
          [
            -66.180164,
            -17.371245
          ],
          [
            -66.180184,
            -17.371329
          ],
          [
            -66.180209,
            -17.371438
          ],
          [
            -66.180226,
            -17.371513
          ],
          [
            -66.180583,
            -17.373122
          ],
          [
            -66.180813,
            -17.374045
          ],
          [
            -66.180858,
            -17.374235
          ],
          [
            -66.180882,
            -17.374337
          ],
          [
            -66.180911,
            -17.374498
          ],
          [
            -66.180926,
            -17.374597
          ],
          [
            -66.181039,
            -17.375994
          ],
          [
            -66.181106,
            -17.376713
          ],
          [
            -66.181215,
            -17.377316
          ],
          [
            -66.18123,
            -17.377399
          ],
          [
            -66.181254,
            -17.377529
          ],
          [
            -66.181354,
            -17.378078
          ],
          [
            -66.181485,
            -17.3788
          ],
          [
            -66.181496,
            -17.378862
          ],
          [
            -66.181515,
            -17.378964
          ],
          [
            -66.181595,
            -17.379831
          ],
          [
            -66.181602,
            -17.379903
          ],
          [
            -66.181669,
            -17.380587
          ],
          [
            -66.181675,
            -17.380653
          ],
          [
            -66.181681,
            -17.380711
          ],
          [
            -66.181769,
            -17.381604
          ],
          [
            -66.181795,
            -17.381901
          ],
          [
            -66.181861,
            -17.382649
          ],
          [
            -66.181879,
            -17.382833
          ],
          [
            -66.181884,
            -17.382876
          ],
          [
            -66.181887,
            -17.382912
          ],
          [
            -66.181892,
            -17.382955
          ],
          [
            -66.181902,
            -17.382992
          ],
          [
            -66.181902,
            -17.38303
          ],
          [
            -66.181912,
            -17.383103
          ],
          [
            -66.181926,
            -17.383204
          ],
          [
            -66.181941,
            -17.383308
          ],
          [
            -66.182006,
            -17.38384
          ],
          [
            -66.182187,
            -17.385116
          ],
          [
            -66.182195,
            -17.385191
          ],
          [
            -66.181899,
            -17.385203
          ],
          [
            -66.180822,
            -17.385265
          ],
          [
            -66.180738,
            -17.385268
          ],
          [
            -66.179915,
            -17.385307
          ],
          [
            -66.178697,
            -17.385356
          ],
          [
            -66.178768,
            -17.385107
          ],
          [
            -66.178987,
            -17.384438
          ],
          [
            -66.179217,
            -17.383669
          ],
          [
            -66.178489,
            -17.383465
          ],
          [
            -66.177777,
            -17.383254
          ],
          [
            -66.176668,
            -17.382943
          ],
          [
            -66.176704,
            -17.383342
          ],
          [
            -66.176737,
            -17.383557
          ],
          [
            -66.176771,
            -17.383706
          ],
          [
            -66.17683,
            -17.383883
          ],
          [
            -66.176914,
            -17.384085
          ],
          [
            -66.177183,
            -17.384542
          ],
          [
            -66.177266,
            -17.384681
          ],
          [
            -66.177302,
            -17.384735
          ],
          [
            -66.177677,
            -17.385409
          ],
          [
            -66.178645,
            -17.387132
          ],
          [
            -66.178903,
            -17.387589
          ],
          [
            -66.178984,
            -17.38772
          ],
          [
            -66.179033,
            -17.387799
          ],
          [
            -66.179102,
            -17.387823
          ],
          [
            -66.179151,
            -17.387863
          ],
          [
            -66.179184,
            -17.387917
          ],
          [
            -66.179198,
            -17.387978
          ],
          [
            -66.179186,
            -17.388064
          ],
          [
            -66.179147,
            -17.388125
          ],
          [
            -66.179121,
            -17.388145
          ],
          [
            -66.179063,
            -17.388174
          ],
          [
            -66.178999,
            -17.388182
          ],
          [
            -66.178947,
            -17.388176
          ],
          [
            -66.178895,
            -17.388156
          ],
          [
            -66.178855,
            -17.388112
          ],
          [
            -66.178745,
            -17.388064
          ],
          [
            -66.178631,
            -17.38803
          ],
          [
            -66.178563,
            -17.388019
          ],
          [
            -66.177881,
            -17.388026
          ],
          [
            -66.177787,
            -17.388026
          ],
          [
            -66.177678,
            -17.388027
          ],
          [
            -66.176907,
            -17.388035
          ],
          [
            -66.17636,
            -17.38804
          ],
          [
            -66.176251,
            -17.388041
          ],
          [
            -66.175601,
            -17.388047
          ],
          [
            -66.17485,
            -17.388054
          ],
          [
            -66.174769,
            -17.388055
          ],
          [
            -66.174701,
            -17.388057
          ],
          [
            -66.173793,
            -17.388019
          ],
          [
            -66.173643,
            -17.388012
          ],
          [
            -66.173572,
            -17.388009
          ],
          [
            -66.172117,
            -17.387939
          ],
          [
            -66.170878,
            -17.387874
          ],
          [
            -66.170792,
            -17.387882
          ],
          [
            -66.170666,
            -17.387918
          ],
          [
            -66.170629,
            -17.387961
          ],
          [
            -66.170586,
            -17.388046
          ],
          [
            -66.170562,
            -17.38814
          ],
          [
            -66.170573,
            -17.388833
          ],
          [
            -66.170596,
            -17.389538
          ],
          [
            -66.170614,
            -17.389997
          ],
          [
            -66.170615,
            -17.390061
          ],
          [
            -66.170617,
            -17.390665
          ],
          [
            -66.170622,
            -17.391233
          ],
          [
            -66.170623,
            -17.391397
          ],
          [
            -66.170644,
            -17.392118
          ],
          [
            -66.170657,
            -17.392855
          ],
          [
            -66.17068,
            -17.393547
          ],
          [
            -66.170691,
            -17.393633
          ],
          [
            -66.170738,
            -17.393699
          ],
          [
            -66.170768,
            -17.393749
          ],
          [
            -66.170811,
            -17.393791
          ],
          [
            -66.170839,
            -17.393845
          ],
          [
            -66.170849,
            -17.393905
          ],
          [
            -66.170839,
            -17.393969
          ],
          [
            -66.17081,
            -17.394025
          ],
          [
            -66.170765,
            -17.394068
          ],
          [
            -66.170705,
            -17.394095
          ],
          [
            -66.170658,
            -17.394102
          ],
          [
            -66.170608,
            -17.394098
          ],
          [
            -66.170567,
            -17.394089
          ],
          [
            -66.170425,
            -17.394073
          ],
          [
            -66.17029,
            -17.394067
          ],
          [
            -66.169213,
            -17.394123
          ],
          [
            -66.168848,
            -17.394136
          ],
          [
            -66.168749,
            -17.39414
          ],
          [
            -66.168475,
            -17.39415
          ],
          [
            -66.168352,
            -17.394154
          ],
          [
            -66.167998,
            -17.394167
          ],
          [
            -66.167899,
            -17.394168
          ],
          [
            -66.167805,
            -17.394157
          ],
          [
            -66.16771,
            -17.394146
          ],
          [
            -66.167603,
            -17.394136
          ],
          [
            -66.167473,
            -17.394122
          ],
          [
            -66.167376,
            -17.394114
          ],
          [
            -66.166963,
            -17.394065
          ],
          [
            -66.166698,
            -17.394038
          ],
          [
            -66.166609,
            -17.394026
          ],
          [
            -66.166515,
            -17.394005
          ],
          [
            -66.166338,
            -17.393931
          ],
          [
            -66.166273,
            -17.393911
          ],
          [
            -66.166192,
            -17.393894
          ],
          [
            -66.165909,
            -17.393848
          ],
          [
            -66.164906,
            -17.39367
          ],
          [
            -66.163915,
            -17.393489
          ],
          [
            -66.162053,
            -17.39318
          ],
          [
            -66.161979,
            -17.393167
          ],
          [
            -66.161115,
            -17.393017
          ],
          [
            -66.161047,
            -17.393009
          ],
          [
            -66.160979,
            -17.393
          ],
          [
            -66.159961,
            -17.392837
          ],
          [
            -66.159906,
            -17.392828
          ],
          [
            -66.159866,
            -17.392822
          ],
          [
            -66.159825,
            -17.392815
          ],
          [
            -66.159037,
            -17.392679
          ],
          [
            -66.158924,
            -17.392658
          ],
          [
            -66.158862,
            -17.392647
          ],
          [
            -66.15877,
            -17.392632
          ],
          [
            -66.15869,
            -17.392617
          ],
          [
            -66.158366,
            -17.392559
          ],
          [
            -66.15829,
            -17.392545
          ],
          [
            -66.157782,
            -17.39246
          ],
          [
            -66.157737,
            -17.392451
          ],
          [
            -66.157684,
            -17.392442
          ],
          [
            -66.157305,
            -17.392376
          ],
          [
            -66.156712,
            -17.392274
          ],
          [
            -66.156656,
            -17.392263
          ],
          [
            -66.156614,
            -17.392256
          ],
          [
            -66.156188,
            -17.392183
          ],
          [
            -66.156156,
            -17.392177
          ],
          [
            -66.155647,
            -17.392082
          ],
          [
            -66.155571,
            -17.392067
          ],
          [
            -66.15555,
            -17.392135
          ],
          [
            -66.15538,
            -17.393009
          ],
          [
            -66.155185,
            -17.394046
          ],
          [
            -66.15519,
            -17.394103
          ],
          [
            -66.155102,
            -17.394555
          ],
          [
            -66.155099,
            -17.394569
          ],
          [
            -66.155095,
            -17.394591
          ],
          [
            -66.155047,
            -17.394856
          ],
          [
            -66.155014,
            -17.395035
          ],
          [
            -66.155006,
            -17.395076
          ],
          [
            -66.154837,
            -17.39592
          ],
          [
            -66.15481,
            -17.396053
          ],
          [
            -66.154794,
            -17.396134
          ],
          [
            -66.15467,
            -17.396758
          ],
          [
            -66.15458,
            -17.397192
          ],
          [
            -66.154382,
            -17.398223
          ],
          [
            -66.154227,
            -17.399006
          ],
          [
            -66.154206,
            -17.399084
          ],
          [
            -66.154045,
            -17.399999
          ],
          [
            -66.15393,
            -17.400709
          ],
          [
            -66.153977,
            -17.401365
          ],
          [
            -66.154027,
            -17.402254
          ],
          [
            -66.154504,
            -17.402243
          ],
          [
            -66.154511,
            -17.402304
          ],
          [
            -66.154513,
            -17.402353
          ],
          [
            -66.154515,
            -17.402434
          ],
          [
            -66.154517,
            -17.4025
          ],
          [
            -66.15452,
            -17.402584
          ],
          [
            -66.154522,
            -17.402665
          ],
          [
            -66.154523,
            -17.402697
          ],
          [
            -66.154526,
            -17.402774
          ],
          [
            -66.154528,
            -17.402846
          ],
          [
            -66.15453,
            -17.402926
          ],
          [
            -66.154532,
            -17.402994
          ],
          [
            -66.154533,
            -17.403095
          ],
          [
            -66.154504,
            -17.403108
          ],
          [
            -66.154456,
            -17.403138
          ],
          [
            -66.154394,
            -17.403181
          ],
          [
            -66.154301,
            -17.403226
          ],
          [
            -66.154231,
            -17.403253
          ],
          [
            -66.154171,
            -17.403261
          ],
          [
            -66.154097,
            -17.403268
          ],
          [
            -66.153956,
            -17.403274
          ],
          [
            -66.153442,
            -17.403298
          ],
          [
            -66.15341,
            -17.403313
          ],
          [
            -66.153388,
            -17.403336
          ],
          [
            -66.153366,
            -17.403379
          ],
          [
            -66.153397,
            -17.4048
          ],
          [
            -66.153401,
            -17.404862
          ],
          [
            -66.153416,
            -17.405281
          ],
          [
            -66.153426,
            -17.40555
          ],
          [
            -66.153445,
            -17.406098
          ],
          [
            -66.153469,
            -17.407052
          ],
          [
            -66.153476,
            -17.407557
          ],
          [
            -66.153504,
            -17.408299
          ],
          [
            -66.153572,
            -17.409841
          ],
          [
            -66.153576,
            -17.409968
          ],
          [
            -66.153601,
            -17.410292
          ],
          [
            -66.153653,
            -17.411827
          ],
          [
            -66.153664,
            -17.411966
          ],
          [
            -66.153688,
            -17.412037
          ],
          [
            -66.153745,
            -17.412092
          ],
          [
            -66.153869,
            -17.412158
          ],
          [
            -66.153899,
            -17.412175
          ],
          [
            -66.153767,
            -17.412386
          ],
          [
            -66.153502,
            -17.412251
          ],
          [
            -66.153273,
            -17.412136
          ],
          [
            -66.153195,
            -17.412177
          ],
          [
            -66.15223,
            -17.412685
          ],
          [
            -66.151265,
            -17.413225
          ],
          [
            -66.151179,
            -17.413273
          ],
          [
            -66.150334,
            -17.41372
          ],
          [
            -66.149357,
            -17.414242
          ],
          [
            -66.149592,
            -17.41452
          ],
          [
            -66.149759,
            -17.414696
          ],
          [
            -66.149916,
            -17.414881
          ],
          [
            -66.150048,
            -17.415089
          ],
          [
            -66.150147,
            -17.415268
          ],
          [
            -66.150222,
            -17.415457
          ],
          [
            -66.150279,
            -17.41562
          ],
          [
            -66.150312,
            -17.415788
          ],
          [
            -66.150333,
            -17.415936
          ],
          [
            -66.150362,
            -17.416201
          ],
          [
            -66.150385,
            -17.416487
          ],
          [
            -66.150383,
            -17.416561
          ],
          [
            -66.150368,
            -17.416656
          ],
          [
            -66.1503,
            -17.417085
          ],
          [
            -66.150198,
            -17.417568
          ],
          [
            -66.150125,
            -17.417964
          ],
          [
            -66.150099,
            -17.418058
          ],
          [
            -66.150075,
            -17.418125
          ],
          [
            -66.150034,
            -17.418204
          ],
          [
            -66.149809,
            -17.418529
          ],
          [
            -66.149359,
            -17.419166
          ],
          [
            -66.149337,
            -17.419238
          ],
          [
            -66.14933,
            -17.419273
          ],
          [
            -66.149323,
            -17.419308
          ],
          [
            -66.149317,
            -17.419365
          ],
          [
            -66.149329,
            -17.419467
          ],
          [
            -66.149351,
            -17.419641
          ],
          [
            -66.149273,
            -17.419672
          ],
          [
            -66.148994,
            -17.419559
          ],
          [
            -66.148855,
            -17.419502
          ],
          [
            -66.148797,
            -17.419486
          ],
          [
            -66.148755,
            -17.419483
          ],
          [
            -66.148664,
            -17.419481
          ],
          [
            -66.148243,
            -17.419506
          ],
          [
            -66.14763,
            -17.419545
          ],
          [
            -66.147289,
            -17.419563
          ],
          [
            -66.14703,
            -17.419576
          ],
          [
            -66.14641,
            -17.419615
          ],
          [
            -66.146005,
            -17.41964
          ],
          [
            -66.145385,
            -17.419678
          ],
          [
            -66.144702,
            -17.419721
          ],
          [
            -66.144594,
            -17.419727
          ],
          [
            -66.143963,
            -17.419767
          ],
          [
            -66.143361,
            -17.419799
          ],
          [
            -66.14276,
            -17.419833
          ],
          [
            -66.142134,
            -17.419868
          ],
          [
            -66.141514,
            -17.419908
          ],
          [
            -66.140927,
            -17.419941
          ],
          [
            -66.140539,
            -17.419963
          ],
          [
            -66.140289,
            -17.419977
          ],
          [
            -66.139993,
            -17.419992
          ],
          [
            -66.139816,
            -17.420001
          ],
          [
            -66.139729,
            -17.420002
          ],
          [
            -66.139684,
            -17.420001
          ],
          [
            -66.13964,
            -17.419993
          ],
          [
            -66.139598,
            -17.419979
          ],
          [
            -66.139558,
            -17.419959
          ],
          [
            -66.139522,
            -17.419933
          ],
          [
            -66.13949,
            -17.419903
          ],
          [
            -66.139397,
            -17.419831
          ],
          [
            -66.139366,
            -17.419818
          ],
          [
            -66.139331,
            -17.419813
          ],
          [
            -66.139304,
            -17.419815
          ],
          [
            -66.139269,
            -17.419826
          ],
          [
            -66.139244,
            -17.419841
          ],
          [
            -66.138494,
            -17.420627
          ],
          [
            -66.138093,
            -17.421026
          ],
          [
            -66.137776,
            -17.421357
          ],
          [
            -66.137185,
            -17.421958
          ],
          [
            -66.136865,
            -17.422289
          ],
          [
            -66.136308,
            -17.422853
          ],
          [
            -66.136095,
            -17.423068
          ],
          [
            -66.135499,
            -17.423698
          ],
          [
            -66.135465,
            -17.42372
          ],
          [
            -66.135407,
            -17.423741
          ],
          [
            -66.135347,
            -17.423754
          ],
          [
            -66.134855,
            -17.423721
          ],
          [
            -66.134732,
            -17.423721
          ],
          [
            -66.134635,
            -17.423736
          ],
          [
            -66.134469,
            -17.423722
          ],
          [
            -66.134282,
            -17.423701
          ],
          [
            -66.132627,
            -17.423615
          ],
          [
            -66.131658,
            -17.423579
          ],
          [
            -66.131,
            -17.423559
          ],
          [
            -66.130149,
            -17.423512
          ],
          [
            -66.129199,
            -17.423466
          ],
          [
            -66.127534,
            -17.423379
          ],
          [
            -66.12679,
            -17.423337
          ],
          [
            -66.126124,
            -17.423307
          ],
          [
            -66.12467,
            -17.42321
          ],
          [
            -66.124408,
            -17.423195
          ],
          [
            -66.124313,
            -17.423188
          ],
          [
            -66.123896,
            -17.423163
          ],
          [
            -66.12358,
            -17.423586
          ],
          [
            -66.123497,
            -17.423704
          ],
          [
            -66.123396,
            -17.423948
          ],
          [
            -66.123372,
            -17.424013
          ],
          [
            -66.123353,
            -17.42409
          ],
          [
            -66.123343,
            -17.424198
          ],
          [
            -66.123335,
            -17.424372
          ],
          [
            -66.123279,
            -17.425095
          ],
          [
            -66.123251,
            -17.425629
          ],
          [
            -66.123213,
            -17.426415
          ],
          [
            -66.123166,
            -17.426988
          ],
          [
            -66.123112,
            -17.428024
          ],
          [
            -66.123046,
            -17.428019
          ],
          [
            -66.122014,
            -17.427988
          ],
          [
            -66.121192,
            -17.427941
          ],
          [
            -66.120444,
            -17.427915
          ],
          [
            -66.120419,
            -17.428505
          ],
          [
            -66.120397,
            -17.429017
          ],
          [
            -66.120393,
            -17.429063
          ],
          [
            -66.120339,
            -17.429875
          ],
          [
            -66.120318,
            -17.430239
          ],
          [
            -66.120287,
            -17.430776
          ],
          [
            -66.120311,
            -17.431464
          ],
          [
            -66.120299,
            -17.431537
          ],
          [
            -66.120259,
            -17.431618
          ],
          [
            -66.120534,
            -17.431558
          ]
        ]
      }
    }
  ]
}