{
  "type": "FeatureCollection",
  "features": [
    {
      "type": "Feature",
      "properties": {
        "route_id": "4443073",
        "route_short_name": "D",
        "route_long_name": "MicroBus D: Avenida Benjo Cruz \u2192 Calle Parque del Maestro"
      },
      "geometry": {
        "type": "LineString",
        "coordinates": [
          [
            -66.195242,
            -17.357005
          ],
          [
            -66.195403,
            -17.356973
          ],
          [
            -66.195413,
            -17.356997
          ],
          [
            -66.195432,
            -17.357045
          ],
          [
            -66.195446,
            -17.357078
          ],
          [
            -66.195572,
            -17.357556
          ],
          [
            -66.195603,
            -17.357776
          ],
          [
            -66.195615,
            -17.358163
          ],
          [
            -66.194659,
            -17.358422
          ],
          [
            -66.193592,
            -17.358747
          ],
          [
            -66.193478,
            -17.358803
          ],
          [
            -66.193292,
            -17.358962
          ],
          [
            -66.192762,
            -17.359388
          ],
          [
            -66.192641,
            -17.359511
          ],
          [
            -66.192224,
            -17.359785
          ],
          [
            -66.191965,
            -17.360022
          ],
          [
            -66.19172,
            -17.360158
          ],
          [
            -66.191367,
            -17.360335
          ],
          [
            -66.191229,
            -17.360422
          ],
          [
            -66.191192,
            -17.360445
          ],
          [
            -66.191172,
            -17.360461
          ],
          [
            -66.191047,
            -17.360551
          ],
          [
            -66.190919,
            -17.360717
          ],
          [
            -66.190338,
            -17.361592
          ],
          [
            -66.190028,
            -17.362085
          ],
          [
            -66.189906,
            -17.362277
          ],
          [
            -66.189794,
            -17.362324
          ],
          [
            -66.18981,
            -17.362405
          ],
          [
            -66.189718,
            -17.36303
          ],
          [
            -66.189621,
            -17.363642
          ],
          [
            -66.18943,
            -17.363858
          ],
          [
            -66.189392,
            -17.363954
          ],
          [
            -66.189374,
            -17.36403
          ],
          [
            -66.189152,
            -17.363801
          ],
          [
            -66.188628,
            -17.364113
          ],
          [
            -66.188498,
            -17.36419
          ],
          [
            -66.187866,
            -17.364562
          ],
          [
            -66.187032,
            -17.365023
          ],
          [
            -66.187956,
            -17.366552
          ],
          [
            -66.187987,
            -17.366626
          ],
          [
            -66.188022,
            -17.366723
          ],
          [
            -66.188044,
            -17.366874
          ],
          [
            -66.188059,
            -17.367161
          ],
          [
            -66.188097,
            -17.367757
          ],
          [
            -66.188096,
            -17.368201
          ],
          [
            -66.188198,
            -17.368576
          ],
          [
            -66.18829,
            -17.368889
          ],
          [
            -66.188552,
            -17.369768
          ],
          [
            -66.188553,
            -17.369827
          ],
          [
            -66.18855,
            -17.369888
          ],
          [
            -66.188777,
            -17.370778
          ],
          [
            -66.188789,
            -17.370829
          ],
          [
            -66.188802,
            -17.370884
          ],
          [
            -66.188601,
            -17.370896
          ],
          [
            -66.187784,
            -17.370938
          ],
          [
            -66.187003,
            -17.370983
          ],
          [
            -66.185568,
            -17.371102
          ],
          [
            -66.184777,
            -17.371152
          ],
          [
            -66.184705,
            -17.371157
          ],
          [
            -66.18465,
            -17.371161
          ],
          [
            -66.184496,
            -17.37118
          ],
          [
            -66.184375,
            -17.371213
          ],
          [
            -66.184116,
            -17.371296
          ],
          [
            -66.184058,
            -17.371315
          ],
          [
            -66.183992,
            -17.371333
          ],
          [
            -66.183907,
            -17.371353
          ],
          [
            -66.183865,
            -17.371361
          ],
          [
            -66.183824,
            -17.371368
          ],
          [
            -66.183744,
            -17.371436
          ],
          [
            -66.183698,
            -17.371484
          ],
          [
            -66.18316,
            -17.372071
          ],
          [
            -66.183046,
            -17.372193
          ],
          [
            -66.182571,
            -17.372702
          ],
          [
            -66.182068,
            -17.37324
          ],
          [
            -66.181283,
            -17.374074
          ],
          [
            -66.180985,
            -17.374418
          ],
          [
            -66.180911,
            -17.374498
          ],
          [
            -66.180787,
            -17.374638
          ],
          [
            -66.180656,
            -17.37473
          ],
          [
            -66.180577,
            -17.374792
          ],
          [
            -66.180411,
            -17.374938
          ],
          [
            -66.180184,
            -17.375108
          ],
          [
            -66.18,
            -17.37525
          ],
          [
            -66.179826,
            -17.375366
          ],
          [
            -66.179561,
            -17.375514
          ],
          [
            -66.179242,
            -17.375663
          ],
          [
            -66.178693,
            -17.375918
          ],
          [
            -66.17837,
            -17.376037
          ],
          [
            -66.178066,
            -17.376123
          ],
          [
            -66.177763,
            -17.376197
          ],
          [
            -66.176939,
            -17.376385
          ],
          [
            -66.176037,
            -17.376576
          ],
          [
            -66.175958,
            -17.376573
          ],
          [
            -66.175859,
            -17.37657
          ],
          [
            -66.174282,
            -17.376428
          ],
          [
            -66.174168,
            -17.376418
          ],
          [
            -66.173495,
            -17.376346
          ],
          [
            -66.172974,
            -17.376295
          ],
          [
            -66.17289,
            -17.376289
          ],
          [
            -66.172869,
            -17.376288
          ],
          [
            -66.172839,
            -17.376286
          ],
          [
            -66.172734,
            -17.376279
          ],
          [
            -66.172578,
            -17.376285
          ],
          [
            -66.172483,
            -17.376294
          ],
          [
            -66.172394,
            -17.376311
          ],
          [
            -66.172291,
            -17.376336
          ],
          [
            -66.172217,
            -17.376354
          ],
          [
            -66.172072,
            -17.376389
          ],
          [
            -66.171029,
            -17.376667
          ],
          [
            -66.169875,
            -17.376963
          ],
          [
            -66.169763,
            -17.377
          ],
          [
            -66.169655,
            -17.377042
          ],
          [
            -66.169516,
            -17.37711
          ],
          [
            -66.16919,
            -17.377278
          ],
          [
            -66.169124,
            -17.377311
          ],
          [
            -66.169039,
            -17.377352
          ],
          [
            -66.168938,
            -17.377401
          ],
          [
            -66.168891,
            -17.377425
          ],
          [
            -66.16878,
            -17.377484
          ],
          [
            -66.167599,
            -17.378076
          ],
          [
            -66.167505,
            -17.378122
          ],
          [
            -66.167434,
            -17.37816
          ],
          [
            -66.166632,
            -17.37856
          ],
          [
            -66.16617,
            -17.378789
          ],
          [
            -66.166059,
            -17.378851
          ],
          [
            -66.165971,
            -17.378917
          ],
          [
            -66.165864,
            -17.378993
          ],
          [
            -66.165758,
            -17.379093
          ],
          [
            -66.165675,
            -17.379173
          ],
          [
            -66.165603,
            -17.379245
          ],
          [
            -66.165582,
            -17.379265
          ],
          [
            -66.165554,
            -17.3793
          ],
          [
            -66.165512,
            -17.379334
          ],
          [
            -66.165454,
            -17.379362
          ],
          [
            -66.165371,
            -17.379376
          ],
          [
            -66.165304,
            -17.379367
          ],
          [
            -66.165242,
            -17.37934
          ],
          [
            -66.165166,
            -17.379295
          ],
          [
            -66.16509,
            -17.379245
          ],
          [
            -66.165031,
            -17.379203
          ],
          [
            -66.164883,
            -17.379127
          ],
          [
            -66.164813,
            -17.3791
          ],
          [
            -66.16468,
            -17.379067
          ],
          [
            -66.164298,
            -17.378982
          ],
          [
            -66.163488,
            -17.378794
          ],
          [
            -66.16265,
            -17.378607
          ],
          [
            -66.16256,
            -17.378574
          ],
          [
            -66.16249,
            -17.378538
          ],
          [
            -66.16241,
            -17.378486
          ],
          [
            -66.162249,
            -17.378354
          ],
          [
            -66.16216,
            -17.378295
          ],
          [
            -66.162055,
            -17.378248
          ],
          [
            -66.161957,
            -17.378218
          ],
          [
            -66.161864,
            -17.378206
          ],
          [
            -66.161787,
            -17.378204
          ],
          [
            -66.161704,
            -17.378206
          ],
          [
            -66.161391,
            -17.378231
          ],
          [
            -66.161296,
            -17.378232
          ],
          [
            -66.161225,
            -17.378225
          ],
          [
            -66.16116,
            -17.378215
          ],
          [
            -66.161134,
            -17.378214
          ],
          [
            -66.161102,
            -17.378219
          ],
          [
            -66.161065,
            -17.378232
          ],
          [
            -66.161027,
            -17.378256
          ],
          [
            -66.160737,
            -17.379244
          ],
          [
            -66.160421,
            -17.380327
          ],
          [
            -66.160388,
            -17.380454
          ],
          [
            -66.160384,
            -17.380521
          ],
          [
            -66.160395,
            -17.380571
          ],
          [
            -66.160434,
            -17.380703
          ],
          [
            -66.160445,
            -17.380747
          ],
          [
            -66.160451,
            -17.380788
          ],
          [
            -66.160449,
            -17.380831
          ],
          [
            -66.160432,
            -17.380879
          ],
          [
            -66.160394,
            -17.380945
          ],
          [
            -66.160348,
            -17.381026
          ],
          [
            -66.160324,
            -17.381095
          ],
          [
            -66.160303,
            -17.381155
          ],
          [
            -66.160284,
            -17.381209
          ],
          [
            -66.160265,
            -17.381271
          ],
          [
            -66.160255,
            -17.381306
          ],
          [
            -66.160149,
            -17.381663
          ],
          [
            -66.160139,
            -17.381699
          ],
          [
            -66.160118,
            -17.381778
          ],
          [
            -66.160107,
            -17.381844
          ],
          [
            -66.1601,
            -17.381917
          ],
          [
            -66.160102,
            -17.382008
          ],
          [
            -66.160124,
            -17.382136
          ],
          [
            -66.160147,
            -17.382213
          ],
          [
            -66.160147,
            -17.382293
          ],
          [
            -66.160134,
            -17.382365
          ],
          [
            -66.160105,
            -17.382433
          ],
          [
            -66.160049,
            -17.382493
          ],
          [
            -66.159948,
            -17.382564
          ],
          [
            -66.159811,
            -17.382667
          ],
          [
            -66.159744,
            -17.382741
          ],
          [
            -66.1597,
            -17.382801
          ],
          [
            -66.159604,
            -17.382936
          ],
          [
            -66.159491,
            -17.383083
          ],
          [
            -66.159325,
            -17.383296
          ],
          [
            -66.159292,
            -17.383339
          ],
          [
            -66.159241,
            -17.383405
          ],
          [
            -66.15909,
            -17.383596
          ],
          [
            -66.158875,
            -17.383893
          ],
          [
            -66.158834,
            -17.383948
          ],
          [
            -66.158793,
            -17.384001
          ],
          [
            -66.158446,
            -17.38444
          ],
          [
            -66.158365,
            -17.384554
          ],
          [
            -66.158256,
            -17.384691
          ],
          [
            -66.158175,
            -17.384799
          ],
          [
            -66.158068,
            -17.38494
          ],
          [
            -66.158018,
            -17.385084
          ],
          [
            -66.157978,
            -17.385289
          ],
          [
            -66.157952,
            -17.385397
          ],
          [
            -66.158003,
            -17.385422
          ],
          [
            -66.158876,
            -17.385882
          ],
          [
            -66.158914,
            -17.3859
          ],
          [
            -66.15896,
            -17.385913
          ],
          [
            -66.160067,
            -17.386105
          ],
          [
            -66.16014,
            -17.386116
          ],
          [
            -66.159906,
            -17.387288
          ],
          [
            -66.159895,
            -17.387344
          ],
          [
            -66.159742,
            -17.388177
          ],
          [
            -66.159721,
            -17.388281
          ],
          [
            -66.1597,
            -17.388402
          ],
          [
            -66.159517,
            -17.38928
          ],
          [
            -66.159502,
            -17.389357
          ],
          [
            -66.159493,
            -17.389406
          ],
          [
            -66.159313,
            -17.3904
          ],
          [
            -66.159307,
            -17.390434
          ],
          [
            -66.159292,
            -17.390506
          ],
          [
            -66.159241,
            -17.39076
          ],
          [
            -66.159109,
            -17.391403
          ],
          [
            -66.159096,
            -17.391477
          ],
          [
            -66.159088,
            -17.391515
          ],
          [
            -66.158889,
            -17.392506
          ],
          [
            -66.158879,
            -17.392559
          ],
          [
            -66.158862,
            -17.392647
          ],
          [
            -66.15885,
            -17.39271
          ],
          [
            -66.158694,
            -17.393514
          ],
          [
            -66.158678,
            -17.393586
          ],
          [
            -66.158669,
            -17.39363
          ],
          [
            -66.158468,
            -17.394624
          ],
          [
            -66.158285,
            -17.395625
          ],
          [
            -66.158278,
            -17.395669
          ],
          [
            -66.15827,
            -17.395715
          ],
          [
            -66.158136,
            -17.396672
          ],
          [
            -66.15813,
            -17.396715
          ],
          [
            -66.158124,
            -17.396768
          ],
          [
            -66.157969,
            -17.397736
          ],
          [
            -66.157959,
            -17.397794
          ],
          [
            -66.157949,
            -17.397857
          ],
          [
            -66.157771,
            -17.398908
          ],
          [
            -66.157727,
            -17.399291
          ],
          [
            -66.157728,
            -17.399353
          ],
          [
            -66.157813,
            -17.399341
          ],
          [
            -66.158533,
            -17.399231
          ],
          [
            -66.158685,
            -17.399402
          ],
          [
            -66.158676,
            -17.399457
          ],
          [
            -66.158666,
            -17.399515
          ],
          [
            -66.15781,
            -17.399491
          ],
          [
            -66.157729,
            -17.399487
          ],
          [
            -66.157636,
            -17.399482
          ],
          [
            -66.157568,
            -17.399479
          ],
          [
            -66.156846,
            -17.399579
          ],
          [
            -66.156742,
            -17.399592
          ],
          [
            -66.156599,
            -17.399596
          ],
          [
            -66.156402,
            -17.399592
          ],
          [
            -66.156219,
            -17.400783
          ],
          [
            -66.156116,
            -17.401314
          ],
          [
            -66.155948,
            -17.402196
          ],
          [
            -66.155911,
            -17.402295
          ],
          [
            -66.15542,
            -17.402301
          ],
          [
            -66.155316,
            -17.402192
          ],
          [
            -66.155307,
            -17.401651
          ],
          [
            -66.155285,
            -17.401299
          ],
          [
            -66.155201,
            -17.400649
          ],
          [
            -66.155177,
            -17.40015
          ],
          [
            -66.155175,
            -17.400035
          ],
          [
            -66.155179,
            -17.39997
          ],
          [
            -66.155189,
            -17.399895
          ],
          [
            -66.155283,
            -17.399341
          ],
          [
            -66.155229,
            -17.399325
          ],
          [
            -66.154206,
            -17.399084
          ],
          [
            -66.153184,
            -17.398846
          ],
          [
            -66.153125,
            -17.39883
          ],
          [
            -66.152748,
            -17.398736
          ],
          [
            -66.15272,
            -17.398727
          ],
          [
            -66.152659,
            -17.398707
          ],
          [
            -66.152219,
            -17.398546
          ],
          [
            -66.152079,
            -17.398505
          ],
          [
            -66.151998,
            -17.398495
          ],
          [
            -66.151842,
            -17.398499
          ],
          [
            -66.151085,
            -17.39854
          ],
          [
            -66.150657,
            -17.398596
          ],
          [
            -66.150467,
            -17.398591
          ],
          [
            -66.149941,
            -17.398553
          ],
          [
            -66.148493,
            -17.398455
          ],
          [
            -66.148328,
            -17.398445
          ],
          [
            -66.148149,
            -17.398422
          ],
          [
            -66.147977,
            -17.398394
          ],
          [
            -66.147828,
            -17.398358
          ],
          [
            -66.147654,
            -17.398294
          ],
          [
            -66.147434,
            -17.398206
          ],
          [
            -66.14674,
            -17.397858
          ],
          [
            -66.145233,
            -17.397087
          ],
          [
            -66.144904,
            -17.397155
          ],
          [
            -66.144236,
            -17.397291
          ],
          [
            -66.143548,
            -17.397426
          ],
          [
            -66.142774,
            -17.39758
          ],
          [
            -66.142564,
            -17.397617
          ],
          [
            -66.142213,
            -17.397689
          ],
          [
            -66.141402,
            -17.397848
          ],
          [
            -66.140976,
            -17.397932
          ],
          [
            -66.140163,
            -17.398094
          ],
          [
            -66.139945,
            -17.398138
          ],
          [
            -66.139893,
            -17.398115
          ],
          [
            -66.139979,
            -17.397932
          ],
          [
            -66.140708,
            -17.396336
          ],
          [
            -66.140735,
            -17.396276
          ],
          [
            -66.140768,
            -17.396204
          ],
          [
            -66.141454,
            -17.394703
          ],
          [
            -66.141484,
            -17.394639
          ],
          [
            -66.141506,
            -17.39459
          ],
          [
            -66.141766,
            -17.394033
          ],
          [
            -66.141784,
            -17.393917
          ],
          [
            -66.141769,
            -17.393898
          ],
          [
            -66.14176,
            -17.393875
          ],
          [
            -66.141759,
            -17.393851
          ],
          [
            -66.141743,
            -17.393815
          ],
          [
            -66.141721,
            -17.39378
          ],
          [
            -66.141495,
            -17.393506
          ],
          [
            -66.141045,
            -17.392955
          ],
          [
            -66.140065,
            -17.391747
          ],
          [
            -66.139468,
            -17.392202
          ],
          [
            -66.139459,
            -17.392191
          ],
          [
            -66.139424,
            -17.392147
          ],
          [
            -66.139313,
            -17.392115
          ],
          [
            -66.139197,
            -17.392087
          ],
          [
            -66.139083,
            -17.392079
          ],
          [
            -66.138989,
            -17.392094
          ],
          [
            -66.138903,
            -17.392128
          ],
          [
            -66.138838,
            -17.392171
          ],
          [
            -66.138772,
            -17.392225
          ],
          [
            -66.138717,
            -17.392291
          ],
          [
            -66.138684,
            -17.392361
          ],
          [
            -66.138556,
            -17.392764
          ],
          [
            -66.138349,
            -17.393484
          ],
          [
            -66.137875,
            -17.395193
          ],
          [
            -66.137326,
            -17.397136
          ],
          [
            -66.137755,
            -17.397245
          ],
          [
            -66.137933,
            -17.397298
          ],
          [
            -66.138057,
            -17.397337
          ],
          [
            -66.138151,
            -17.397378
          ]
        ]
      }
    }
  ]
}