{
  "type": "FeatureCollection",
  "features": [
    {
      "type": "Feature",
      "properties": {
        "route_id": "4443363",
        "route_short_name": "E",
        "route_long_name": "MicroBus E: Avenida Circunvalaci\u00f3n Beijing \u2192 Avenida Chacancalle"
      },
      "geometry": {
        "type": "LineString",
        "coordinates": [
          [
            -66.114388,
            -17.372912
          ],
          [
            -66.114954,
            -17.372928
          ],
          [
            -66.11571,
            -17.372959
          ],
          [
            -66.116938,
            -17.373022
          ],
          [
            -66.116932,
            -17.373134
          ],
          [
            -66.116905,
            -17.373613
          ],
          [
            -66.11689,
            -17.374044
          ],
          [
            -66.116875,
            -17.37447
          ],
          [
            -66.11687,
            -17.374613
          ],
          [
            -66.116996,
            -17.374592
          ],
          [
            -66.117178,
            -17.374533
          ],
          [
            -66.117717,
            -17.375058
          ],
          [
            -66.117747,
            -17.375091
          ],
          [
            -66.118377,
            -17.37574
          ],
          [
            -66.119021,
            -17.376398
          ],
          [
            -66.11985,
            -17.377031
          ],
          [
            -66.120583,
            -17.376784
          ],
          [
            -66.120606,
            -17.376767
          ],
          [
            -66.120633,
            -17.376758
          ],
          [
            -66.120661,
            -17.376757
          ],
          [
            -66.12129,
            -17.376558
          ],
          [
            -66.121494,
            -17.37651
          ],
          [
            -66.121372,
            -17.375673
          ],
          [
            -66.12165,
            -17.37563
          ],
          [
            -66.121843,
            -17.375609
          ],
          [
            -66.122087,
            -17.375603
          ],
          [
            -66.122565,
            -17.375606
          ],
          [
            -66.122604,
            -17.374728
          ],
          [
            -66.12262,
            -17.374399
          ],
          [
            -66.12263,
            -17.374183
          ],
          [
            -66.122639,
            -17.374001
          ],
          [
            -66.122645,
            -17.373888
          ],
          [
            -66.122653,
            -17.373709
          ],
          [
            -66.122667,
            -17.373418
          ],
          [
            -66.12267,
            -17.373363
          ],
          [
            -66.12267,
            -17.373341
          ],
          [
            -66.122678,
            -17.373314
          ],
          [
            -66.122695,
            -17.373292
          ],
          [
            -66.12272,
            -17.373277
          ],
          [
            -66.122748,
            -17.373271
          ],
          [
            -66.122776,
            -17.373274
          ],
          [
            -66.12282,
            -17.373279
          ],
          [
            -66.122894,
            -17.373287
          ],
          [
            -66.122951,
            -17.373293
          ],
          [
            -66.123048,
            -17.373301
          ],
          [
            -66.123411,
            -17.373309
          ],
          [
            -66.123546,
            -17.373317
          ],
          [
            -66.123579,
            -17.373319
          ],
          [
            -66.123912,
            -17.373325
          ],
          [
            -66.124144,
            -17.373325
          ],
          [
            -66.12473,
            -17.373342
          ],
          [
            -66.125605,
            -17.373374
          ],
          [
            -66.125818,
            -17.373386
          ],
          [
            -66.126145,
            -17.373406
          ],
          [
            -66.126233,
            -17.37341
          ],
          [
            -66.127622,
            -17.37346
          ],
          [
            -66.128638,
            -17.373474
          ],
          [
            -66.12875,
            -17.37351
          ],
          [
            -66.128847,
            -17.373561
          ],
          [
            -66.128877,
            -17.373621
          ],
          [
            -66.128897,
            -17.373697
          ],
          [
            -66.12897,
            -17.374224
          ],
          [
            -66.129059,
            -17.374774
          ],
          [
            -66.129083,
            -17.374823
          ],
          [
            -66.129114,
            -17.374861
          ],
          [
            -66.12917,
            -17.374893
          ],
          [
            -66.1292,
            -17.374899
          ],
          [
            -66.129274,
            -17.374894
          ],
          [
            -66.129339,
            -17.37488
          ],
          [
            -66.129437,
            -17.374854
          ],
          [
            -66.129617,
            -17.37478
          ],
          [
            -66.129841,
            -17.374701
          ],
          [
            -66.130055,
            -17.374638
          ],
          [
            -66.13028,
            -17.37459
          ],
          [
            -66.130522,
            -17.37455
          ],
          [
            -66.130769,
            -17.374529
          ],
          [
            -66.131392,
            -17.374523
          ],
          [
            -66.13191,
            -17.374529
          ],
          [
            -66.132141,
            -17.374527
          ],
          [
            -66.132369,
            -17.374526
          ],
          [
            -66.134525,
            -17.374534
          ],
          [
            -66.134675,
            -17.374545
          ],
          [
            -66.134869,
            -17.374569
          ],
          [
            -66.135057,
            -17.374603
          ],
          [
            -66.135239,
            -17.374646
          ],
          [
            -66.135429,
            -17.3747
          ],
          [
            -66.135587,
            -17.374755
          ],
          [
            -66.135766,
            -17.374829
          ],
          [
            -66.13596,
            -17.37492
          ],
          [
            -66.136176,
            -17.375045
          ],
          [
            -66.136629,
            -17.375342
          ],
          [
            -66.137149,
            -17.375692
          ],
          [
            -66.137177,
            -17.375711
          ],
          [
            -66.137563,
            -17.375943
          ],
          [
            -66.137902,
            -17.376124
          ],
          [
            -66.138255,
            -17.376294
          ],
          [
            -66.138483,
            -17.376392
          ],
          [
            -66.138718,
            -17.376486
          ],
          [
            -66.138942,
            -17.376566
          ],
          [
            -66.139193,
            -17.376646
          ],
          [
            -66.139641,
            -17.376772
          ],
          [
            -66.140381,
            -17.376957
          ],
          [
            -66.140842,
            -17.377022
          ],
          [
            -66.141042,
            -17.377051
          ],
          [
            -66.141191,
            -17.377079
          ],
          [
            -66.141465,
            -17.377142
          ],
          [
            -66.142007,
            -17.377268
          ],
          [
            -66.142225,
            -17.377319
          ],
          [
            -66.142283,
            -17.377351
          ],
          [
            -66.142311,
            -17.377371
          ],
          [
            -66.142337,
            -17.377395
          ],
          [
            -66.142364,
            -17.377424
          ],
          [
            -66.142385,
            -17.377458
          ],
          [
            -66.142406,
            -17.377499
          ],
          [
            -66.142418,
            -17.377538
          ],
          [
            -66.142423,
            -17.377578
          ],
          [
            -66.142423,
            -17.377606
          ],
          [
            -66.142421,
            -17.377634
          ],
          [
            -66.142405,
            -17.377763
          ],
          [
            -66.142381,
            -17.378052
          ],
          [
            -66.142338,
            -17.378226
          ],
          [
            -66.142319,
            -17.378409
          ],
          [
            -66.142289,
            -17.378682
          ],
          [
            -66.142257,
            -17.378854
          ],
          [
            -66.142225,
            -17.379208
          ],
          [
            -66.142179,
            -17.37963
          ],
          [
            -66.142141,
            -17.37998
          ],
          [
            -66.14213,
            -17.380104
          ],
          [
            -66.142119,
            -17.380233
          ],
          [
            -66.142104,
            -17.380346
          ],
          [
            -66.142089,
            -17.380467
          ],
          [
            -66.142038,
            -17.380863
          ],
          [
            -66.142065,
            -17.380962
          ],
          [
            -66.142092,
            -17.381053
          ],
          [
            -66.142121,
            -17.381131
          ],
          [
            -66.142163,
            -17.3812
          ],
          [
            -66.142243,
            -17.3813
          ],
          [
            -66.142379,
            -17.381422
          ],
          [
            -66.142769,
            -17.381693
          ],
          [
            -66.142806,
            -17.381721
          ],
          [
            -66.142893,
            -17.381785
          ],
          [
            -66.142849,
            -17.381884
          ],
          [
            -66.142827,
            -17.381974
          ],
          [
            -66.142812,
            -17.38205
          ],
          [
            -66.142797,
            -17.382191
          ],
          [
            -66.142805,
            -17.382327
          ],
          [
            -66.142835,
            -17.382454
          ],
          [
            -66.14295,
            -17.382751
          ],
          [
            -66.1431,
            -17.383161
          ],
          [
            -66.143122,
            -17.383223
          ],
          [
            -66.143208,
            -17.383464
          ],
          [
            -66.143366,
            -17.383863
          ],
          [
            -66.143547,
            -17.384263
          ],
          [
            -66.143575,
            -17.384324
          ],
          [
            -66.143773,
            -17.384853
          ],
          [
            -66.143829,
            -17.384969
          ],
          [
            -66.14385,
            -17.385012
          ],
          [
            -66.143875,
            -17.385077
          ],
          [
            -66.143462,
            -17.385226
          ],
          [
            -66.142895,
            -17.385427
          ],
          [
            -66.142912,
            -17.386657
          ],
          [
            -66.142911,
            -17.387539
          ],
          [
            -66.14292,
            -17.388297
          ],
          [
            -66.142927,
            -17.388586
          ],
          [
            -66.142934,
            -17.38895
          ],
          [
            -66.142933,
            -17.38953
          ],
          [
            -66.142925,
            -17.38962
          ],
          [
            -66.142904,
            -17.389702
          ],
          [
            -66.14215,
            -17.389557
          ],
          [
            -66.141765,
            -17.389481
          ],
          [
            -66.141283,
            -17.38939
          ],
          [
            -66.14122,
            -17.389377
          ],
          [
            -66.141111,
            -17.389355
          ],
          [
            -66.141095,
            -17.389405
          ],
          [
            -66.140422,
            -17.391448
          ],
          [
            -66.141722,
            -17.391671
          ],
          [
            -66.142687,
            -17.391846
          ],
          [
            -66.142745,
            -17.391857
          ],
          [
            -66.142807,
            -17.391868
          ],
          [
            -66.143085,
            -17.391919
          ],
          [
            -66.143648,
            -17.392013
          ],
          [
            -66.14372,
            -17.392026
          ],
          [
            -66.144156,
            -17.392101
          ],
          [
            -66.144263,
            -17.39212
          ],
          [
            -66.144377,
            -17.392139
          ],
          [
            -66.144431,
            -17.392148
          ],
          [
            -66.144575,
            -17.392172
          ],
          [
            -66.14485,
            -17.392218
          ],
          [
            -66.145127,
            -17.392265
          ],
          [
            -66.145347,
            -17.392302
          ],
          [
            -66.145845,
            -17.392385
          ],
          [
            -66.146663,
            -17.392531
          ],
          [
            -66.146834,
            -17.392563
          ],
          [
            -66.146894,
            -17.392573
          ],
          [
            -66.147226,
            -17.392634
          ],
          [
            -66.147313,
            -17.39263
          ],
          [
            -66.147365,
            -17.39262
          ],
          [
            -66.147398,
            -17.392602
          ],
          [
            -66.147418,
            -17.39258
          ],
          [
            -66.14744,
            -17.392525
          ],
          [
            -66.14747,
            -17.392466
          ],
          [
            -66.147533,
            -17.392154
          ],
          [
            -66.147587,
            -17.391875
          ],
          [
            -66.147617,
            -17.391718
          ],
          [
            -66.147612,
            -17.391641
          ],
          [
            -66.147674,
            -17.391662
          ],
          [
            -66.148147,
            -17.391748
          ],
          [
            -66.148619,
            -17.391834
          ],
          [
            -66.148691,
            -17.391834
          ],
          [
            -66.149763,
            -17.392027
          ],
          [
            -66.14982,
            -17.392033
          ],
          [
            -66.150411,
            -17.392135
          ],
          [
            -66.150973,
            -17.392235
          ],
          [
            -66.151028,
            -17.392245
          ],
          [
            -66.15108,
            -17.392254
          ],
          [
            -66.152094,
            -17.392431
          ],
          [
            -66.153198,
            -17.392624
          ],
          [
            -66.153,
            -17.393664
          ],
          [
            -66.152808,
            -17.394698
          ],
          [
            -66.152617,
            -17.395754
          ],
          [
            -66.152423,
            -17.396818
          ],
          [
            -66.152249,
            -17.397788
          ],
          [
            -66.152243,
            -17.397898
          ],
          [
            -66.152249,
            -17.398145
          ],
          [
            -66.152228,
            -17.398381
          ],
          [
            -66.152219,
            -17.398466
          ],
          [
            -66.152219,
            -17.398546
          ],
          [
            -66.152191,
            -17.398799
          ],
          [
            -66.152165,
            -17.399158
          ],
          [
            -66.152148,
            -17.399257
          ],
          [
            -66.152152,
            -17.399909
          ],
          [
            -66.152196,
            -17.401461
          ],
          [
            -66.152258,
            -17.402333
          ],
          [
            -66.15267,
            -17.402316
          ],
          [
            -66.153324,
            -17.40229
          ],
          [
            -66.153295,
            -17.401383
          ],
          [
            -66.15325,
            -17.400725
          ],
          [
            -66.153227,
            -17.399898
          ],
          [
            -66.153197,
            -17.399102
          ],
          [
            -66.153192,
            -17.398998
          ],
          [
            -66.153184,
            -17.398846
          ],
          [
            -66.153188,
            -17.398769
          ],
          [
            -66.153253,
            -17.398424
          ],
          [
            -66.153322,
            -17.398064
          ],
          [
            -66.153532,
            -17.397006
          ],
          [
            -66.153732,
            -17.395947
          ],
          [
            -66.153922,
            -17.394892
          ],
          [
            -66.154001,
            -17.394466
          ],
          [
            -66.154011,
            -17.394412
          ],
          [
            -66.154112,
            -17.393861
          ],
          [
            -66.154297,
            -17.392943
          ],
          [
            -66.154313,
            -17.392865
          ],
          [
            -66.154321,
            -17.392824
          ],
          [
            -66.154328,
            -17.392791
          ],
          [
            -66.154493,
            -17.391925
          ],
          [
            -66.1545,
            -17.391876
          ],
          [
            -66.154518,
            -17.391787
          ],
          [
            -66.154597,
            -17.3918
          ],
          [
            -66.155536,
            -17.391967
          ],
          [
            -66.155601,
            -17.391978
          ],
          [
            -66.155662,
            -17.391988
          ],
          [
            -66.156629,
            -17.39217
          ],
          [
            -66.156673,
            -17.392178
          ],
          [
            -66.156727,
            -17.392187
          ],
          [
            -66.157322,
            -17.392289
          ],
          [
            -66.157699,
            -17.392354
          ],
          [
            -66.157753,
            -17.392363
          ],
          [
            -66.157797,
            -17.392371
          ],
          [
            -66.158706,
            -17.392529
          ],
          [
            -66.158786,
            -17.392542
          ],
          [
            -66.158879,
            -17.392559
          ],
          [
            -66.15894,
            -17.39257
          ],
          [
            -66.159876,
            -17.392724
          ],
          [
            -66.15992,
            -17.392731
          ],
          [
            -66.159972,
            -17.39274
          ],
          [
            -66.161004,
            -17.392913
          ],
          [
            -66.161061,
            -17.392926
          ],
          [
            -66.161129,
            -17.392944
          ],
          [
            -66.161993,
            -17.393095
          ],
          [
            -66.162063,
            -17.393107
          ],
          [
            -66.163928,
            -17.393418
          ],
          [
            -66.164921,
            -17.393602
          ],
          [
            -66.165917,
            -17.393779
          ],
          [
            -66.166231,
            -17.39383
          ],
          [
            -66.166439,
            -17.393829
          ],
          [
            -66.16661,
            -17.393841
          ],
          [
            -66.166791,
            -17.393901
          ],
          [
            -66.166842,
            -17.393916
          ],
          [
            -66.166937,
            -17.393937
          ],
          [
            -66.167351,
            -17.393978
          ],
          [
            -66.167446,
            -17.393974
          ],
          [
            -66.167566,
            -17.393955
          ],
          [
            -66.167642,
            -17.393945
          ],
          [
            -66.167797,
            -17.393916
          ],
          [
            -66.167983,
            -17.393884
          ],
          [
            -66.168452,
            -17.39386
          ],
          [
            -66.168603,
            -17.393852
          ],
          [
            -66.168686,
            -17.393847
          ],
          [
            -66.16904,
            -17.393829
          ],
          [
            -66.170294,
            -17.393778
          ],
          [
            -66.170407,
            -17.393766
          ],
          [
            -66.170544,
            -17.393744
          ],
          [
            -66.170598,
            -17.393719
          ],
          [
            -66.170657,
            -17.393711
          ],
          [
            -66.170715,
            -17.393721
          ],
          [
            -66.170768,
            -17.393749
          ],
          [
            -66.170889,
            -17.393784
          ],
          [
            -66.17108,
            -17.393821
          ],
          [
            -66.171181,
            -17.393835
          ],
          [
            -66.17129,
            -17.393838
          ],
          [
            -66.173912,
            -17.39372
          ],
          [
            -66.174359,
            -17.393702
          ],
          [
            -66.174412,
            -17.3937
          ],
          [
            -66.176206,
            -17.39362
          ],
          [
            -66.176443,
            -17.39361
          ],
          [
            -66.176576,
            -17.393604
          ],
          [
            -66.176802,
            -17.393594
          ],
          [
            -66.177511,
            -17.393564
          ],
          [
            -66.178586,
            -17.393512
          ],
          [
            -66.179906,
            -17.393454
          ],
          [
            -66.179978,
            -17.393452
          ],
          [
            -66.180952,
            -17.393404
          ],
          [
            -66.181751,
            -17.393373
          ],
          [
            -66.182345,
            -17.393344
          ],
          [
            -66.1841,
            -17.393278
          ],
          [
            -66.184452,
            -17.39326
          ],
          [
            -66.186412,
            -17.393171
          ],
          [
            -66.186639,
            -17.393159
          ],
          [
            -66.187412,
            -17.393127
          ],
          [
            -66.188857,
            -17.393063
          ],
          [
            -66.189274,
            -17.393044
          ],
          [
            -66.191125,
            -17.392965
          ],
          [
            -66.192135,
            -17.39292
          ],
          [
            -66.193899,
            -17.392841
          ],
          [
            -66.194723,
            -17.392809
          ],
          [
            -66.19693,
            -17.392708
          ],
          [
            -66.197091,
            -17.392701
          ],
          [
            -66.198926,
            -17.392621
          ],
          [
            -66.199468,
            -17.392486
          ],
          [
            -66.199527,
            -17.392442
          ],
          [
            -66.199578,
            -17.392354
          ],
          [
            -66.199545,
            -17.391687
          ],
          [
            -66.199519,
            -17.39127
          ],
          [
            -66.199443,
            -17.390272
          ],
          [
            -66.199432,
            -17.390154
          ],
          [
            -66.199314,
            -17.388894
          ],
          [
            -66.199249,
            -17.388084
          ],
          [
            -66.199199,
            -17.387438
          ],
          [
            -66.199146,
            -17.386784
          ],
          [
            -66.199106,
            -17.386146
          ],
          [
            -66.199099,
            -17.386027
          ],
          [
            -66.199096,
            -17.386011
          ],
          [
            -66.199091,
            -17.385981
          ],
          [
            -66.199079,
            -17.385916
          ],
          [
            -66.199072,
            -17.385895
          ],
          [
            -66.199071,
            -17.385874
          ],
          [
            -66.199075,
            -17.385852
          ],
          [
            -66.199084,
            -17.385832
          ],
          [
            -66.199096,
            -17.385817
          ],
          [
            -66.199112,
            -17.385804
          ],
          [
            -66.199113,
            -17.385745
          ],
          [
            -66.199111,
            -17.385702
          ],
          [
            -66.199071,
            -17.385141
          ],
          [
            -66.199003,
            -17.383923
          ],
          [
            -66.198974,
            -17.383153
          ],
          [
            -66.198896,
            -17.381399
          ],
          [
            -66.198882,
            -17.381265
          ],
          [
            -66.198998,
            -17.381249
          ],
          [
            -66.198987,
            -17.381059
          ],
          [
            -66.198967,
            -17.380706
          ],
          [
            -66.19894,
            -17.3802
          ],
          [
            -66.198906,
            -17.379577
          ],
          [
            -66.198876,
            -17.379032
          ],
          [
            -66.198874,
            -17.378967
          ],
          [
            -66.199901,
            -17.378863
          ],
          [
            -66.200676,
            -17.378797
          ],
          [
            -66.200675,
            -17.378175
          ],
          [
            -66.200676,
            -17.378117
          ],
          [
            -66.200675,
            -17.378059
          ],
          [
            -66.200675,
            -17.37799
          ],
          [
            -66.200682,
            -17.377704
          ],
          [
            -66.201521,
            -17.377512
          ],
          [
            -66.202331,
            -17.377339
          ],
          [
            -66.202414,
            -17.377324
          ],
          [
            -66.203738,
            -17.377025
          ],
          [
            -66.205108,
            -17.3767
          ],
          [
            -66.206771,
            -17.376331
          ],
          [
            -66.207398,
            -17.3762
          ],
          [
            -66.207384,
            -17.373947
          ],
          [
            -66.2073,
            -17.370596
          ],
          [
            -66.207311,
            -17.370456
          ],
          [
            -66.207288,
            -17.370355
          ],
          [
            -66.207222,
            -17.370233
          ],
          [
            -66.207204,
            -17.370116
          ],
          [
            -66.207193,
            -17.370063
          ],
          [
            -66.207184,
            -17.36999
          ],
          [
            -66.207305,
            -17.369928
          ],
          [
            -66.209596,
            -17.368938
          ],
          [
            -66.209677,
            -17.368891
          ],
          [
            -66.209941,
            -17.368785
          ],
          [
            -66.21112,
            -17.368322
          ],
          [
            -66.212237,
            -17.367859
          ],
          [
            -66.212669,
            -17.367687
          ],
          [
            -66.214237,
            -17.367031
          ],
          [
            -66.215283,
            -17.36657
          ],
          [
            -66.215858,
            -17.366302
          ],
          [
            -66.216129,
            -17.366175
          ],
          [
            -66.216682,
            -17.365912
          ],
          [
            -66.219407,
            -17.364615
          ],
          [
            -66.219455,
            -17.364598
          ],
          [
            -66.219537,
            -17.364555
          ],
          [
            -66.219561,
            -17.364544
          ],
          [
            -66.220773,
            -17.363965
          ],
          [
            -66.221814,
            -17.363493
          ],
          [
            -66.222964,
            -17.362961
          ],
          [
            -66.223707,
            -17.362696
          ],
          [
            -66.223805,
            -17.36266
          ],
          [
            -66.224417,
            -17.362457
          ],
          [
            -66.224868,
            -17.36227
          ],
          [
            -66.225274,
            -17.362089
          ],
          [
            -66.225328,
            -17.362068
          ],
          [
            -66.226593,
            -17.361499
          ],
          [
            -66.227317,
            -17.361173
          ],
          [
            -66.227845,
            -17.360938
          ],
          [
            -66.228016,
            -17.360891
          ]
        ]
      }
    }
  ]
}