{
  "type": "FeatureCollection",
  "features": [
    {
      "type": "Feature",
      "properties": {
        "route_id": "11103802",
        "route_short_name": "F",
        "route_long_name": "MicroBus F: Calle 2 \u2192 La Maica Chica"
      },
      "geometry": {
        "type": "LineString",
        "coordinates": [
          [
            -66.172668,
            -17.34519
          ],
          [
            -66.173029,
            -17.345727
          ],
          [
            -66.173537,
            -17.346413
          ],
          [
            -66.173563,
            -17.346462
          ],
          [
            -66.173594,
            -17.34651
          ],
          [
            -66.173272,
            -17.347024
          ],
          [
            -66.173077,
            -17.347359
          ],
          [
            -66.172628,
            -17.348132
          ],
          [
            -66.172591,
            -17.348199
          ],
          [
            -66.172538,
            -17.348282
          ],
          [
            -66.172516,
            -17.348318
          ],
          [
            -66.172364,
            -17.348565
          ],
          [
            -66.172238,
            -17.348754
          ],
          [
            -66.172058,
            -17.348979
          ],
          [
            -66.171909,
            -17.349127
          ],
          [
            -66.171724,
            -17.349294
          ],
          [
            -66.171425,
            -17.349508
          ],
          [
            -66.170844,
            -17.349898
          ],
          [
            -66.170418,
            -17.350198
          ],
          [
            -66.169982,
            -17.350476
          ],
          [
            -66.169394,
            -17.350765
          ],
          [
            -66.169094,
            -17.350861
          ],
          [
            -66.168924,
            -17.350871
          ],
          [
            -66.168755,
            -17.350855
          ],
          [
            -66.168699,
            -17.350852
          ],
          [
            -66.167775,
            -17.3508
          ],
          [
            -66.167158,
            -17.350784
          ],
          [
            -66.166552,
            -17.350758
          ],
          [
            -66.165962,
            -17.350737
          ],
          [
            -66.165917,
            -17.350737
          ],
          [
            -66.165393,
            -17.350711
          ],
          [
            -66.165328,
            -17.35071
          ],
          [
            -66.164673,
            -17.350659
          ],
          [
            -66.163791,
            -17.35059
          ],
          [
            -66.163726,
            -17.350591
          ],
          [
            -66.163679,
            -17.350598
          ],
          [
            -66.163629,
            -17.350612
          ],
          [
            -66.163586,
            -17.350631
          ],
          [
            -66.16302,
            -17.350964
          ],
          [
            -66.162268,
            -17.35141
          ],
          [
            -66.162132,
            -17.351491
          ],
          [
            -66.160946,
            -17.352196
          ],
          [
            -66.161257,
            -17.352672
          ],
          [
            -66.16131,
            -17.352714
          ],
          [
            -66.16174,
            -17.353216
          ],
          [
            -66.162176,
            -17.353704
          ],
          [
            -66.162254,
            -17.353803
          ],
          [
            -66.162647,
            -17.354313
          ],
          [
            -66.162662,
            -17.354332
          ],
          [
            -66.163068,
            -17.354821
          ],
          [
            -66.163302,
            -17.355307
          ],
          [
            -66.163315,
            -17.3554
          ],
          [
            -66.163287,
            -17.355571
          ],
          [
            -66.163242,
            -17.355791
          ],
          [
            -66.163365,
            -17.356101
          ],
          [
            -66.163626,
            -17.356759
          ],
          [
            -66.163635,
            -17.356783
          ],
          [
            -66.164001,
            -17.357706
          ],
          [
            -66.163616,
            -17.357856
          ],
          [
            -66.163011,
            -17.358071
          ],
          [
            -66.16276,
            -17.358165
          ],
          [
            -66.163155,
            -17.359151
          ],
          [
            -66.163496,
            -17.360035
          ],
          [
            -66.163439,
            -17.360025
          ],
          [
            -66.163257,
            -17.360084
          ],
          [
            -66.16185,
            -17.360549
          ],
          [
            -66.160694,
            -17.360941
          ],
          [
            -66.161033,
            -17.361867
          ],
          [
            -66.161351,
            -17.362768
          ],
          [
            -66.161824,
            -17.364071
          ],
          [
            -66.161853,
            -17.364153
          ],
          [
            -66.162127,
            -17.364909
          ],
          [
            -66.162182,
            -17.364989
          ],
          [
            -66.162206,
            -17.36504
          ],
          [
            -66.16224,
            -17.365094
          ],
          [
            -66.162268,
            -17.365148
          ],
          [
            -66.162285,
            -17.365191
          ],
          [
            -66.161441,
            -17.366013
          ],
          [
            -66.161064,
            -17.366401
          ],
          [
            -66.160419,
            -17.367063
          ],
          [
            -66.160224,
            -17.367299
          ],
          [
            -66.160122,
            -17.367313
          ],
          [
            -66.159425,
            -17.367395
          ],
          [
            -66.159627,
            -17.368385
          ],
          [
            -66.159273,
            -17.36869
          ],
          [
            -66.15922,
            -17.36873
          ],
          [
            -66.159186,
            -17.368777
          ],
          [
            -66.159148,
            -17.368847
          ],
          [
            -66.159139,
            -17.368876
          ],
          [
            -66.159106,
            -17.368991
          ],
          [
            -66.159129,
            -17.369101
          ],
          [
            -66.159187,
            -17.369741
          ],
          [
            -66.15919,
            -17.369791
          ],
          [
            -66.159234,
            -17.370527
          ],
          [
            -66.159242,
            -17.370655
          ],
          [
            -66.15927,
            -17.371081
          ],
          [
            -66.159275,
            -17.37157
          ],
          [
            -66.159265,
            -17.371701
          ],
          [
            -66.159214,
            -17.37194
          ],
          [
            -66.159163,
            -17.372194
          ],
          [
            -66.159077,
            -17.372618
          ],
          [
            -66.15907,
            -17.372683
          ],
          [
            -66.159078,
            -17.372781
          ],
          [
            -66.158992,
            -17.372786
          ],
          [
            -66.158933,
            -17.37279
          ],
          [
            -66.158869,
            -17.372794
          ],
          [
            -66.157245,
            -17.372896
          ],
          [
            -66.157214,
            -17.372904
          ],
          [
            -66.157168,
            -17.372945
          ],
          [
            -66.157136,
            -17.373009
          ],
          [
            -66.157089,
            -17.373063
          ],
          [
            -66.15705,
            -17.373092
          ],
          [
            -66.157008,
            -17.373115
          ],
          [
            -66.156961,
            -17.373174
          ],
          [
            -66.156925,
            -17.373219
          ],
          [
            -66.156901,
            -17.373252
          ],
          [
            -66.156856,
            -17.373878
          ],
          [
            -66.156884,
            -17.374518
          ],
          [
            -66.156899,
            -17.374944
          ],
          [
            -66.1569,
            -17.374962
          ],
          [
            -66.156902,
            -17.375057
          ],
          [
            -66.156903,
            -17.375115
          ],
          [
            -66.156921,
            -17.375501
          ],
          [
            -66.156944,
            -17.376374
          ],
          [
            -66.156954,
            -17.377028
          ],
          [
            -66.156994,
            -17.378031
          ],
          [
            -66.156999,
            -17.378121
          ],
          [
            -66.15708,
            -17.378117
          ],
          [
            -66.157643,
            -17.378075
          ],
          [
            -66.158602,
            -17.378009
          ],
          [
            -66.158633,
            -17.378007
          ],
          [
            -66.159217,
            -17.377973
          ],
          [
            -66.159301,
            -17.377965
          ],
          [
            -66.15938,
            -17.37796
          ],
          [
            -66.159441,
            -17.377954
          ],
          [
            -66.160169,
            -17.377901
          ],
          [
            -66.160378,
            -17.377889
          ],
          [
            -66.16042,
            -17.377893
          ],
          [
            -66.160461,
            -17.377904
          ],
          [
            -66.160859,
            -17.378015
          ],
          [
            -66.160967,
            -17.378046
          ],
          [
            -66.161078,
            -17.378075
          ],
          [
            -66.161027,
            -17.378256
          ],
          [
            -66.160737,
            -17.379244
          ],
          [
            -66.160421,
            -17.380327
          ],
          [
            -66.160388,
            -17.380454
          ],
          [
            -66.160384,
            -17.380521
          ],
          [
            -66.160395,
            -17.380571
          ],
          [
            -66.160434,
            -17.380703
          ],
          [
            -66.160445,
            -17.380747
          ],
          [
            -66.160451,
            -17.380788
          ],
          [
            -66.160449,
            -17.380831
          ],
          [
            -66.160432,
            -17.380879
          ],
          [
            -66.160394,
            -17.380945
          ],
          [
            -66.160348,
            -17.381026
          ],
          [
            -66.160324,
            -17.381095
          ],
          [
            -66.160303,
            -17.381155
          ],
          [
            -66.160284,
            -17.381209
          ],
          [
            -66.160265,
            -17.381271
          ],
          [
            -66.160255,
            -17.381306
          ],
          [
            -66.160149,
            -17.381663
          ],
          [
            -66.160139,
            -17.381699
          ],
          [
            -66.160118,
            -17.381778
          ],
          [
            -66.160107,
            -17.381844
          ],
          [
            -66.1601,
            -17.381917
          ],
          [
            -66.160102,
            -17.382008
          ],
          [
            -66.160124,
            -17.382136
          ],
          [
            -66.160147,
            -17.382213
          ],
          [
            -66.160147,
            -17.382293
          ],
          [
            -66.160134,
            -17.382365
          ],
          [
            -66.160105,
            -17.382433
          ],
          [
            -66.160049,
            -17.382493
          ],
          [
            -66.159948,
            -17.382564
          ],
          [
            -66.159811,
            -17.382667
          ],
          [
            -66.159744,
            -17.382741
          ],
          [
            -66.1597,
            -17.382801
          ],
          [
            -66.159604,
            -17.382936
          ],
          [
            -66.159491,
            -17.383083
          ],
          [
            -66.159325,
            -17.383296
          ],
          [
            -66.159292,
            -17.383339
          ],
          [
            -66.159241,
            -17.383405
          ],
          [
            -66.15909,
            -17.383596
          ],
          [
            -66.158875,
            -17.383893
          ],
          [
            -66.158834,
            -17.383948
          ],
          [
            -66.158793,
            -17.384001
          ],
          [
            -66.158446,
            -17.38444
          ],
          [
            -66.158365,
            -17.384554
          ],
          [
            -66.158256,
            -17.384691
          ],
          [
            -66.158175,
            -17.384799
          ],
          [
            -66.158068,
            -17.38494
          ],
          [
            -66.158014,
            -17.385013
          ],
          [
            -66.157971,
            -17.385072
          ],
          [
            -66.157936,
            -17.385118
          ],
          [
            -66.157861,
            -17.385215
          ],
          [
            -66.157761,
            -17.385339
          ],
          [
            -66.157508,
            -17.385663
          ],
          [
            -66.156861,
            -17.38651
          ],
          [
            -66.156792,
            -17.386601
          ],
          [
            -66.156849,
            -17.386637
          ],
          [
            -66.157592,
            -17.386993
          ],
          [
            -66.157641,
            -17.387005
          ],
          [
            -66.157737,
            -17.387017
          ],
          [
            -66.158638,
            -17.387139
          ],
          [
            -66.158692,
            -17.387146
          ],
          [
            -66.158743,
            -17.387153
          ],
          [
            -66.159828,
            -17.387331
          ],
          [
            -66.159895,
            -17.387344
          ],
          [
            -66.159742,
            -17.388177
          ],
          [
            -66.159721,
            -17.388281
          ],
          [
            -66.1597,
            -17.388402
          ],
          [
            -66.159517,
            -17.38928
          ],
          [
            -66.159502,
            -17.389357
          ],
          [
            -66.159493,
            -17.389406
          ],
          [
            -66.159313,
            -17.3904
          ],
          [
            -66.159307,
            -17.390434
          ],
          [
            -66.159292,
            -17.390506
          ],
          [
            -66.159241,
            -17.39076
          ],
          [
            -66.159109,
            -17.391403
          ],
          [
            -66.159096,
            -17.391477
          ],
          [
            -66.159088,
            -17.391515
          ],
          [
            -66.158889,
            -17.392506
          ],
          [
            -66.158879,
            -17.392559
          ],
          [
            -66.158862,
            -17.392647
          ],
          [
            -66.15885,
            -17.39271
          ],
          [
            -66.158694,
            -17.393514
          ],
          [
            -66.158678,
            -17.393586
          ],
          [
            -66.158669,
            -17.39363
          ],
          [
            -66.158468,
            -17.394624
          ],
          [
            -66.158285,
            -17.395625
          ],
          [
            -66.158278,
            -17.395669
          ],
          [
            -66.15827,
            -17.395715
          ],
          [
            -66.158136,
            -17.396672
          ],
          [
            -66.15813,
            -17.396715
          ],
          [
            -66.158124,
            -17.396768
          ],
          [
            -66.157969,
            -17.397736
          ],
          [
            -66.157959,
            -17.397794
          ],
          [
            -66.157949,
            -17.397857
          ],
          [
            -66.157771,
            -17.398908
          ],
          [
            -66.157727,
            -17.399291
          ],
          [
            -66.157728,
            -17.399353
          ],
          [
            -66.157813,
            -17.399341
          ],
          [
            -66.158533,
            -17.399231
          ],
          [
            -66.158685,
            -17.399402
          ],
          [
            -66.158676,
            -17.399457
          ],
          [
            -66.158666,
            -17.399515
          ],
          [
            -66.15781,
            -17.399491
          ],
          [
            -66.157729,
            -17.399487
          ],
          [
            -66.157636,
            -17.399482
          ],
          [
            -66.157568,
            -17.399479
          ],
          [
            -66.156846,
            -17.399579
          ],
          [
            -66.156742,
            -17.399592
          ],
          [
            -66.156599,
            -17.399596
          ],
          [
            -66.156402,
            -17.399592
          ],
          [
            -66.156219,
            -17.400783
          ],
          [
            -66.156116,
            -17.401314
          ],
          [
            -66.155948,
            -17.402196
          ],
          [
            -66.155911,
            -17.402295
          ],
          [
            -66.15542,
            -17.402301
          ],
          [
            -66.155316,
            -17.402192
          ],
          [
            -66.155307,
            -17.401651
          ],
          [
            -66.155285,
            -17.401299
          ],
          [
            -66.155201,
            -17.400649
          ],
          [
            -66.156219,
            -17.400783
          ],
          [
            -66.156736,
            -17.400874
          ],
          [
            -66.157393,
            -17.400959
          ],
          [
            -66.157479,
            -17.40097
          ],
          [
            -66.15759,
            -17.400982
          ],
          [
            -66.157572,
            -17.401163
          ],
          [
            -66.157533,
            -17.401542
          ],
          [
            -66.157493,
            -17.401979
          ],
          [
            -66.157476,
            -17.40212
          ],
          [
            -66.15746,
            -17.40225
          ],
          [
            -66.157367,
            -17.402927
          ],
          [
            -66.15729,
            -17.403424
          ],
          [
            -66.157198,
            -17.403985
          ],
          [
            -66.157174,
            -17.404029
          ],
          [
            -66.157149,
            -17.404081
          ],
          [
            -66.156975,
            -17.405144
          ],
          [
            -66.156929,
            -17.405396
          ],
          [
            -66.156715,
            -17.406568
          ],
          [
            -66.156675,
            -17.406831
          ],
          [
            -66.156608,
            -17.407373
          ],
          [
            -66.156579,
            -17.407596
          ],
          [
            -66.156564,
            -17.407672
          ],
          [
            -66.156552,
            -17.407749
          ],
          [
            -66.156392,
            -17.408892
          ],
          [
            -66.156442,
            -17.409252
          ],
          [
            -66.156499,
            -17.409537
          ],
          [
            -66.156531,
            -17.409702
          ],
          [
            -66.156552,
            -17.409773
          ],
          [
            -66.156684,
            -17.410014
          ],
          [
            -66.156885,
            -17.41048
          ],
          [
            -66.156917,
            -17.410604
          ],
          [
            -66.15693,
            -17.410758
          ],
          [
            -66.156958,
            -17.410897
          ],
          [
            -66.156963,
            -17.410925
          ],
          [
            -66.15697,
            -17.410962
          ],
          [
            -66.156989,
            -17.411016
          ],
          [
            -66.157027,
            -17.411099
          ],
          [
            -66.157163,
            -17.411241
          ],
          [
            -66.15735,
            -17.411413
          ],
          [
            -66.157631,
            -17.411658
          ],
          [
            -66.157828,
            -17.411771
          ],
          [
            -66.15804,
            -17.411859
          ],
          [
            -66.158197,
            -17.411907
          ],
          [
            -66.158425,
            -17.41196
          ],
          [
            -66.158511,
            -17.411998
          ],
          [
            -66.158585,
            -17.412041
          ],
          [
            -66.159426,
            -17.412699
          ],
          [
            -66.159469,
            -17.412718
          ],
          [
            -66.159522,
            -17.412736
          ],
          [
            -66.159567,
            -17.412726
          ],
          [
            -66.159612,
            -17.41273
          ],
          [
            -66.159654,
            -17.412747
          ],
          [
            -66.159689,
            -17.412775
          ],
          [
            -66.159713,
            -17.412811
          ],
          [
            -66.159769,
            -17.412953
          ],
          [
            -66.159813,
            -17.413018
          ],
          [
            -66.160702,
            -17.413696
          ],
          [
            -66.161531,
            -17.414315
          ],
          [
            -66.161719,
            -17.414443
          ],
          [
            -66.161906,
            -17.414527
          ],
          [
            -66.162046,
            -17.414559
          ],
          [
            -66.162161,
            -17.414587
          ],
          [
            -66.162485,
            -17.414614
          ],
          [
            -66.162584,
            -17.414623
          ],
          [
            -66.162666,
            -17.414648
          ],
          [
            -66.162799,
            -17.41471
          ],
          [
            -66.162909,
            -17.414807
          ],
          [
            -66.162984,
            -17.414929
          ],
          [
            -66.16302,
            -17.415066
          ],
          [
            -66.163013,
            -17.415208
          ],
          [
            -66.162964,
            -17.415342
          ],
          [
            -66.162876,
            -17.415456
          ],
          [
            -66.162758,
            -17.415542
          ],
          [
            -66.162619,
            -17.415592
          ],
          [
            -66.162329,
            -17.415677
          ],
          [
            -66.162092,
            -17.415781
          ],
          [
            -66.161878,
            -17.415923
          ],
          [
            -66.16168,
            -17.416134
          ],
          [
            -66.160809,
            -17.417189
          ],
          [
            -66.161192,
            -17.417434
          ],
          [
            -66.161269,
            -17.418171
          ],
          [
            -66.161316,
            -17.418885
          ],
          [
            -66.161372,
            -17.419607
          ],
          [
            -66.161441,
            -17.420334
          ],
          [
            -66.161489,
            -17.421059
          ],
          [
            -66.161529,
            -17.421453
          ],
          [
            -66.161658,
            -17.42176
          ],
          [
            -66.161972,
            -17.422236
          ],
          [
            -66.16203,
            -17.422331
          ],
          [
            -66.161988,
            -17.422779
          ],
          [
            -66.160849,
            -17.422749
          ],
          [
            -66.160125,
            -17.422727
          ],
          [
            -66.160003,
            -17.422725
          ],
          [
            -66.159753,
            -17.422721
          ],
          [
            -66.159725,
            -17.423634
          ],
          [
            -66.15971,
            -17.424555
          ],
          [
            -66.159641,
            -17.425754
          ],
          [
            -66.159636,
            -17.425812
          ],
          [
            -66.159587,
            -17.426766
          ],
          [
            -66.159585,
            -17.426904
          ],
          [
            -66.159555,
            -17.427004
          ],
          [
            -66.159508,
            -17.427142
          ],
          [
            -66.15943,
            -17.427281
          ],
          [
            -66.159377,
            -17.42736
          ],
          [
            -66.159315,
            -17.427435
          ],
          [
            -66.159217,
            -17.427518
          ],
          [
            -66.159255,
            -17.427654
          ],
          [
            -66.159317,
            -17.427875
          ],
          [
            -66.159443,
            -17.428333
          ],
          [
            -66.159735,
            -17.429338
          ],
          [
            -66.159762,
            -17.42942
          ],
          [
            -66.160211,
            -17.430958
          ],
          [
            -66.16027,
            -17.431169
          ],
          [
            -66.160668,
            -17.43255
          ],
          [
            -66.160913,
            -17.433402
          ],
          [
            -66.162012,
            -17.433223
          ],
          [
            -66.162093,
            -17.433212
          ],
          [
            -66.162075,
            -17.433745
          ],
          [
            -66.1621,
            -17.433817
          ],
          [
            -66.162135,
            -17.433864
          ],
          [
            -66.162183,
            -17.433908
          ],
          [
            -66.162256,
            -17.433939
          ],
          [
            -66.16238,
            -17.433963
          ],
          [
            -66.162443,
            -17.433952
          ],
          [
            -66.162556,
            -17.43394
          ],
          [
            -66.162646,
            -17.433943
          ],
          [
            -66.162778,
            -17.43396
          ],
          [
            -66.163837,
            -17.43421
          ],
          [
            -66.164081,
            -17.434263
          ],
          [
            -66.164161,
            -17.434254
          ],
          [
            -66.164228,
            -17.434241
          ],
          [
            -66.164288,
            -17.43422
          ],
          [
            -66.164344,
            -17.434192
          ],
          [
            -66.164393,
            -17.434157
          ],
          [
            -66.165486,
            -17.433221
          ],
          [
            -66.165826,
            -17.432907
          ],
          [
            -66.16669,
            -17.432205
          ],
          [
            -66.167915,
            -17.431143
          ],
          [
            -66.169282,
            -17.429983
          ],
          [
            -66.169506,
            -17.429799
          ],
          [
            -66.169906,
            -17.429443
          ],
          [
            -66.171968,
            -17.427636
          ],
          [
            -66.172874,
            -17.426849
          ],
          [
            -66.173754,
            -17.42609
          ],
          [
            -66.174775,
            -17.425207
          ],
          [
            -66.174826,
            -17.425144
          ],
          [
            -66.174904,
            -17.425092
          ],
          [
            -66.174968,
            -17.425063
          ],
          [
            -66.175022,
            -17.425054
          ],
          [
            -66.175073,
            -17.425057
          ],
          [
            -66.1751,
            -17.425058
          ],
          [
            -66.175172,
            -17.425075
          ],
          [
            -66.175241,
            -17.425108
          ],
          [
            -66.175317,
            -17.425154
          ],
          [
            -66.175366,
            -17.425193
          ],
          [
            -66.176537,
            -17.426109
          ],
          [
            -66.176716,
            -17.42625
          ],
          [
            -66.177998,
            -17.427259
          ],
          [
            -66.178519,
            -17.42766
          ],
          [
            -66.178537,
            -17.427675
          ],
          [
            -66.1793,
            -17.428287
          ],
          [
            -66.179454,
            -17.42841
          ],
          [
            -66.18068,
            -17.429347
          ],
          [
            -66.181658,
            -17.430121
          ],
          [
            -66.182396,
            -17.43069
          ],
          [
            -66.183036,
            -17.431205
          ],
          [
            -66.183132,
            -17.43128
          ],
          [
            -66.183224,
            -17.431342
          ],
          [
            -66.183303,
            -17.431261
          ],
          [
            -66.183401,
            -17.431199
          ],
          [
            -66.183494,
            -17.431161
          ],
          [
            -66.183637,
            -17.431112
          ],
          [
            -66.183664,
            -17.431104
          ],
          [
            -66.18372,
            -17.431058
          ],
          [
            -66.183741,
            -17.431031
          ],
          [
            -66.183761,
            -17.430996
          ],
          [
            -66.183862,
            -17.43076
          ],
          [
            -66.183961,
            -17.430552
          ],
          [
            -66.184011,
            -17.430477
          ],
          [
            -66.184148,
            -17.43036
          ],
          [
            -66.184829,
            -17.429965
          ],
          [
            -66.185068,
            -17.429836
          ],
          [
            -66.185135,
            -17.429789
          ],
          [
            -66.185174,
            -17.429746
          ],
          [
            -66.185211,
            -17.429689
          ],
          [
            -66.185219,
            -17.429616
          ],
          [
            -66.185208,
            -17.42955
          ],
          [
            -66.185176,
            -17.429468
          ],
          [
            -66.184831,
            -17.428926
          ],
          [
            -66.184785,
            -17.428838
          ],
          [
            -66.184758,
            -17.428775
          ],
          [
            -66.184752,
            -17.428704
          ],
          [
            -66.184777,
            -17.428534
          ],
          [
            -66.184899,
            -17.427996
          ],
          [
            -66.184915,
            -17.427811
          ],
          [
            -66.184893,
            -17.427287
          ],
          [
            -66.184854,
            -17.426095
          ],
          [
            -66.184858,
            -17.425521
          ],
          [
            -66.184815,
            -17.423391
          ],
          [
            -66.186132,
            -17.423337
          ]
        ]
      }
    }
  ]
}