{
  "type": "FeatureCollection",
  "features": [
    {
      "type": "Feature",
      "properties": {
        "route_id": "5387555",
        "route_short_name": "G",
        "route_long_name": "MicroBus G: Avenida Arqu\u00edmedes \u2192 Calle Alipio Valencia Vega"
      },
      "geometry": {
        "type": "LineString",
        "coordinates": [
          [
            -66.191168,
            -17.400326
          ],
          [
            -66.190997,
            -17.399789
          ],
          [
            -66.190694,
            -17.398861
          ],
          [
            -66.189997,
            -17.398912
          ],
          [
            -66.189149,
            -17.398968
          ],
          [
            -66.188327,
            -17.399041
          ],
          [
            -66.187502,
            -17.39911
          ],
          [
            -66.186549,
            -17.3992
          ],
          [
            -66.186437,
            -17.39925
          ],
          [
            -66.186343,
            -17.399299
          ],
          [
            -66.186269,
            -17.399344
          ],
          [
            -66.186227,
            -17.399367
          ],
          [
            -66.18618,
            -17.399378
          ],
          [
            -66.186131,
            -17.399374
          ],
          [
            -66.186086,
            -17.399358
          ],
          [
            -66.186048,
            -17.399329
          ],
          [
            -66.186019,
            -17.399288
          ],
          [
            -66.186004,
            -17.399241
          ],
          [
            -66.186006,
            -17.399191
          ],
          [
            -66.185996,
            -17.399161
          ],
          [
            -66.185943,
            -17.399006
          ],
          [
            -66.185666,
            -17.398186
          ],
          [
            -66.185481,
            -17.397619
          ],
          [
            -66.185383,
            -17.39733
          ],
          [
            -66.18525,
            -17.396939
          ],
          [
            -66.185101,
            -17.396422
          ],
          [
            -66.185094,
            -17.396396
          ],
          [
            -66.185074,
            -17.396351
          ],
          [
            -66.185047,
            -17.396329
          ],
          [
            -66.184961,
            -17.396282
          ],
          [
            -66.184943,
            -17.396276
          ],
          [
            -66.184883,
            -17.396259
          ],
          [
            -66.184823,
            -17.396249
          ],
          [
            -66.184791,
            -17.396244
          ],
          [
            -66.183947,
            -17.396258
          ],
          [
            -66.183275,
            -17.396284
          ],
          [
            -66.182555,
            -17.396304
          ],
          [
            -66.181867,
            -17.396314
          ],
          [
            -66.181664,
            -17.396311
          ],
          [
            -66.181579,
            -17.396316
          ],
          [
            -66.181511,
            -17.39632
          ],
          [
            -66.180676,
            -17.39634
          ],
          [
            -66.179823,
            -17.396365
          ],
          [
            -66.179196,
            -17.396377
          ],
          [
            -66.178723,
            -17.396379
          ],
          [
            -66.178593,
            -17.396381
          ],
          [
            -66.178609,
            -17.396475
          ],
          [
            -66.178831,
            -17.39781
          ],
          [
            -66.178934,
            -17.398399
          ],
          [
            -66.1781,
            -17.39841
          ],
          [
            -66.177324,
            -17.398421
          ],
          [
            -66.176548,
            -17.398442
          ],
          [
            -66.176452,
            -17.397912
          ],
          [
            -66.176161,
            -17.396422
          ],
          [
            -66.175449,
            -17.396438
          ],
          [
            -66.175245,
            -17.396442
          ],
          [
            -66.174226,
            -17.396468
          ],
          [
            -66.174125,
            -17.39647
          ],
          [
            -66.174021,
            -17.396473
          ],
          [
            -66.174018,
            -17.396402
          ],
          [
            -66.174015,
            -17.396337
          ],
          [
            -66.174003,
            -17.395879
          ],
          [
            -66.173962,
            -17.395248
          ],
          [
            -66.173939,
            -17.394662
          ],
          [
            -66.173937,
            -17.394618
          ],
          [
            -66.173936,
            -17.394572
          ],
          [
            -66.173915,
            -17.393975
          ],
          [
            -66.173912,
            -17.393942
          ],
          [
            -66.17391,
            -17.393844
          ],
          [
            -66.171329,
            -17.393958
          ],
          [
            -66.171173,
            -17.393975
          ],
          [
            -66.171037,
            -17.394003
          ],
          [
            -66.170902,
            -17.394036
          ],
          [
            -66.170765,
            -17.394068
          ],
          [
            -66.170705,
            -17.394095
          ],
          [
            -66.170658,
            -17.394102
          ],
          [
            -66.170608,
            -17.394098
          ],
          [
            -66.170567,
            -17.394089
          ],
          [
            -66.170425,
            -17.394073
          ],
          [
            -66.17029,
            -17.394067
          ],
          [
            -66.169213,
            -17.394123
          ],
          [
            -66.168848,
            -17.394136
          ],
          [
            -66.168749,
            -17.39414
          ],
          [
            -66.168475,
            -17.39415
          ],
          [
            -66.168352,
            -17.394154
          ],
          [
            -66.167998,
            -17.394167
          ],
          [
            -66.167899,
            -17.394168
          ],
          [
            -66.167805,
            -17.394157
          ],
          [
            -66.16771,
            -17.394146
          ],
          [
            -66.167603,
            -17.394136
          ],
          [
            -66.167473,
            -17.394122
          ],
          [
            -66.167376,
            -17.394114
          ],
          [
            -66.166963,
            -17.394065
          ],
          [
            -66.166698,
            -17.394038
          ],
          [
            -66.166609,
            -17.394026
          ],
          [
            -66.166515,
            -17.394005
          ],
          [
            -66.166338,
            -17.393931
          ],
          [
            -66.166273,
            -17.393911
          ],
          [
            -66.166192,
            -17.393894
          ],
          [
            -66.165909,
            -17.393848
          ],
          [
            -66.164906,
            -17.39367
          ],
          [
            -66.163915,
            -17.393489
          ],
          [
            -66.162053,
            -17.39318
          ],
          [
            -66.161979,
            -17.393167
          ],
          [
            -66.161115,
            -17.393017
          ],
          [
            -66.161047,
            -17.393009
          ],
          [
            -66.160979,
            -17.393
          ],
          [
            -66.159961,
            -17.392837
          ],
          [
            -66.159906,
            -17.392828
          ],
          [
            -66.159866,
            -17.392822
          ],
          [
            -66.159825,
            -17.392815
          ],
          [
            -66.159037,
            -17.392679
          ],
          [
            -66.158924,
            -17.392658
          ],
          [
            -66.158862,
            -17.392647
          ],
          [
            -66.15885,
            -17.39271
          ],
          [
            -66.158694,
            -17.393514
          ],
          [
            -66.158678,
            -17.393586
          ],
          [
            -66.158669,
            -17.39363
          ],
          [
            -66.158468,
            -17.394624
          ],
          [
            -66.158285,
            -17.395625
          ],
          [
            -66.158278,
            -17.395669
          ],
          [
            -66.15827,
            -17.395715
          ],
          [
            -66.158136,
            -17.396672
          ],
          [
            -66.15813,
            -17.396715
          ],
          [
            -66.158124,
            -17.396768
          ],
          [
            -66.157969,
            -17.397736
          ],
          [
            -66.157959,
            -17.397794
          ],
          [
            -66.157949,
            -17.397857
          ],
          [
            -66.157771,
            -17.398908
          ],
          [
            -66.157727,
            -17.399291
          ],
          [
            -66.157728,
            -17.399353
          ],
          [
            -66.157729,
            -17.399487
          ],
          [
            -66.157725,
            -17.399553
          ],
          [
            -66.15771,
            -17.399806
          ],
          [
            -66.157674,
            -17.400165
          ],
          [
            -66.1576,
            -17.40091
          ],
          [
            -66.15759,
            -17.400982
          ],
          [
            -66.157572,
            -17.401163
          ],
          [
            -66.157533,
            -17.401542
          ],
          [
            -66.157493,
            -17.401979
          ],
          [
            -66.157476,
            -17.40212
          ],
          [
            -66.15746,
            -17.40225
          ],
          [
            -66.157367,
            -17.402927
          ],
          [
            -66.15729,
            -17.403424
          ],
          [
            -66.157198,
            -17.403985
          ],
          [
            -66.157174,
            -17.404029
          ],
          [
            -66.157149,
            -17.404081
          ],
          [
            -66.156975,
            -17.405144
          ],
          [
            -66.156929,
            -17.405396
          ],
          [
            -66.156715,
            -17.406568
          ],
          [
            -66.156675,
            -17.406831
          ],
          [
            -66.156608,
            -17.407373
          ],
          [
            -66.156579,
            -17.407596
          ],
          [
            -66.156556,
            -17.407612
          ],
          [
            -66.15653,
            -17.407621
          ],
          [
            -66.156491,
            -17.407622
          ],
          [
            -66.156452,
            -17.407608
          ],
          [
            -66.156417,
            -17.407578
          ],
          [
            -66.156419,
            -17.407471
          ],
          [
            -66.156393,
            -17.407327
          ],
          [
            -66.156186,
            -17.406089
          ],
          [
            -66.155968,
            -17.40497
          ],
          [
            -66.155783,
            -17.404114
          ],
          [
            -66.155649,
            -17.403486
          ],
          [
            -66.155537,
            -17.402966
          ],
          [
            -66.155537,
            -17.402826
          ],
          [
            -66.155513,
            -17.402717
          ],
          [
            -66.155497,
            -17.402642
          ],
          [
            -66.155476,
            -17.402549
          ],
          [
            -66.155468,
            -17.402503
          ],
          [
            -66.155452,
            -17.402434
          ],
          [
            -66.155439,
            -17.402374
          ],
          [
            -66.15542,
            -17.402301
          ],
          [
            -66.155316,
            -17.402192
          ],
          [
            -66.155307,
            -17.401651
          ],
          [
            -66.155285,
            -17.401299
          ],
          [
            -66.153977,
            -17.401365
          ],
          [
            -66.15364,
            -17.401374
          ],
          [
            -66.153295,
            -17.401383
          ],
          [
            -66.15325,
            -17.400725
          ],
          [
            -66.153227,
            -17.399898
          ],
          [
            -66.153197,
            -17.399102
          ],
          [
            -66.153192,
            -17.398998
          ],
          [
            -66.153184,
            -17.398846
          ],
          [
            -66.153188,
            -17.398769
          ],
          [
            -66.153253,
            -17.398424
          ],
          [
            -66.153322,
            -17.398064
          ],
          [
            -66.153532,
            -17.397006
          ],
          [
            -66.153732,
            -17.395947
          ],
          [
            -66.153922,
            -17.394892
          ],
          [
            -66.154001,
            -17.394466
          ],
          [
            -66.154011,
            -17.394412
          ],
          [
            -66.154112,
            -17.393861
          ],
          [
            -66.154297,
            -17.392943
          ],
          [
            -66.154313,
            -17.392865
          ],
          [
            -66.154321,
            -17.392824
          ],
          [
            -66.154328,
            -17.392791
          ],
          [
            -66.154493,
            -17.391925
          ],
          [
            -66.1545,
            -17.391876
          ],
          [
            -66.154518,
            -17.391787
          ],
          [
            -66.154529,
            -17.391726
          ],
          [
            -66.154722,
            -17.39071
          ],
          [
            -66.154916,
            -17.38972
          ],
          [
            -66.154921,
            -17.389693
          ],
          [
            -66.155119,
            -17.388731
          ],
          [
            -66.155132,
            -17.388666
          ],
          [
            -66.155149,
            -17.388571
          ],
          [
            -66.155222,
            -17.388161
          ],
          [
            -66.155316,
            -17.387676
          ],
          [
            -66.155337,
            -17.387584
          ],
          [
            -66.155279,
            -17.387572
          ],
          [
            -66.155194,
            -17.387517
          ],
          [
            -66.155161,
            -17.387481
          ],
          [
            -66.155078,
            -17.387369
          ],
          [
            -66.155005,
            -17.387253
          ],
          [
            -66.154972,
            -17.387151
          ],
          [
            -66.154651,
            -17.386671
          ],
          [
            -66.154604,
            -17.3866
          ],
          [
            -66.154562,
            -17.386533
          ],
          [
            -66.154023,
            -17.385677
          ],
          [
            -66.153977,
            -17.385604
          ],
          [
            -66.153929,
            -17.385531
          ],
          [
            -66.153553,
            -17.38492
          ],
          [
            -66.153522,
            -17.384869
          ],
          [
            -66.153448,
            -17.384886
          ],
          [
            -66.153342,
            -17.384869
          ],
          [
            -66.153285,
            -17.384847
          ],
          [
            -66.153238,
            -17.384822
          ],
          [
            -66.153187,
            -17.384784
          ],
          [
            -66.153139,
            -17.384733
          ],
          [
            -66.1531,
            -17.384683
          ],
          [
            -66.153065,
            -17.384614
          ],
          [
            -66.153033,
            -17.384523
          ],
          [
            -66.153023,
            -17.384449
          ],
          [
            -66.153022,
            -17.384383
          ],
          [
            -66.15306,
            -17.384302
          ],
          [
            -66.153099,
            -17.384251
          ],
          [
            -66.153053,
            -17.384188
          ],
          [
            -66.152714,
            -17.383652
          ],
          [
            -66.152672,
            -17.383585
          ],
          [
            -66.152634,
            -17.383527
          ],
          [
            -66.152178,
            -17.382822
          ],
          [
            -66.152105,
            -17.38278
          ],
          [
            -66.15205,
            -17.382753
          ],
          [
            -66.151969,
            -17.382722
          ],
          [
            -66.151793,
            -17.382745
          ],
          [
            -66.151659,
            -17.382745
          ],
          [
            -66.151563,
            -17.382723
          ],
          [
            -66.151471,
            -17.382674
          ],
          [
            -66.151387,
            -17.382619
          ],
          [
            -66.151301,
            -17.382543
          ],
          [
            -66.151259,
            -17.382496
          ],
          [
            -66.151231,
            -17.382448
          ],
          [
            -66.151205,
            -17.382372
          ],
          [
            -66.151182,
            -17.382259
          ],
          [
            -66.151177,
            -17.382144
          ],
          [
            -66.151188,
            -17.382059
          ],
          [
            -66.15121,
            -17.381992
          ],
          [
            -66.151225,
            -17.381956
          ],
          [
            -66.151271,
            -17.381872
          ],
          [
            -66.151354,
            -17.381774
          ],
          [
            -66.151417,
            -17.38173
          ],
          [
            -66.151487,
            -17.381692
          ],
          [
            -66.151599,
            -17.381651
          ],
          [
            -66.151707,
            -17.381638
          ],
          [
            -66.15174,
            -17.381625
          ],
          [
            -66.151778,
            -17.38159
          ],
          [
            -66.151794,
            -17.381555
          ],
          [
            -66.151805,
            -17.3815
          ],
          [
            -66.151838,
            -17.381187
          ],
          [
            -66.151875,
            -17.381005
          ],
          [
            -66.151887,
            -17.380939
          ],
          [
            -66.151923,
            -17.380784
          ],
          [
            -66.151926,
            -17.380725
          ],
          [
            -66.151929,
            -17.380676
          ],
          [
            -66.151928,
            -17.380555
          ],
          [
            -66.151923,
            -17.380447
          ],
          [
            -66.151903,
            -17.380352
          ],
          [
            -66.151875,
            -17.380226
          ],
          [
            -66.151854,
            -17.380171
          ],
          [
            -66.151825,
            -17.380118
          ],
          [
            -66.151802,
            -17.380066
          ],
          [
            -66.151801,
            -17.37998
          ],
          [
            -66.15181,
            -17.379921
          ],
          [
            -66.151857,
            -17.379848
          ],
          [
            -66.151946,
            -17.379776
          ],
          [
            -66.151999,
            -17.379714
          ],
          [
            -66.152012,
            -17.379693
          ],
          [
            -66.152021,
            -17.37967
          ],
          [
            -66.152113,
            -17.379303
          ],
          [
            -66.152118,
            -17.379286
          ],
          [
            -66.15213,
            -17.37923
          ],
          [
            -66.152133,
            -17.379177
          ],
          [
            -66.152134,
            -17.37912
          ],
          [
            -66.152129,
            -17.378966
          ],
          [
            -66.15212,
            -17.378807
          ],
          [
            -66.152116,
            -17.378747
          ],
          [
            -66.152108,
            -17.378594
          ],
          [
            -66.152093,
            -17.378567
          ],
          [
            -66.152073,
            -17.378543
          ],
          [
            -66.152047,
            -17.378516
          ],
          [
            -66.152011,
            -17.378482
          ],
          [
            -66.151981,
            -17.378446
          ],
          [
            -66.151962,
            -17.378416
          ],
          [
            -66.151949,
            -17.378359
          ],
          [
            -66.151954,
            -17.378315
          ],
          [
            -66.151945,
            -17.378268
          ],
          [
            -66.151933,
            -17.378236
          ],
          [
            -66.151893,
            -17.378175
          ],
          [
            -66.151832,
            -17.378093
          ],
          [
            -66.151446,
            -17.377732
          ],
          [
            -66.151248,
            -17.377542
          ],
          [
            -66.1512,
            -17.377481
          ],
          [
            -66.151179,
            -17.377436
          ],
          [
            -66.151165,
            -17.377204
          ],
          [
            -66.151162,
            -17.37714
          ],
          [
            -66.151139,
            -17.376407
          ],
          [
            -66.151132,
            -17.376076
          ],
          [
            -66.151129,
            -17.375955
          ],
          [
            -66.151126,
            -17.375729
          ],
          [
            -66.151117,
            -17.375404
          ],
          [
            -66.151115,
            -17.375339
          ],
          [
            -66.151113,
            -17.375282
          ],
          [
            -66.151102,
            -17.374829
          ],
          [
            -66.15109,
            -17.374333
          ],
          [
            -66.151089,
            -17.374277
          ],
          [
            -66.151088,
            -17.37421
          ],
          [
            -66.151073,
            -17.373505
          ],
          [
            -66.151116,
            -17.373346
          ],
          [
            -66.151141,
            -17.373291
          ],
          [
            -66.151194,
            -17.373193
          ],
          [
            -66.151231,
            -17.373191
          ],
          [
            -66.151323,
            -17.373184
          ],
          [
            -66.151545,
            -17.373169
          ],
          [
            -66.153565,
            -17.373042
          ],
          [
            -66.153672,
            -17.373035
          ],
          [
            -66.15361,
            -17.372093
          ],
          [
            -66.153505,
            -17.370528
          ],
          [
            -66.153497,
            -17.370465
          ],
          [
            -66.153399,
            -17.37048
          ],
          [
            -66.153264,
            -17.370526
          ],
          [
            -66.153149,
            -17.370587
          ],
          [
            -66.152767,
            -17.370929
          ],
          [
            -66.152608,
            -17.371068
          ],
          [
            -66.152551,
            -17.371132
          ],
          [
            -66.152454,
            -17.37121
          ],
          [
            -66.151426,
            -17.371748
          ],
          [
            -66.151345,
            -17.371782
          ],
          [
            -66.151339,
            -17.371713
          ],
          [
            -66.151334,
            -17.371658
          ],
          [
            -66.151329,
            -17.371599
          ],
          [
            -66.151324,
            -17.371532
          ],
          [
            -66.151283,
            -17.371128
          ],
          [
            -66.151248,
            -17.370718
          ],
          [
            -66.151236,
            -17.370622
          ],
          [
            -66.151143,
            -17.369572
          ],
          [
            -66.15108,
            -17.368583
          ],
          [
            -66.151008,
            -17.367529
          ],
          [
            -66.150945,
            -17.36696
          ],
          [
            -66.150931,
            -17.366842
          ],
          [
            -66.151561,
            -17.366794
          ],
          [
            -66.151969,
            -17.366777
          ],
          [
            -66.152047,
            -17.366771
          ],
          [
            -66.15209,
            -17.366768
          ],
          [
            -66.152976,
            -17.366689
          ],
          [
            -66.152855,
            -17.365086
          ],
          [
            -66.15315,
            -17.365051
          ],
          [
            -66.15358,
            -17.365003
          ],
          [
            -66.153453,
            -17.364092
          ],
          [
            -66.153374,
            -17.363482
          ],
          [
            -66.153368,
            -17.363436
          ],
          [
            -66.153352,
            -17.363322
          ],
          [
            -66.153282,
            -17.362889
          ],
          [
            -66.153261,
            -17.362718
          ],
          [
            -66.153171,
            -17.362136
          ],
          [
            -66.153141,
            -17.361928
          ],
          [
            -66.15306,
            -17.361394
          ],
          [
            -66.152955,
            -17.360648
          ],
          [
            -66.152944,
            -17.36057
          ],
          [
            -66.152823,
            -17.35969
          ],
          [
            -66.152848,
            -17.359614
          ],
          [
            -66.152929,
            -17.359586
          ],
          [
            -66.153052,
            -17.359517
          ],
          [
            -66.153322,
            -17.359406
          ],
          [
            -66.153636,
            -17.359322
          ],
          [
            -66.154308,
            -17.359069
          ],
          [
            -66.154192,
            -17.358456
          ],
          [
            -66.154076,
            -17.357885
          ],
          [
            -66.155522,
            -17.3574
          ],
          [
            -66.156982,
            -17.356893
          ],
          [
            -66.157758,
            -17.356537
          ],
          [
            -66.158083,
            -17.356385
          ],
          [
            -66.158822,
            -17.356037
          ],
          [
            -66.158441,
            -17.355133
          ],
          [
            -66.158102,
            -17.354307
          ],
          [
            -66.158086,
            -17.354239
          ],
          [
            -66.157888,
            -17.353802
          ],
          [
            -66.157847,
            -17.353708
          ],
          [
            -66.158739,
            -17.353714
          ],
          [
            -66.158816,
            -17.353696
          ],
          [
            -66.158915,
            -17.353656
          ],
          [
            -66.158861,
            -17.353535
          ],
          [
            -66.158817,
            -17.353437
          ],
          [
            -66.158906,
            -17.353379
          ],
          [
            -66.159974,
            -17.352682
          ],
          [
            -66.159602,
            -17.352162
          ],
          [
            -66.159547,
            -17.352099
          ],
          [
            -66.15865,
            -17.350831
          ],
          [
            -66.159099,
            -17.350516
          ],
          [
            -66.15983,
            -17.350594
          ],
          [
            -66.16111,
            -17.350691
          ],
          [
            -66.161369,
            -17.350704
          ]
        ]
      }
    }
  ]
}