{
  "type": "FeatureCollection",
  "features": [
    {
      "type": "Feature",
      "properties": {
        "route_id": "5457001",
        "route_short_name": "H",
        "route_long_name": "MicroBus H: Avenida R\u00edo Parapeti \u2192 Avenida Chapare"
      },
      "geometry": {
        "type": "LineString",
        "coordinates": [
          [
            -66.151831,
            -17.464439
          ],
          [
            -66.151736,
            -17.463443
          ],
          [
            -66.152246,
            -17.463252
          ],
          [
            -66.152142,
            -17.462544
          ],
          [
            -66.152733,
            -17.462455
          ],
          [
            -66.153261,
            -17.462381
          ],
          [
            -66.153897,
            -17.462305
          ],
          [
            -66.154383,
            -17.462252
          ],
          [
            -66.15458,
            -17.462221
          ],
          [
            -66.155132,
            -17.462155
          ],
          [
            -66.156219,
            -17.461984
          ],
          [
            -66.157401,
            -17.461793
          ],
          [
            -66.15787,
            -17.461717
          ],
          [
            -66.157763,
            -17.461225
          ],
          [
            -66.157743,
            -17.461127
          ],
          [
            -66.157719,
            -17.461005
          ],
          [
            -66.15769,
            -17.460867
          ],
          [
            -66.157494,
            -17.460041
          ],
          [
            -66.157403,
            -17.459625
          ],
          [
            -66.157267,
            -17.459011
          ],
          [
            -66.157257,
            -17.458958
          ],
          [
            -66.157079,
            -17.458043
          ],
          [
            -66.156985,
            -17.457583
          ],
          [
            -66.156898,
            -17.457178
          ],
          [
            -66.156886,
            -17.457126
          ],
          [
            -66.156592,
            -17.45589
          ],
          [
            -66.156247,
            -17.454403
          ],
          [
            -66.156212,
            -17.454246
          ],
          [
            -66.156048,
            -17.45361
          ],
          [
            -66.155978,
            -17.453314
          ],
          [
            -66.155932,
            -17.452906
          ],
          [
            -66.155852,
            -17.452281
          ],
          [
            -66.155755,
            -17.451769
          ],
          [
            -66.155682,
            -17.451372
          ],
          [
            -66.155664,
            -17.451195
          ],
          [
            -66.15565,
            -17.450995
          ],
          [
            -66.155632,
            -17.450551
          ],
          [
            -66.155605,
            -17.449893
          ],
          [
            -66.155566,
            -17.449156
          ],
          [
            -66.155504,
            -17.448481
          ],
          [
            -66.155489,
            -17.448322
          ],
          [
            -66.155425,
            -17.447627
          ],
          [
            -66.155382,
            -17.447156
          ],
          [
            -66.155378,
            -17.447026
          ],
          [
            -66.155378,
            -17.446971
          ],
          [
            -66.155373,
            -17.445951
          ],
          [
            -66.155372,
            -17.445906
          ],
          [
            -66.155329,
            -17.444843
          ],
          [
            -66.155268,
            -17.443344
          ],
          [
            -66.155274,
            -17.44297
          ],
          [
            -66.15528,
            -17.442861
          ],
          [
            -66.15529,
            -17.442763
          ],
          [
            -66.155347,
            -17.442606
          ],
          [
            -66.155329,
            -17.442362
          ],
          [
            -66.155341,
            -17.442234
          ],
          [
            -66.155386,
            -17.44209
          ],
          [
            -66.155548,
            -17.441774
          ],
          [
            -66.15558,
            -17.441623
          ],
          [
            -66.155011,
            -17.441713
          ],
          [
            -66.154476,
            -17.441796
          ],
          [
            -66.154416,
            -17.441806
          ],
          [
            -66.154382,
            -17.441812
          ],
          [
            -66.154241,
            -17.441834
          ],
          [
            -66.153904,
            -17.441888
          ],
          [
            -66.153857,
            -17.441895
          ],
          [
            -66.153806,
            -17.441904
          ],
          [
            -66.153526,
            -17.441945
          ],
          [
            -66.15336,
            -17.441975
          ],
          [
            -66.153236,
            -17.442001
          ],
          [
            -66.153264,
            -17.441932
          ],
          [
            -66.153296,
            -17.441865
          ],
          [
            -66.15332,
            -17.441788
          ],
          [
            -66.153548,
            -17.441039
          ],
          [
            -66.15358,
            -17.440965
          ],
          [
            -66.15395,
            -17.43999
          ],
          [
            -66.153965,
            -17.439964
          ],
          [
            -66.154124,
            -17.43943
          ],
          [
            -66.154281,
            -17.438932
          ],
          [
            -66.154362,
            -17.438675
          ],
          [
            -66.154647,
            -17.437782
          ],
          [
            -66.154966,
            -17.436742
          ],
          [
            -66.155002,
            -17.436368
          ],
          [
            -66.155017,
            -17.436209
          ],
          [
            -66.155048,
            -17.435891
          ],
          [
            -66.15507,
            -17.435659
          ],
          [
            -66.155123,
            -17.435108
          ],
          [
            -66.155173,
            -17.434591
          ],
          [
            -66.155214,
            -17.434157
          ],
          [
            -66.155277,
            -17.433508
          ],
          [
            -66.155306,
            -17.433208
          ],
          [
            -66.155309,
            -17.43317
          ],
          [
            -66.155317,
            -17.433096
          ],
          [
            -66.155334,
            -17.43291
          ],
          [
            -66.155367,
            -17.432571
          ],
          [
            -66.1545,
            -17.432488
          ],
          [
            -66.153656,
            -17.432415
          ],
          [
            -66.153023,
            -17.432395
          ],
          [
            -66.152829,
            -17.43239
          ],
          [
            -66.152724,
            -17.432371
          ],
          [
            -66.152062,
            -17.432119
          ],
          [
            -66.151352,
            -17.43184
          ],
          [
            -66.150537,
            -17.431532
          ],
          [
            -66.150912,
            -17.430969
          ],
          [
            -66.151128,
            -17.430614
          ],
          [
            -66.151263,
            -17.430372
          ],
          [
            -66.151353,
            -17.430172
          ],
          [
            -66.151367,
            -17.430116
          ],
          [
            -66.151338,
            -17.430066
          ],
          [
            -66.151316,
            -17.430044
          ],
          [
            -66.151277,
            -17.430026
          ],
          [
            -66.151224,
            -17.430014
          ],
          [
            -66.151167,
            -17.429999
          ],
          [
            -66.151101,
            -17.42999
          ],
          [
            -66.151048,
            -17.429969
          ],
          [
            -66.151015,
            -17.429938
          ],
          [
            -66.150968,
            -17.429915
          ],
          [
            -66.15102,
            -17.429817
          ],
          [
            -66.151054,
            -17.429752
          ],
          [
            -66.151107,
            -17.429634
          ],
          [
            -66.151205,
            -17.429472
          ],
          [
            -66.151295,
            -17.429342
          ],
          [
            -66.151366,
            -17.429247
          ],
          [
            -66.151432,
            -17.429182
          ],
          [
            -66.151507,
            -17.429114
          ],
          [
            -66.152039,
            -17.428621
          ],
          [
            -66.152461,
            -17.42822
          ],
          [
            -66.1527,
            -17.427972
          ],
          [
            -66.152909,
            -17.427711
          ],
          [
            -66.153068,
            -17.427467
          ],
          [
            -66.153295,
            -17.427048
          ],
          [
            -66.153379,
            -17.426876
          ],
          [
            -66.153435,
            -17.426736
          ],
          [
            -66.153524,
            -17.426482
          ],
          [
            -66.153587,
            -17.426263
          ],
          [
            -66.153693,
            -17.425864
          ],
          [
            -66.153745,
            -17.425652
          ],
          [
            -66.153775,
            -17.425501
          ],
          [
            -66.15379,
            -17.425373
          ],
          [
            -66.153814,
            -17.424963
          ],
          [
            -66.153816,
            -17.424643
          ],
          [
            -66.153814,
            -17.424367
          ],
          [
            -66.153794,
            -17.423956
          ],
          [
            -66.153761,
            -17.423641
          ],
          [
            -66.153701,
            -17.42324
          ],
          [
            -66.153533,
            -17.422413
          ],
          [
            -66.153476,
            -17.422187
          ],
          [
            -66.153432,
            -17.42206
          ],
          [
            -66.15339,
            -17.421973
          ],
          [
            -66.153312,
            -17.421854
          ],
          [
            -66.153211,
            -17.421764
          ],
          [
            -66.153182,
            -17.42174
          ],
          [
            -66.153087,
            -17.421646
          ],
          [
            -66.153042,
            -17.421593
          ],
          [
            -66.153019,
            -17.421547
          ],
          [
            -66.153006,
            -17.421501
          ],
          [
            -66.153007,
            -17.421454
          ],
          [
            -66.153021,
            -17.421409
          ],
          [
            -66.153036,
            -17.421351
          ],
          [
            -66.153057,
            -17.421267
          ],
          [
            -66.153065,
            -17.421166
          ],
          [
            -66.153057,
            -17.421039
          ],
          [
            -66.153031,
            -17.420896
          ],
          [
            -66.152931,
            -17.420655
          ],
          [
            -66.152796,
            -17.420382
          ],
          [
            -66.152612,
            -17.419982
          ],
          [
            -66.152597,
            -17.419952
          ],
          [
            -66.152478,
            -17.419719
          ],
          [
            -66.152314,
            -17.419402
          ],
          [
            -66.152183,
            -17.419166
          ],
          [
            -66.151813,
            -17.418523
          ],
          [
            -66.151701,
            -17.418313
          ],
          [
            -66.151593,
            -17.418084
          ],
          [
            -66.151559,
            -17.417976
          ],
          [
            -66.151539,
            -17.417899
          ],
          [
            -66.151529,
            -17.417838
          ],
          [
            -66.151521,
            -17.417765
          ],
          [
            -66.151517,
            -17.417669
          ],
          [
            -66.151517,
            -17.417625
          ],
          [
            -66.151519,
            -17.417497
          ],
          [
            -66.151536,
            -17.417316
          ],
          [
            -66.151545,
            -17.417199
          ],
          [
            -66.15157,
            -17.417081
          ],
          [
            -66.151569,
            -17.417045
          ],
          [
            -66.151577,
            -17.417011
          ],
          [
            -66.151592,
            -17.416976
          ],
          [
            -66.151615,
            -17.416945
          ],
          [
            -66.151644,
            -17.41692
          ],
          [
            -66.151679,
            -17.416901
          ],
          [
            -66.151717,
            -17.41689
          ],
          [
            -66.15181,
            -17.416842
          ],
          [
            -66.151894,
            -17.416791
          ],
          [
            -66.151961,
            -17.416725
          ],
          [
            -66.152028,
            -17.416647
          ],
          [
            -66.15289,
            -17.415552
          ],
          [
            -66.153037,
            -17.415364
          ],
          [
            -66.153134,
            -17.415198
          ],
          [
            -66.15322,
            -17.415029
          ],
          [
            -66.153287,
            -17.414889
          ],
          [
            -66.153372,
            -17.414695
          ],
          [
            -66.153436,
            -17.41453
          ],
          [
            -66.153501,
            -17.414285
          ],
          [
            -66.153537,
            -17.414151
          ],
          [
            -66.153591,
            -17.413929
          ],
          [
            -66.153605,
            -17.413722
          ],
          [
            -66.153612,
            -17.413154
          ],
          [
            -66.153569,
            -17.411149
          ],
          [
            -66.153499,
            -17.410295
          ],
          [
            -66.153484,
            -17.409979
          ],
          [
            -66.153479,
            -17.409859
          ],
          [
            -66.153411,
            -17.408299
          ],
          [
            -66.153385,
            -17.407559
          ],
          [
            -66.153376,
            -17.407055
          ],
          [
            -66.153342,
            -17.406101
          ],
          [
            -66.153317,
            -17.405283
          ],
          [
            -66.153303,
            -17.404861
          ],
          [
            -66.153302,
            -17.404799
          ],
          [
            -66.153296,
            -17.403607
          ],
          [
            -66.153297,
            -17.403542
          ],
          [
            -66.153293,
            -17.403209
          ],
          [
            -66.153319,
            -17.403127
          ],
          [
            -66.15332,
            -17.403075
          ],
          [
            -66.15332,
            -17.402958
          ],
          [
            -66.15332,
            -17.402878
          ],
          [
            -66.15332,
            -17.40281
          ],
          [
            -66.153319,
            -17.402737
          ],
          [
            -66.153322,
            -17.402658
          ],
          [
            -66.153323,
            -17.402572
          ],
          [
            -66.153325,
            -17.402501
          ],
          [
            -66.153323,
            -17.402429
          ],
          [
            -66.153324,
            -17.402364
          ],
          [
            -66.153324,
            -17.40229
          ],
          [
            -66.153295,
            -17.401383
          ],
          [
            -66.15325,
            -17.400725
          ],
          [
            -66.153227,
            -17.399898
          ],
          [
            -66.153197,
            -17.399102
          ],
          [
            -66.153192,
            -17.398998
          ],
          [
            -66.153184,
            -17.398846
          ],
          [
            -66.153188,
            -17.398769
          ],
          [
            -66.153253,
            -17.398424
          ],
          [
            -66.153322,
            -17.398064
          ],
          [
            -66.153532,
            -17.397006
          ],
          [
            -66.153732,
            -17.395947
          ],
          [
            -66.153922,
            -17.394892
          ],
          [
            -66.154001,
            -17.394466
          ],
          [
            -66.154011,
            -17.394412
          ],
          [
            -66.154112,
            -17.393861
          ],
          [
            -66.154297,
            -17.392943
          ],
          [
            -66.154313,
            -17.392865
          ],
          [
            -66.154321,
            -17.392824
          ],
          [
            -66.154328,
            -17.392791
          ],
          [
            -66.154493,
            -17.391925
          ],
          [
            -66.1545,
            -17.391876
          ],
          [
            -66.154518,
            -17.391787
          ],
          [
            -66.154529,
            -17.391726
          ],
          [
            -66.154722,
            -17.39071
          ],
          [
            -66.154916,
            -17.38972
          ],
          [
            -66.154921,
            -17.389693
          ],
          [
            -66.155119,
            -17.388731
          ],
          [
            -66.155132,
            -17.388666
          ],
          [
            -66.155149,
            -17.388571
          ],
          [
            -66.155222,
            -17.388161
          ],
          [
            -66.155316,
            -17.387676
          ],
          [
            -66.155337,
            -17.387584
          ],
          [
            -66.155523,
            -17.387616
          ],
          [
            -66.155582,
            -17.387609
          ],
          [
            -66.155628,
            -17.387594
          ],
          [
            -66.155683,
            -17.387569
          ],
          [
            -66.155811,
            -17.38741
          ],
          [
            -66.156447,
            -17.386541
          ],
          [
            -66.156503,
            -17.386465
          ],
          [
            -66.156608,
            -17.386333
          ],
          [
            -66.157584,
            -17.385016
          ],
          [
            -66.157653,
            -17.384924
          ],
          [
            -66.157692,
            -17.38487
          ],
          [
            -66.157773,
            -17.384766
          ],
          [
            -66.158485,
            -17.383789
          ],
          [
            -66.158529,
            -17.383729
          ],
          [
            -66.158565,
            -17.383682
          ],
          [
            -66.159147,
            -17.382915
          ],
          [
            -66.159366,
            -17.382617
          ],
          [
            -66.159389,
            -17.382586
          ],
          [
            -66.159408,
            -17.382554
          ],
          [
            -66.159444,
            -17.382482
          ],
          [
            -66.159423,
            -17.382372
          ],
          [
            -66.159392,
            -17.382305
          ],
          [
            -66.15935,
            -17.382258
          ],
          [
            -66.159265,
            -17.382214
          ],
          [
            -66.159182,
            -17.382196
          ],
          [
            -66.159091,
            -17.382184
          ],
          [
            -66.158946,
            -17.382168
          ],
          [
            -66.158739,
            -17.382138
          ],
          [
            -66.158644,
            -17.382097
          ],
          [
            -66.158046,
            -17.381992
          ],
          [
            -66.157389,
            -17.381879
          ],
          [
            -66.156891,
            -17.381799
          ],
          [
            -66.156825,
            -17.381786
          ],
          [
            -66.156766,
            -17.381777
          ],
          [
            -66.156717,
            -17.381769
          ],
          [
            -66.155687,
            -17.38159
          ],
          [
            -66.15523,
            -17.381506
          ],
          [
            -66.154273,
            -17.381354
          ],
          [
            -66.153964,
            -17.381298
          ],
          [
            -66.153657,
            -17.381243
          ],
          [
            -66.15362,
            -17.381235
          ],
          [
            -66.152777,
            -17.381077
          ],
          [
            -66.152086,
            -17.38094
          ],
          [
            -66.151982,
            -17.380946
          ],
          [
            -66.151887,
            -17.380939
          ],
          [
            -66.151759,
            -17.380931
          ],
          [
            -66.151699,
            -17.380927
          ],
          [
            -66.150837,
            -17.380877
          ],
          [
            -66.150804,
            -17.380875
          ],
          [
            -66.150734,
            -17.380872
          ],
          [
            -66.150629,
            -17.380837
          ],
          [
            -66.14978,
            -17.3808
          ],
          [
            -66.149663,
            -17.380796
          ],
          [
            -66.148404,
            -17.380727
          ],
          [
            -66.147898,
            -17.380678
          ],
          [
            -66.147773,
            -17.380664
          ],
          [
            -66.147563,
            -17.380624
          ],
          [
            -66.147279,
            -17.380572
          ],
          [
            -66.147163,
            -17.380543
          ],
          [
            -66.147034,
            -17.380506
          ],
          [
            -66.146327,
            -17.38027
          ],
          [
            -66.146089,
            -17.38019
          ],
          [
            -66.145966,
            -17.380149
          ],
          [
            -66.145831,
            -17.380104
          ],
          [
            -66.14534,
            -17.379939
          ],
          [
            -66.144775,
            -17.37975
          ],
          [
            -66.144665,
            -17.379713
          ],
          [
            -66.144601,
            -17.379692
          ],
          [
            -66.144186,
            -17.379553
          ],
          [
            -66.143924,
            -17.379463
          ],
          [
            -66.143584,
            -17.37937
          ],
          [
            -66.143172,
            -17.379227
          ],
          [
            -66.143026,
            -17.379183
          ],
          [
            -66.14252,
            -17.379065
          ],
          [
            -66.142449,
            -17.379054
          ],
          [
            -66.142403,
            -17.37906
          ],
          [
            -66.142377,
            -17.379069
          ],
          [
            -66.142363,
            -17.379074
          ],
          [
            -66.142319,
            -17.379093
          ],
          [
            -66.142275,
            -17.379112
          ],
          [
            -66.142249,
            -17.37912
          ],
          [
            -66.142215,
            -17.379123
          ],
          [
            -66.14218,
            -17.379117
          ],
          [
            -66.142153,
            -17.379102
          ],
          [
            -66.142131,
            -17.379086
          ],
          [
            -66.142117,
            -17.379066
          ],
          [
            -66.142104,
            -17.379036
          ],
          [
            -66.142105,
            -17.378998
          ],
          [
            -66.142109,
            -17.378933
          ],
          [
            -66.142124,
            -17.378772
          ],
          [
            -66.142183,
            -17.378166
          ],
          [
            -66.142186,
            -17.378133
          ],
          [
            -66.142201,
            -17.377951
          ],
          [
            -66.142189,
            -17.377901
          ],
          [
            -66.142173,
            -17.377847
          ],
          [
            -66.142129,
            -17.377757
          ],
          [
            -66.142093,
            -17.377702
          ],
          [
            -66.142045,
            -17.377647
          ],
          [
            -66.141913,
            -17.377531
          ],
          [
            -66.141836,
            -17.377468
          ],
          [
            -66.141773,
            -17.37742
          ],
          [
            -66.141709,
            -17.377378
          ],
          [
            -66.141283,
            -17.377271
          ],
          [
            -66.140656,
            -17.377104
          ],
          [
            -66.140125,
            -17.376967
          ],
          [
            -66.139821,
            -17.376891
          ],
          [
            -66.13932,
            -17.376765
          ],
          [
            -66.13909,
            -17.376694
          ],
          [
            -66.138899,
            -17.376631
          ],
          [
            -66.138653,
            -17.376542
          ],
          [
            -66.138421,
            -17.376449
          ],
          [
            -66.138135,
            -17.376318
          ],
          [
            -66.137861,
            -17.376186
          ],
          [
            -66.137543,
            -17.376019
          ],
          [
            -66.13752,
            -17.376008
          ],
          [
            -66.137172,
            -17.375795
          ],
          [
            -66.137143,
            -17.375777
          ],
          [
            -66.136593,
            -17.37541
          ],
          [
            -66.136414,
            -17.375293
          ],
          [
            -66.136325,
            -17.375234
          ],
          [
            -66.136068,
            -17.375072
          ],
          [
            -66.135847,
            -17.374948
          ],
          [
            -66.135669,
            -17.374866
          ],
          [
            -66.135451,
            -17.374785
          ],
          [
            -66.135217,
            -17.37472
          ],
          [
            -66.135007,
            -17.374673
          ],
          [
            -66.134778,
            -17.374635
          ],
          [
            -66.134522,
            -17.374611
          ],
          [
            -66.134332,
            -17.374611
          ],
          [
            -66.133264,
            -17.374608
          ],
          [
            -66.132129,
            -17.374607
          ],
          [
            -66.131903,
            -17.374608
          ],
          [
            -66.131871,
            -17.37461
          ],
          [
            -66.131338,
            -17.374608
          ],
          [
            -66.131179,
            -17.374602
          ],
          [
            -66.130955,
            -17.374604
          ],
          [
            -66.130783,
            -17.374607
          ],
          [
            -66.13054,
            -17.37462
          ],
          [
            -66.130316,
            -17.37466
          ],
          [
            -66.130107,
            -17.374703
          ],
          [
            -66.129922,
            -17.374758
          ],
          [
            -66.129819,
            -17.374792
          ],
          [
            -66.129692,
            -17.374848
          ],
          [
            -66.129616,
            -17.374893
          ],
          [
            -66.129547,
            -17.374952
          ],
          [
            -66.129499,
            -17.375006
          ],
          [
            -66.129452,
            -17.37506
          ],
          [
            -66.129379,
            -17.375134
          ],
          [
            -66.129319,
            -17.375189
          ],
          [
            -66.129294,
            -17.375212
          ],
          [
            -66.129258,
            -17.375237
          ],
          [
            -66.129218,
            -17.375255
          ],
          [
            -66.129101,
            -17.375289
          ],
          [
            -66.129012,
            -17.375302
          ],
          [
            -66.128935,
            -17.375315
          ],
          [
            -66.128886,
            -17.375327
          ],
          [
            -66.128812,
            -17.375356
          ],
          [
            -66.128766,
            -17.375381
          ],
          [
            -66.12866,
            -17.375444
          ],
          [
            -66.128525,
            -17.375535
          ],
          [
            -66.128314,
            -17.375685
          ],
          [
            -66.127645,
            -17.376159
          ],
          [
            -66.127395,
            -17.37634
          ],
          [
            -66.127167,
            -17.376498
          ],
          [
            -66.125716,
            -17.3775
          ],
          [
            -66.12482,
            -17.378111
          ],
          [
            -66.124194,
            -17.378542
          ],
          [
            -66.123518,
            -17.378986
          ],
          [
            -66.122702,
            -17.379518
          ],
          [
            -66.122536,
            -17.379624
          ],
          [
            -66.122254,
            -17.379812
          ],
          [
            -66.121879,
            -17.380054
          ],
          [
            -66.121282,
            -17.380452
          ],
          [
            -66.121208,
            -17.380501
          ],
          [
            -66.120926,
            -17.380704
          ],
          [
            -66.120891,
            -17.380739
          ],
          [
            -66.120766,
            -17.380863
          ],
          [
            -66.12066,
            -17.381007
          ],
          [
            -66.120494,
            -17.381222
          ],
          [
            -66.120477,
            -17.381249
          ],
          [
            -66.120419,
            -17.381373
          ],
          [
            -66.120196,
            -17.381709
          ],
          [
            -66.120166,
            -17.381791
          ],
          [
            -66.119812,
            -17.382278
          ],
          [
            -66.119323,
            -17.382991
          ],
          [
            -66.118712,
            -17.383847
          ],
          [
            -66.118146,
            -17.384686
          ],
          [
            -66.118089,
            -17.384767
          ],
          [
            -66.117871,
            -17.385099
          ],
          [
            -66.117814,
            -17.38523
          ],
          [
            -66.11781,
            -17.385259
          ],
          [
            -66.117796,
            -17.385285
          ],
          [
            -66.117775,
            -17.385306
          ],
          [
            -66.117747,
            -17.385318
          ],
          [
            -66.117717,
            -17.385322
          ],
          [
            -66.117648,
            -17.385342
          ],
          [
            -66.116928,
            -17.385843
          ],
          [
            -66.116451,
            -17.386147
          ],
          [
            -66.116385,
            -17.386193
          ],
          [
            -66.116302,
            -17.386241
          ],
          [
            -66.115308,
            -17.386913
          ],
          [
            -66.115235,
            -17.386961
          ],
          [
            -66.115173,
            -17.387004
          ],
          [
            -66.114223,
            -17.38763
          ],
          [
            -66.113735,
            -17.387956
          ],
          [
            -66.113269,
            -17.38826
          ],
          [
            -66.113129,
            -17.38833
          ],
          [
            -66.112,
            -17.388727
          ],
          [
            -66.110801,
            -17.389027
          ],
          [
            -66.109552,
            -17.389259
          ],
          [
            -66.109336,
            -17.389298
          ],
          [
            -66.108532,
            -17.389442
          ],
          [
            -66.107585,
            -17.389612
          ],
          [
            -66.107306,
            -17.38966
          ],
          [
            -66.107157,
            -17.38971
          ],
          [
            -66.106893,
            -17.38992
          ],
          [
            -66.106864,
            -17.389944
          ],
          [
            -66.106112,
            -17.390539
          ],
          [
            -66.105935,
            -17.390648
          ],
          [
            -66.105702,
            -17.390736
          ],
          [
            -66.105112,
            -17.390929
          ],
          [
            -66.103731,
            -17.391385
          ],
          [
            -66.103615,
            -17.391429
          ],
          [
            -66.102772,
            -17.391672
          ],
          [
            -66.102156,
            -17.391845
          ],
          [
            -66.100937,
            -17.392169
          ],
          [
            -66.099465,
            -17.39256
          ],
          [
            -66.099361,
            -17.392587
          ],
          [
            -66.097894,
            -17.392604
          ],
          [
            -66.097367,
            -17.392625
          ],
          [
            -66.095998,
            -17.392728
          ],
          [
            -66.095208,
            -17.392794
          ],
          [
            -66.094448,
            -17.39282
          ],
          [
            -66.093627,
            -17.39281
          ],
          [
            -66.092888,
            -17.392715
          ]
        ]
      }
    }
  ]
}