{
  "type": "FeatureCollection",
  "features": [
    {
      "type": "Feature",
      "properties": {
        "route_id": "10786894",
        "route_short_name": "I",
        "route_long_name": "MicroBus I: Calle La Rioja \u2192 Avenida Circunvalaci\u00f3n Beijing"
      },
      "geometry": {
        "type": "LineString",
        "coordinates": [
          [
            -66.125253,
            -17.451318
          ],
          [
            -66.12523,
            -17.451242
          ],
          [
            -66.125231,
            -17.451161
          ],
          [
            -66.125226,
            -17.450466
          ],
          [
            -66.125221,
            -17.448487
          ],
          [
            -66.125223,
            -17.447494
          ],
          [
            -66.125215,
            -17.447024
          ],
          [
            -66.125206,
            -17.446508
          ],
          [
            -66.125142,
            -17.444639
          ],
          [
            -66.125143,
            -17.444552
          ],
          [
            -66.12514,
            -17.443611
          ],
          [
            -66.125154,
            -17.44322
          ],
          [
            -66.125149,
            -17.443026
          ],
          [
            -66.125133,
            -17.442577
          ],
          [
            -66.12519,
            -17.44256
          ],
          [
            -66.125777,
            -17.442438
          ],
          [
            -66.126506,
            -17.442281
          ],
          [
            -66.127112,
            -17.442186
          ],
          [
            -66.127348,
            -17.442171
          ],
          [
            -66.127486,
            -17.442188
          ],
          [
            -66.127649,
            -17.442229
          ],
          [
            -66.127821,
            -17.442305
          ],
          [
            -66.128092,
            -17.442467
          ],
          [
            -66.128938,
            -17.442984
          ],
          [
            -66.129112,
            -17.442431
          ],
          [
            -66.12917,
            -17.442255
          ],
          [
            -66.129434,
            -17.441443
          ],
          [
            -66.129316,
            -17.441354
          ],
          [
            -66.128968,
            -17.441023
          ],
          [
            -66.12878,
            -17.440857
          ],
          [
            -66.12862,
            -17.440739
          ],
          [
            -66.128436,
            -17.440616
          ],
          [
            -66.127769,
            -17.440212
          ],
          [
            -66.127818,
            -17.440135
          ],
          [
            -66.127861,
            -17.440069
          ],
          [
            -66.128154,
            -17.440247
          ],
          [
            -66.12805,
            -17.439717
          ],
          [
            -66.128827,
            -17.439529
          ],
          [
            -66.128744,
            -17.439019
          ],
          [
            -66.128649,
            -17.438518
          ],
          [
            -66.128573,
            -17.438025
          ],
          [
            -66.128459,
            -17.437521
          ],
          [
            -66.128364,
            -17.437022
          ],
          [
            -66.128334,
            -17.436852
          ],
          [
            -66.128276,
            -17.436525
          ],
          [
            -66.128221,
            -17.436487
          ],
          [
            -66.128137,
            -17.436478
          ],
          [
            -66.128047,
            -17.436504
          ],
          [
            -66.127083,
            -17.436409
          ],
          [
            -66.127191,
            -17.436021
          ],
          [
            -66.127285,
            -17.435682
          ],
          [
            -66.127451,
            -17.435098
          ],
          [
            -66.127459,
            -17.43507
          ],
          [
            -66.127573,
            -17.434669
          ],
          [
            -66.127657,
            -17.434388
          ],
          [
            -66.12769,
            -17.434188
          ],
          [
            -66.127683,
            -17.43405
          ],
          [
            -66.127631,
            -17.433688
          ],
          [
            -66.127645,
            -17.43339
          ],
          [
            -66.127645,
            -17.432898
          ],
          [
            -66.127734,
            -17.43248
          ],
          [
            -66.127795,
            -17.432262
          ],
          [
            -66.12785,
            -17.432153
          ],
          [
            -66.128124,
            -17.431774
          ],
          [
            -66.128306,
            -17.431513
          ],
          [
            -66.128553,
            -17.431144
          ],
          [
            -66.128743,
            -17.430884
          ],
          [
            -66.129054,
            -17.430348
          ],
          [
            -66.129268,
            -17.42996
          ],
          [
            -66.129389,
            -17.429763
          ],
          [
            -66.12949,
            -17.429657
          ],
          [
            -66.129574,
            -17.429548
          ],
          [
            -66.129757,
            -17.429356
          ],
          [
            -66.129974,
            -17.429074
          ],
          [
            -66.130156,
            -17.428883
          ],
          [
            -66.130394,
            -17.428668
          ],
          [
            -66.130559,
            -17.428553
          ],
          [
            -66.130706,
            -17.428425
          ],
          [
            -66.131068,
            -17.428148
          ],
          [
            -66.131232,
            -17.428022
          ],
          [
            -66.131536,
            -17.427753
          ],
          [
            -66.131594,
            -17.427702
          ],
          [
            -66.1317,
            -17.427643
          ],
          [
            -66.13182,
            -17.427587
          ],
          [
            -66.131925,
            -17.427519
          ],
          [
            -66.132482,
            -17.427166
          ],
          [
            -66.133111,
            -17.426745
          ],
          [
            -66.13339,
            -17.426566
          ],
          [
            -66.133447,
            -17.42654
          ],
          [
            -66.133683,
            -17.4264
          ],
          [
            -66.133834,
            -17.426336
          ],
          [
            -66.134062,
            -17.426227
          ],
          [
            -66.134226,
            -17.426138
          ],
          [
            -66.134342,
            -17.426068
          ],
          [
            -66.134499,
            -17.425924
          ],
          [
            -66.134658,
            -17.425744
          ],
          [
            -66.134781,
            -17.425595
          ],
          [
            -66.135052,
            -17.425291
          ],
          [
            -66.135266,
            -17.4251
          ],
          [
            -66.13558,
            -17.424833
          ],
          [
            -66.136218,
            -17.424272
          ],
          [
            -66.136785,
            -17.423812
          ],
          [
            -66.13685,
            -17.423763
          ],
          [
            -66.137412,
            -17.42317
          ],
          [
            -66.137608,
            -17.422975
          ],
          [
            -66.137662,
            -17.422911
          ],
          [
            -66.137931,
            -17.422632
          ],
          [
            -66.138256,
            -17.422303
          ],
          [
            -66.138526,
            -17.422032
          ],
          [
            -66.138837,
            -17.421722
          ],
          [
            -66.138888,
            -17.421665
          ],
          [
            -66.139122,
            -17.421454
          ],
          [
            -66.139184,
            -17.421373
          ],
          [
            -66.139232,
            -17.421297
          ],
          [
            -66.13928,
            -17.4212
          ],
          [
            -66.13934,
            -17.421023
          ],
          [
            -66.139493,
            -17.420168
          ],
          [
            -66.139524,
            -17.420028
          ],
          [
            -66.139526,
            -17.419986
          ],
          [
            -66.139522,
            -17.419933
          ],
          [
            -66.13949,
            -17.419903
          ],
          [
            -66.139464,
            -17.419868
          ],
          [
            -66.139443,
            -17.419829
          ],
          [
            -66.139429,
            -17.419788
          ],
          [
            -66.139421,
            -17.419746
          ],
          [
            -66.139421,
            -17.419703
          ],
          [
            -66.139427,
            -17.41966
          ],
          [
            -66.139441,
            -17.419619
          ],
          [
            -66.13946,
            -17.41958
          ],
          [
            -66.139486,
            -17.419544
          ],
          [
            -66.139517,
            -17.419513
          ],
          [
            -66.139553,
            -17.419487
          ],
          [
            -66.139593,
            -17.419466
          ],
          [
            -66.139635,
            -17.419451
          ],
          [
            -66.139679,
            -17.419442
          ],
          [
            -66.139724,
            -17.419441
          ],
          [
            -66.139769,
            -17.419445
          ],
          [
            -66.139813,
            -17.419456
          ],
          [
            -66.139918,
            -17.419494
          ],
          [
            -66.139964,
            -17.419511
          ],
          [
            -66.140017,
            -17.419521
          ],
          [
            -66.140052,
            -17.419522
          ],
          [
            -66.140073,
            -17.419523
          ],
          [
            -66.140258,
            -17.419512
          ],
          [
            -66.140515,
            -17.419497
          ],
          [
            -66.1409,
            -17.419475
          ],
          [
            -66.141492,
            -17.419443
          ],
          [
            -66.142106,
            -17.419412
          ],
          [
            -66.142722,
            -17.419376
          ],
          [
            -66.143133,
            -17.419356
          ],
          [
            -66.143227,
            -17.419372
          ],
          [
            -66.143291,
            -17.4194
          ],
          [
            -66.143395,
            -17.419458
          ],
          [
            -66.143463,
            -17.419485
          ],
          [
            -66.143516,
            -17.419503
          ],
          [
            -66.143572,
            -17.419509
          ],
          [
            -66.143944,
            -17.419493
          ],
          [
            -66.144559,
            -17.41945
          ],
          [
            -66.14468,
            -17.419442
          ],
          [
            -66.14559,
            -17.419387
          ],
          [
            -66.145995,
            -17.419362
          ],
          [
            -66.146369,
            -17.419342
          ],
          [
            -66.147011,
            -17.419302
          ],
          [
            -66.147611,
            -17.419268
          ],
          [
            -66.148208,
            -17.419229
          ],
          [
            -66.148651,
            -17.419206
          ],
          [
            -66.148764,
            -17.419206
          ],
          [
            -66.148856,
            -17.419217
          ],
          [
            -66.149125,
            -17.419273
          ],
          [
            -66.149195,
            -17.419259
          ],
          [
            -66.14924,
            -17.419241
          ],
          [
            -66.149277,
            -17.41922
          ],
          [
            -66.149359,
            -17.419166
          ],
          [
            -66.149809,
            -17.418529
          ],
          [
            -66.150034,
            -17.418204
          ],
          [
            -66.150075,
            -17.418125
          ],
          [
            -66.150099,
            -17.418058
          ],
          [
            -66.150125,
            -17.417964
          ],
          [
            -66.150198,
            -17.417568
          ],
          [
            -66.1503,
            -17.417085
          ],
          [
            -66.150368,
            -17.416656
          ],
          [
            -66.150383,
            -17.416561
          ],
          [
            -66.150385,
            -17.416487
          ],
          [
            -66.150362,
            -17.416201
          ],
          [
            -66.150333,
            -17.415936
          ],
          [
            -66.150312,
            -17.415788
          ],
          [
            -66.150279,
            -17.41562
          ],
          [
            -66.150222,
            -17.415457
          ],
          [
            -66.150147,
            -17.415268
          ],
          [
            -66.150048,
            -17.415089
          ],
          [
            -66.149916,
            -17.414881
          ],
          [
            -66.149759,
            -17.414696
          ],
          [
            -66.149592,
            -17.41452
          ],
          [
            -66.149357,
            -17.414242
          ],
          [
            -66.148911,
            -17.413712
          ],
          [
            -66.148596,
            -17.413417
          ],
          [
            -66.148173,
            -17.412958
          ],
          [
            -66.148099,
            -17.412903
          ],
          [
            -66.148012,
            -17.412851
          ],
          [
            -66.148261,
            -17.412187
          ],
          [
            -66.148775,
            -17.412634
          ],
          [
            -66.14884,
            -17.412681
          ],
          [
            -66.148945,
            -17.412726
          ],
          [
            -66.149083,
            -17.412766
          ],
          [
            -66.149261,
            -17.412811
          ],
          [
            -66.149418,
            -17.412807
          ],
          [
            -66.149559,
            -17.412813
          ],
          [
            -66.149689,
            -17.412815
          ],
          [
            -66.150225,
            -17.412805
          ],
          [
            -66.150323,
            -17.413588
          ],
          [
            -66.150334,
            -17.41372
          ],
          [
            -66.151179,
            -17.413273
          ],
          [
            -66.151109,
            -17.412696
          ],
          [
            -66.151068,
            -17.412381
          ],
          [
            -66.150996,
            -17.411915
          ],
          [
            -66.150954,
            -17.411529
          ],
          [
            -66.150836,
            -17.410495
          ],
          [
            -66.150872,
            -17.410433
          ],
          [
            -66.150924,
            -17.410392
          ],
          [
            -66.150976,
            -17.41038
          ],
          [
            -66.151028,
            -17.410396
          ],
          [
            -66.151799,
            -17.410919
          ],
          [
            -66.152629,
            -17.411454
          ],
          [
            -66.153291,
            -17.411875
          ],
          [
            -66.153365,
            -17.411899
          ],
          [
            -66.153431,
            -17.411905
          ],
          [
            -66.153471,
            -17.411895
          ],
          [
            -66.1535,
            -17.411849
          ],
          [
            -66.153561,
            -17.411786
          ],
          [
            -66.153604,
            -17.411771
          ],
          [
            -66.153639,
            -17.411785
          ],
          [
            -66.153653,
            -17.411827
          ],
          [
            -66.153664,
            -17.411966
          ],
          [
            -66.153688,
            -17.412037
          ],
          [
            -66.153745,
            -17.412092
          ],
          [
            -66.153869,
            -17.412158
          ],
          [
            -66.153899,
            -17.412175
          ],
          [
            -66.154605,
            -17.412548
          ],
          [
            -66.154925,
            -17.412748
          ],
          [
            -66.15524,
            -17.412919
          ],
          [
            -66.155336,
            -17.41299
          ],
          [
            -66.155595,
            -17.413077
          ],
          [
            -66.155655,
            -17.413095
          ],
          [
            -66.155687,
            -17.412961
          ],
          [
            -66.155779,
            -17.412296
          ],
          [
            -66.15582,
            -17.412159
          ],
          [
            -66.155828,
            -17.412033
          ],
          [
            -66.155875,
            -17.411548
          ],
          [
            -66.155925,
            -17.411204
          ],
          [
            -66.155961,
            -17.411004
          ],
          [
            -66.155973,
            -17.410807
          ],
          [
            -66.155994,
            -17.410651
          ],
          [
            -66.156059,
            -17.410112
          ],
          [
            -66.156188,
            -17.40929
          ],
          [
            -66.156209,
            -17.409158
          ],
          [
            -66.156324,
            -17.408398
          ],
          [
            -66.156391,
            -17.407897
          ],
          [
            -66.156402,
            -17.407758
          ],
          [
            -66.156408,
            -17.407674
          ],
          [
            -66.156417,
            -17.407578
          ],
          [
            -66.156419,
            -17.407471
          ],
          [
            -66.156451,
            -17.407307
          ],
          [
            -66.156568,
            -17.406875
          ],
          [
            -66.156627,
            -17.406555
          ],
          [
            -66.156675,
            -17.406292
          ],
          [
            -66.15688,
            -17.405149
          ],
          [
            -66.156981,
            -17.404592
          ],
          [
            -66.157069,
            -17.404069
          ],
          [
            -66.157077,
            -17.404014
          ],
          [
            -66.157252,
            -17.40291
          ],
          [
            -66.156722,
            -17.402821
          ],
          [
            -66.156617,
            -17.402825
          ],
          [
            -66.156526,
            -17.402846
          ],
          [
            -66.155537,
            -17.402966
          ],
          [
            -66.155537,
            -17.402826
          ],
          [
            -66.155513,
            -17.402717
          ],
          [
            -66.155497,
            -17.402642
          ],
          [
            -66.155476,
            -17.402549
          ],
          [
            -66.155468,
            -17.402503
          ],
          [
            -66.155452,
            -17.402434
          ],
          [
            -66.155439,
            -17.402374
          ],
          [
            -66.15542,
            -17.402301
          ],
          [
            -66.155316,
            -17.402192
          ],
          [
            -66.155307,
            -17.401651
          ],
          [
            -66.155285,
            -17.401299
          ],
          [
            -66.153977,
            -17.401365
          ],
          [
            -66.15364,
            -17.401374
          ],
          [
            -66.153295,
            -17.401383
          ],
          [
            -66.15325,
            -17.400725
          ],
          [
            -66.153227,
            -17.399898
          ],
          [
            -66.153197,
            -17.399102
          ],
          [
            -66.153192,
            -17.398998
          ],
          [
            -66.153184,
            -17.398846
          ],
          [
            -66.153188,
            -17.398769
          ],
          [
            -66.153253,
            -17.398424
          ],
          [
            -66.153322,
            -17.398064
          ],
          [
            -66.153532,
            -17.397006
          ],
          [
            -66.153732,
            -17.395947
          ],
          [
            -66.153922,
            -17.394892
          ],
          [
            -66.154001,
            -17.394466
          ],
          [
            -66.154011,
            -17.394412
          ],
          [
            -66.154112,
            -17.393861
          ],
          [
            -66.154297,
            -17.392943
          ],
          [
            -66.154313,
            -17.392865
          ],
          [
            -66.154321,
            -17.392824
          ],
          [
            -66.154328,
            -17.392791
          ],
          [
            -66.154493,
            -17.391925
          ],
          [
            -66.1545,
            -17.391876
          ],
          [
            -66.154518,
            -17.391787
          ],
          [
            -66.154597,
            -17.3918
          ],
          [
            -66.155536,
            -17.391967
          ],
          [
            -66.155601,
            -17.391978
          ],
          [
            -66.155662,
            -17.391988
          ],
          [
            -66.156629,
            -17.39217
          ],
          [
            -66.156673,
            -17.392178
          ],
          [
            -66.156727,
            -17.392187
          ],
          [
            -66.157322,
            -17.392289
          ],
          [
            -66.157699,
            -17.392354
          ],
          [
            -66.157753,
            -17.392363
          ],
          [
            -66.157797,
            -17.392371
          ],
          [
            -66.158706,
            -17.392529
          ],
          [
            -66.158786,
            -17.392542
          ],
          [
            -66.158879,
            -17.392559
          ],
          [
            -66.15894,
            -17.39257
          ],
          [
            -66.159876,
            -17.392724
          ],
          [
            -66.15992,
            -17.392731
          ],
          [
            -66.159972,
            -17.39274
          ],
          [
            -66.161004,
            -17.392913
          ],
          [
            -66.161061,
            -17.392926
          ],
          [
            -66.161129,
            -17.392944
          ],
          [
            -66.161993,
            -17.393095
          ],
          [
            -66.162063,
            -17.393107
          ],
          [
            -66.163928,
            -17.393418
          ],
          [
            -66.164921,
            -17.393602
          ],
          [
            -66.165917,
            -17.393779
          ],
          [
            -66.166231,
            -17.39383
          ],
          [
            -66.166439,
            -17.393829
          ],
          [
            -66.16661,
            -17.393841
          ],
          [
            -66.166791,
            -17.393901
          ],
          [
            -66.166842,
            -17.393916
          ],
          [
            -66.166937,
            -17.393937
          ],
          [
            -66.167351,
            -17.393978
          ],
          [
            -66.16739,
            -17.393938
          ],
          [
            -66.167399,
            -17.393925
          ],
          [
            -66.167408,
            -17.393887
          ],
          [
            -66.167406,
            -17.393849
          ],
          [
            -66.167267,
            -17.393295
          ],
          [
            -66.167236,
            -17.393145
          ],
          [
            -66.167203,
            -17.392869
          ],
          [
            -66.167171,
            -17.392709
          ],
          [
            -66.167101,
            -17.392335
          ],
          [
            -66.167015,
            -17.391879
          ],
          [
            -66.166979,
            -17.39169
          ],
          [
            -66.166817,
            -17.390827
          ],
          [
            -66.16679,
            -17.390691
          ],
          [
            -66.166879,
            -17.390676
          ],
          [
            -66.167216,
            -17.390618
          ],
          [
            -66.167445,
            -17.390579
          ],
          [
            -66.167568,
            -17.390557
          ],
          [
            -66.167517,
            -17.39029
          ],
          [
            -66.167685,
            -17.390262
          ],
          [
            -66.168528,
            -17.390121
          ],
          [
            -66.169412,
            -17.389978
          ],
          [
            -66.169526,
            -17.389961
          ],
          [
            -66.169573,
            -17.390223
          ],
          [
            -66.169707,
            -17.390199
          ],
          [
            -66.170229,
            -17.390106
          ],
          [
            -66.170433,
            -17.390069
          ],
          [
            -66.170467,
            -17.390063
          ],
          [
            -66.170525,
            -17.39006
          ],
          [
            -66.170615,
            -17.390061
          ],
          [
            -66.170617,
            -17.390665
          ],
          [
            -66.170622,
            -17.391233
          ],
          [
            -66.170623,
            -17.391397
          ],
          [
            -66.170644,
            -17.392118
          ],
          [
            -66.172306,
            -17.392039
          ],
          [
            -66.173813,
            -17.391977
          ],
          [
            -66.175247,
            -17.391888
          ],
          [
            -66.175276,
            -17.392072
          ],
          [
            -66.175304,
            -17.392245
          ],
          [
            -66.175353,
            -17.392226
          ],
          [
            -66.175405,
            -17.392143
          ],
          [
            -66.175565,
            -17.391891
          ],
          [
            -66.176027,
            -17.391159
          ],
          [
            -66.176282,
            -17.390755
          ],
          [
            -66.176414,
            -17.390547
          ],
          [
            -66.176482,
            -17.390426
          ],
          [
            -66.176678,
            -17.390091
          ],
          [
            -66.176989,
            -17.389546
          ],
          [
            -66.177723,
            -17.388298
          ],
          [
            -66.177718,
            -17.388167
          ],
          [
            -66.177701,
            -17.388102
          ],
          [
            -66.177678,
            -17.388027
          ],
          [
            -66.177663,
            -17.387961
          ],
          [
            -66.177753,
            -17.387961
          ],
          [
            -66.177876,
            -17.38796
          ],
          [
            -66.178638,
            -17.38796
          ],
          [
            -66.178701,
            -17.387951
          ],
          [
            -66.178744,
            -17.387939
          ],
          [
            -66.178837,
            -17.387891
          ],
          [
            -66.17885,
            -17.387871
          ],
          [
            -66.17889,
            -17.387833
          ],
          [
            -66.17896,
            -17.387803
          ],
          [
            -66.179033,
            -17.387799
          ],
          [
            -66.179102,
            -17.387823
          ],
          [
            -66.179228,
            -17.387831
          ],
          [
            -66.17966,
            -17.3878
          ],
          [
            -66.180048,
            -17.387777
          ],
          [
            -66.181038,
            -17.387718
          ],
          [
            -66.181066,
            -17.387716
          ],
          [
            -66.181133,
            -17.387713
          ],
          [
            -66.181254,
            -17.387706
          ],
          [
            -66.181326,
            -17.38769
          ],
          [
            -66.181415,
            -17.387653
          ],
          [
            -66.181862,
            -17.387468
          ],
          [
            -66.181955,
            -17.387426
          ],
          [
            -66.182015,
            -17.387392
          ],
          [
            -66.182028,
            -17.387382
          ],
          [
            -66.18209,
            -17.387333
          ],
          [
            -66.182098,
            -17.387311
          ],
          [
            -66.182111,
            -17.387285
          ],
          [
            -66.182147,
            -17.387246
          ],
          [
            -66.182182,
            -17.38723
          ],
          [
            -66.182214,
            -17.387217
          ],
          [
            -66.182246,
            -17.387213
          ],
          [
            -66.182405,
            -17.387171
          ],
          [
            -66.182466,
            -17.387161
          ],
          [
            -66.182653,
            -17.387132
          ],
          [
            -66.182741,
            -17.387103
          ],
          [
            -66.183101,
            -17.386948
          ],
          [
            -66.184112,
            -17.386512
          ],
          [
            -66.184267,
            -17.386446
          ],
          [
            -66.184885,
            -17.386171
          ],
          [
            -66.184995,
            -17.386112
          ],
          [
            -66.185032,
            -17.386092
          ],
          [
            -66.185173,
            -17.386012
          ],
          [
            -66.185297,
            -17.385949
          ],
          [
            -66.185442,
            -17.385904
          ],
          [
            -66.185496,
            -17.385897
          ],
          [
            -66.185597,
            -17.385865
          ],
          [
            -66.185682,
            -17.385833
          ],
          [
            -66.185734,
            -17.38581
          ],
          [
            -66.185777,
            -17.385782
          ],
          [
            -66.185791,
            -17.385749
          ],
          [
            -66.185791,
            -17.385697
          ],
          [
            -66.185721,
            -17.385365
          ],
          [
            -66.185665,
            -17.385095
          ],
          [
            -66.185637,
            -17.38494
          ],
          [
            -66.185628,
            -17.384769
          ],
          [
            -66.185637,
            -17.384553
          ],
          [
            -66.185656,
            -17.384387
          ],
          [
            -66.185691,
            -17.384204
          ],
          [
            -66.185755,
            -17.383859
          ],
          [
            -66.185839,
            -17.383438
          ],
          [
            -66.185923,
            -17.383014
          ],
          [
            -66.185934,
            -17.382898
          ],
          [
            -66.18594,
            -17.382823
          ],
          [
            -66.185946,
            -17.382745
          ],
          [
            -66.185943,
            -17.382714
          ],
          [
            -66.185952,
            -17.382684
          ],
          [
            -66.185965,
            -17.38265
          ],
          [
            -66.185988,
            -17.382591
          ],
          [
            -66.186002,
            -17.382552
          ],
          [
            -66.186158,
            -17.381721
          ],
          [
            -66.186199,
            -17.381616
          ],
          [
            -66.186262,
            -17.381504
          ],
          [
            -66.186331,
            -17.381413
          ],
          [
            -66.186384,
            -17.38136
          ],
          [
            -66.186216,
            -17.380654
          ],
          [
            -66.18615,
            -17.380339
          ],
          [
            -66.186129,
            -17.380251
          ],
          [
            -66.187021,
            -17.379357
          ],
          [
            -66.187649,
            -17.378721
          ],
          [
            -66.188122,
            -17.378249
          ],
          [
            -66.188082,
            -17.37809
          ],
          [
            -66.187927,
            -17.377359
          ],
          [
            -66.187507,
            -17.375455
          ],
          [
            -66.187487,
            -17.375375
          ],
          [
            -66.187385,
            -17.374883
          ],
          [
            -66.187922,
            -17.374767
          ],
          [
            -66.188411,
            -17.374666
          ],
          [
            -66.188909,
            -17.374572
          ],
          [
            -66.188979,
            -17.374542
          ],
          [
            -66.189675,
            -17.374007
          ],
          [
            -66.189498,
            -17.373393
          ],
          [
            -66.189224,
            -17.372439
          ],
          [
            -66.187489,
            -17.372835
          ],
          [
            -66.187715,
            -17.372475
          ],
          [
            -66.187852,
            -17.372231
          ],
          [
            -66.188178,
            -17.371641
          ],
          [
            -66.188291,
            -17.371431
          ],
          [
            -66.188512,
            -17.371047
          ],
          [
            -66.188601,
            -17.370896
          ],
          [
            -66.188596,
            -17.370791
          ],
          [
            -66.188777,
            -17.370778
          ],
          [
            -66.18855,
            -17.369888
          ],
          [
            -66.188553,
            -17.369827
          ],
          [
            -66.189104,
            -17.369657
          ],
          [
            -66.189457,
            -17.369542
          ],
          [
            -66.189639,
            -17.369482
          ],
          [
            -66.189704,
            -17.369463
          ],
          [
            -66.189775,
            -17.369442
          ],
          [
            -66.189965,
            -17.369382
          ],
          [
            -66.190566,
            -17.369198
          ],
          [
            -66.190934,
            -17.369079
          ],
          [
            -66.191327,
            -17.368964
          ],
          [
            -66.191331,
            -17.368899
          ],
          [
            -66.191254,
            -17.36781
          ],
          [
            -66.191238,
            -17.367216
          ],
          [
            -66.191119,
            -17.366711
          ],
          [
            -66.190981,
            -17.366109
          ],
          [
            -66.19096,
            -17.366029
          ],
          [
            -66.190926,
            -17.365918
          ],
          [
            -66.190634,
            -17.365121
          ],
          [
            -66.190165,
            -17.363844
          ],
          [
            -66.189502,
            -17.364145
          ],
          [
            -66.189449,
            -17.364124
          ],
          [
            -66.189391,
            -17.364078
          ],
          [
            -66.189374,
            -17.36403
          ],
          [
            -66.189152,
            -17.363801
          ],
          [
            -66.188659,
            -17.363241
          ],
          [
            -66.188334,
            -17.362871
          ],
          [
            -66.188069,
            -17.362591
          ],
          [
            -66.18788,
            -17.362404
          ],
          [
            -66.187707,
            -17.362248
          ],
          [
            -66.187585,
            -17.362142
          ],
          [
            -66.187512,
            -17.362092
          ],
          [
            -66.187413,
            -17.362061
          ],
          [
            -66.187263,
            -17.362044
          ],
          [
            -66.187184,
            -17.36204
          ],
          [
            -66.187114,
            -17.362043
          ],
          [
            -66.186966,
            -17.362046
          ],
          [
            -66.186886,
            -17.362058
          ],
          [
            -66.186377,
            -17.362024
          ],
          [
            -66.186333,
            -17.362027
          ],
          [
            -66.186274,
            -17.36204
          ],
          [
            -66.185894,
            -17.362183
          ],
          [
            -66.185799,
            -17.362204
          ],
          [
            -66.185695,
            -17.362208
          ],
          [
            -66.18565,
            -17.362222
          ],
          [
            -66.185622,
            -17.362246
          ],
          [
            -66.185588,
            -17.362284
          ],
          [
            -66.185574,
            -17.36233
          ],
          [
            -66.185548,
            -17.362367
          ],
          [
            -66.185505,
            -17.362393
          ],
          [
            -66.185448,
            -17.362402
          ],
          [
            -66.185402,
            -17.362395
          ],
          [
            -66.185359,
            -17.362377
          ],
          [
            -66.185316,
            -17.362335
          ],
          [
            -66.185284,
            -17.362294
          ],
          [
            -66.18526,
            -17.362248
          ],
          [
            -66.185231,
            -17.362189
          ],
          [
            -66.18521,
            -17.362142
          ],
          [
            -66.185199,
            -17.3621
          ],
          [
            -66.185203,
            -17.362066
          ],
          [
            -66.185216,
            -17.362037
          ],
          [
            -66.18522,
            -17.361981
          ],
          [
            -66.185224,
            -17.361925
          ],
          [
            -66.184826,
            -17.361303
          ],
          [
            -66.184553,
            -17.360887
          ],
          [
            -66.184315,
            -17.36053
          ],
          [
            -66.183988,
            -17.360066
          ],
          [
            -66.183841,
            -17.359869
          ],
          [
            -66.185288,
            -17.359112
          ],
          [
            -66.185867,
            -17.358805
          ],
          [
            -66.185345,
            -17.357951
          ],
          [
            -66.184759,
            -17.356991
          ],
          [
            -66.184719,
            -17.356927
          ],
          [
            -66.184664,
            -17.356821
          ],
          [
            -66.18442,
            -17.356344
          ],
          [
            -66.184398,
            -17.356308
          ],
          [
            -66.184395,
            -17.356303
          ],
          [
            -66.184261,
            -17.356074
          ],
          [
            -66.18402,
            -17.355687
          ],
          [
            -66.183799,
            -17.355332
          ],
          [
            -66.183364,
            -17.354578
          ],
          [
            -66.182939,
            -17.353847
          ],
          [
            -66.182827,
            -17.353649
          ],
          [
            -66.182759,
            -17.353484
          ],
          [
            -66.182639,
            -17.353064
          ],
          [
            -66.182514,
            -17.352616
          ],
          [
            -66.18245,
            -17.352385
          ]
        ]
      }
    }
  ]
}