{
  "type": "FeatureCollection",
  "features": [
    {
      "type": "Feature",
      "properties": {
        "route_id": "9101527",
        "route_short_name": "J",
        "route_long_name": "MicroBus J: Avenida Chiquicollo \u2192 Calle Gran Chaco"
      },
      "geometry": {
        "type": "LineString",
        "coordinates": [
          [
            -66.191398,
            -17.368941
          ],
          [
            -66.191327,
            -17.368964
          ],
          [
            -66.190934,
            -17.369079
          ],
          [
            -66.190566,
            -17.369198
          ],
          [
            -66.189965,
            -17.369382
          ],
          [
            -66.189775,
            -17.369442
          ],
          [
            -66.189704,
            -17.369463
          ],
          [
            -66.189639,
            -17.369482
          ],
          [
            -66.189457,
            -17.369542
          ],
          [
            -66.189104,
            -17.369657
          ],
          [
            -66.188553,
            -17.369827
          ],
          [
            -66.18855,
            -17.369888
          ],
          [
            -66.188777,
            -17.370778
          ],
          [
            -66.188789,
            -17.370829
          ],
          [
            -66.188802,
            -17.370884
          ],
          [
            -66.188601,
            -17.370896
          ],
          [
            -66.187784,
            -17.370938
          ],
          [
            -66.187003,
            -17.370983
          ],
          [
            -66.185568,
            -17.371102
          ],
          [
            -66.184777,
            -17.371152
          ],
          [
            -66.184705,
            -17.371157
          ],
          [
            -66.18465,
            -17.371161
          ],
          [
            -66.184496,
            -17.37118
          ],
          [
            -66.184375,
            -17.371213
          ],
          [
            -66.184116,
            -17.371296
          ],
          [
            -66.184058,
            -17.371315
          ],
          [
            -66.183992,
            -17.371333
          ],
          [
            -66.183907,
            -17.371353
          ],
          [
            -66.183865,
            -17.371361
          ],
          [
            -66.183824,
            -17.371368
          ],
          [
            -66.183714,
            -17.371372
          ],
          [
            -66.183623,
            -17.371369
          ],
          [
            -66.183553,
            -17.371357
          ],
          [
            -66.183513,
            -17.371343
          ],
          [
            -66.183442,
            -17.371317
          ],
          [
            -66.183398,
            -17.3713
          ],
          [
            -66.18334,
            -17.371284
          ],
          [
            -66.183312,
            -17.371278
          ],
          [
            -66.183286,
            -17.371272
          ],
          [
            -66.183218,
            -17.371262
          ],
          [
            -66.183137,
            -17.371256
          ],
          [
            -66.182987,
            -17.371264
          ],
          [
            -66.181203,
            -17.371371
          ],
          [
            -66.180272,
            -17.371435
          ],
          [
            -66.180209,
            -17.371438
          ],
          [
            -66.179897,
            -17.371456
          ],
          [
            -66.179368,
            -17.371487
          ],
          [
            -66.178269,
            -17.371551
          ],
          [
            -66.177698,
            -17.371585
          ],
          [
            -66.177005,
            -17.371632
          ],
          [
            -66.175911,
            -17.371701
          ],
          [
            -66.175805,
            -17.371707
          ],
          [
            -66.175698,
            -17.371712
          ],
          [
            -66.175627,
            -17.371715
          ],
          [
            -66.17492,
            -17.37176
          ],
          [
            -66.174267,
            -17.3718
          ],
          [
            -66.173607,
            -17.371845
          ],
          [
            -66.17294,
            -17.371886
          ],
          [
            -66.172878,
            -17.371889
          ],
          [
            -66.172783,
            -17.371896
          ],
          [
            -66.172262,
            -17.371934
          ],
          [
            -66.17222,
            -17.371942
          ],
          [
            -66.172173,
            -17.371952
          ],
          [
            -66.172148,
            -17.371974
          ],
          [
            -66.172102,
            -17.371993
          ],
          [
            -66.172057,
            -17.372004
          ],
          [
            -66.172003,
            -17.372007
          ],
          [
            -66.171954,
            -17.372003
          ],
          [
            -66.171915,
            -17.371987
          ],
          [
            -66.171888,
            -17.371968
          ],
          [
            -66.171803,
            -17.371965
          ],
          [
            -66.171307,
            -17.371997
          ],
          [
            -66.170659,
            -17.37204
          ],
          [
            -66.169907,
            -17.372081
          ],
          [
            -66.169107,
            -17.372133
          ],
          [
            -66.168665,
            -17.372155
          ],
          [
            -66.168582,
            -17.372169
          ],
          [
            -66.168491,
            -17.372209
          ],
          [
            -66.16846,
            -17.372239
          ],
          [
            -66.168421,
            -17.372256
          ],
          [
            -66.168379,
            -17.372259
          ],
          [
            -66.168338,
            -17.372247
          ],
          [
            -66.168303,
            -17.372222
          ],
          [
            -66.168221,
            -17.372196
          ],
          [
            -66.167626,
            -17.372232
          ],
          [
            -66.165935,
            -17.372343
          ],
          [
            -66.165627,
            -17.372358
          ],
          [
            -66.165117,
            -17.372387
          ],
          [
            -66.164644,
            -17.372417
          ],
          [
            -66.163746,
            -17.372486
          ],
          [
            -66.163653,
            -17.372492
          ],
          [
            -66.163271,
            -17.372511
          ],
          [
            -66.162777,
            -17.372543
          ],
          [
            -66.162697,
            -17.372548
          ],
          [
            -66.162668,
            -17.372642
          ],
          [
            -66.162647,
            -17.372715
          ],
          [
            -66.16198,
            -17.375005
          ],
          [
            -66.161913,
            -17.37522
          ],
          [
            -66.161886,
            -17.375306
          ],
          [
            -66.161849,
            -17.375428
          ],
          [
            -66.161827,
            -17.375498
          ],
          [
            -66.161548,
            -17.376453
          ],
          [
            -66.161352,
            -17.377128
          ],
          [
            -66.161152,
            -17.377817
          ],
          [
            -66.1611,
            -17.377993
          ],
          [
            -66.161078,
            -17.378075
          ],
          [
            -66.161027,
            -17.378256
          ],
          [
            -66.160737,
            -17.379244
          ],
          [
            -66.160421,
            -17.380327
          ],
          [
            -66.160388,
            -17.380454
          ],
          [
            -66.160384,
            -17.380521
          ],
          [
            -66.160395,
            -17.380571
          ],
          [
            -66.160434,
            -17.380703
          ],
          [
            -66.160445,
            -17.380747
          ],
          [
            -66.160451,
            -17.380788
          ],
          [
            -66.160449,
            -17.380831
          ],
          [
            -66.160432,
            -17.380879
          ],
          [
            -66.160394,
            -17.380945
          ],
          [
            -66.160348,
            -17.381026
          ],
          [
            -66.160324,
            -17.381095
          ],
          [
            -66.160303,
            -17.381155
          ],
          [
            -66.160284,
            -17.381209
          ],
          [
            -66.160265,
            -17.381271
          ],
          [
            -66.160255,
            -17.381306
          ],
          [
            -66.160149,
            -17.381663
          ],
          [
            -66.160139,
            -17.381699
          ],
          [
            -66.160118,
            -17.381778
          ],
          [
            -66.160107,
            -17.381844
          ],
          [
            -66.1601,
            -17.381917
          ],
          [
            -66.160102,
            -17.382008
          ],
          [
            -66.160124,
            -17.382136
          ],
          [
            -66.160147,
            -17.382213
          ],
          [
            -66.160211,
            -17.382274
          ],
          [
            -66.160263,
            -17.382305
          ],
          [
            -66.160656,
            -17.38252
          ],
          [
            -66.160714,
            -17.382562
          ],
          [
            -66.160751,
            -17.382603
          ],
          [
            -66.16077,
            -17.382631
          ],
          [
            -66.160786,
            -17.382679
          ],
          [
            -66.160794,
            -17.382734
          ],
          [
            -66.160779,
            -17.382799
          ],
          [
            -66.160537,
            -17.384019
          ],
          [
            -66.160533,
            -17.384057
          ],
          [
            -66.160511,
            -17.38418
          ],
          [
            -66.160482,
            -17.384331
          ],
          [
            -66.160471,
            -17.384372
          ],
          [
            -66.160239,
            -17.385583
          ],
          [
            -66.16014,
            -17.386116
          ],
          [
            -66.159906,
            -17.387288
          ],
          [
            -66.159895,
            -17.387344
          ],
          [
            -66.159742,
            -17.388177
          ],
          [
            -66.159721,
            -17.388281
          ],
          [
            -66.1597,
            -17.388402
          ],
          [
            -66.159517,
            -17.38928
          ],
          [
            -66.159502,
            -17.389357
          ],
          [
            -66.159493,
            -17.389406
          ],
          [
            -66.159313,
            -17.3904
          ],
          [
            -66.159307,
            -17.390434
          ],
          [
            -66.159292,
            -17.390506
          ],
          [
            -66.159241,
            -17.39076
          ],
          [
            -66.159109,
            -17.391403
          ],
          [
            -66.159096,
            -17.391477
          ],
          [
            -66.159088,
            -17.391515
          ],
          [
            -66.158889,
            -17.392506
          ],
          [
            -66.158879,
            -17.392559
          ],
          [
            -66.158862,
            -17.392647
          ],
          [
            -66.15885,
            -17.39271
          ],
          [
            -66.158694,
            -17.393514
          ],
          [
            -66.158678,
            -17.393586
          ],
          [
            -66.158669,
            -17.39363
          ],
          [
            -66.158468,
            -17.394624
          ],
          [
            -66.158285,
            -17.395625
          ],
          [
            -66.158278,
            -17.395669
          ],
          [
            -66.15827,
            -17.395715
          ],
          [
            -66.158136,
            -17.396672
          ],
          [
            -66.15813,
            -17.396715
          ],
          [
            -66.158124,
            -17.396768
          ],
          [
            -66.157969,
            -17.397736
          ],
          [
            -66.157959,
            -17.397794
          ],
          [
            -66.157949,
            -17.397857
          ],
          [
            -66.157771,
            -17.398908
          ],
          [
            -66.157727,
            -17.399291
          ],
          [
            -66.157728,
            -17.399353
          ],
          [
            -66.157813,
            -17.399341
          ],
          [
            -66.158533,
            -17.399231
          ],
          [
            -66.158685,
            -17.399402
          ],
          [
            -66.158676,
            -17.399457
          ],
          [
            -66.158666,
            -17.399515
          ],
          [
            -66.15781,
            -17.399491
          ],
          [
            -66.157729,
            -17.399487
          ],
          [
            -66.157636,
            -17.399482
          ],
          [
            -66.157568,
            -17.399479
          ],
          [
            -66.156846,
            -17.399579
          ],
          [
            -66.156742,
            -17.399592
          ],
          [
            -66.156599,
            -17.399596
          ],
          [
            -66.156402,
            -17.399592
          ],
          [
            -66.156219,
            -17.400783
          ],
          [
            -66.156116,
            -17.401314
          ],
          [
            -66.155948,
            -17.402196
          ],
          [
            -66.155911,
            -17.402295
          ],
          [
            -66.15542,
            -17.402301
          ],
          [
            -66.155316,
            -17.402192
          ],
          [
            -66.155307,
            -17.401651
          ],
          [
            -66.155285,
            -17.401299
          ],
          [
            -66.153977,
            -17.401365
          ],
          [
            -66.15364,
            -17.401374
          ],
          [
            -66.153295,
            -17.401383
          ],
          [
            -66.152196,
            -17.401461
          ],
          [
            -66.151274,
            -17.40147
          ],
          [
            -66.15122,
            -17.401588
          ],
          [
            -66.151061,
            -17.401901
          ],
          [
            -66.15102,
            -17.402016
          ],
          [
            -66.150982,
            -17.402131
          ],
          [
            -66.150961,
            -17.402256
          ],
          [
            -66.150943,
            -17.402375
          ],
          [
            -66.15098,
            -17.402389
          ],
          [
            -66.15101,
            -17.402414
          ],
          [
            -66.151027,
            -17.402442
          ],
          [
            -66.151035,
            -17.402473
          ],
          [
            -66.151034,
            -17.402504
          ],
          [
            -66.151023,
            -17.402534
          ],
          [
            -66.151004,
            -17.40256
          ],
          [
            -66.150978,
            -17.40258
          ],
          [
            -66.150947,
            -17.402591
          ],
          [
            -66.151001,
            -17.403136
          ],
          [
            -66.151008,
            -17.403267
          ],
          [
            -66.151023,
            -17.403469
          ],
          [
            -66.151025,
            -17.403845
          ],
          [
            -66.15101,
            -17.404142
          ],
          [
            -66.150971,
            -17.404419
          ],
          [
            -66.150913,
            -17.404686
          ],
          [
            -66.150872,
            -17.40493
          ],
          [
            -66.150868,
            -17.404951
          ],
          [
            -66.150868,
            -17.404967
          ],
          [
            -66.150867,
            -17.404995
          ],
          [
            -66.150863,
            -17.405052
          ],
          [
            -66.150768,
            -17.407635
          ],
          [
            -66.150788,
            -17.408412
          ],
          [
            -66.150782,
            -17.408776
          ],
          [
            -66.150814,
            -17.40934
          ],
          [
            -66.150827,
            -17.409598
          ],
          [
            -66.150923,
            -17.410411
          ],
          [
            -66.15102,
            -17.41141
          ],
          [
            -66.151075,
            -17.4119
          ],
          [
            -66.15114,
            -17.412367
          ],
          [
            -66.151181,
            -17.412687
          ],
          [
            -66.151265,
            -17.413225
          ],
          [
            -66.151179,
            -17.413273
          ],
          [
            -66.150334,
            -17.41372
          ],
          [
            -66.149357,
            -17.414242
          ],
          [
            -66.149592,
            -17.41452
          ],
          [
            -66.149759,
            -17.414696
          ],
          [
            -66.149916,
            -17.414881
          ],
          [
            -66.150048,
            -17.415089
          ],
          [
            -66.150147,
            -17.415268
          ],
          [
            -66.150222,
            -17.415457
          ],
          [
            -66.150279,
            -17.41562
          ],
          [
            -66.150312,
            -17.415788
          ],
          [
            -66.150333,
            -17.415936
          ],
          [
            -66.150362,
            -17.416201
          ],
          [
            -66.150385,
            -17.416487
          ],
          [
            -66.150383,
            -17.416561
          ],
          [
            -66.150368,
            -17.416656
          ],
          [
            -66.1503,
            -17.417085
          ],
          [
            -66.150198,
            -17.417568
          ],
          [
            -66.150125,
            -17.417964
          ],
          [
            -66.150099,
            -17.418058
          ],
          [
            -66.150075,
            -17.418125
          ],
          [
            -66.150034,
            -17.418204
          ],
          [
            -66.149809,
            -17.418529
          ],
          [
            -66.149359,
            -17.419166
          ],
          [
            -66.149337,
            -17.419238
          ],
          [
            -66.14933,
            -17.419273
          ],
          [
            -66.149323,
            -17.419308
          ],
          [
            -66.149317,
            -17.419365
          ],
          [
            -66.149329,
            -17.419467
          ],
          [
            -66.149351,
            -17.419641
          ],
          [
            -66.149273,
            -17.419672
          ],
          [
            -66.148994,
            -17.419559
          ],
          [
            -66.148855,
            -17.419502
          ],
          [
            -66.148797,
            -17.419486
          ],
          [
            -66.148755,
            -17.419483
          ],
          [
            -66.148664,
            -17.419481
          ],
          [
            -66.148243,
            -17.419506
          ],
          [
            -66.14763,
            -17.419545
          ],
          [
            -66.147289,
            -17.419563
          ],
          [
            -66.14703,
            -17.419576
          ],
          [
            -66.14641,
            -17.419615
          ],
          [
            -66.146005,
            -17.41964
          ],
          [
            -66.145385,
            -17.419678
          ],
          [
            -66.144702,
            -17.419721
          ],
          [
            -66.144594,
            -17.419727
          ],
          [
            -66.143963,
            -17.419767
          ],
          [
            -66.143361,
            -17.419799
          ],
          [
            -66.14276,
            -17.419833
          ],
          [
            -66.142134,
            -17.419868
          ],
          [
            -66.141514,
            -17.419908
          ],
          [
            -66.140927,
            -17.419941
          ],
          [
            -66.140539,
            -17.419963
          ],
          [
            -66.140289,
            -17.419977
          ],
          [
            -66.139993,
            -17.419992
          ],
          [
            -66.139816,
            -17.420001
          ],
          [
            -66.139729,
            -17.420002
          ],
          [
            -66.139684,
            -17.420001
          ],
          [
            -66.13964,
            -17.419993
          ],
          [
            -66.139598,
            -17.419979
          ],
          [
            -66.139558,
            -17.419959
          ],
          [
            -66.139522,
            -17.419933
          ],
          [
            -66.13949,
            -17.419903
          ],
          [
            -66.139397,
            -17.419831
          ],
          [
            -66.139366,
            -17.419818
          ],
          [
            -66.139331,
            -17.419813
          ],
          [
            -66.139304,
            -17.419815
          ],
          [
            -66.139269,
            -17.419826
          ],
          [
            -66.139244,
            -17.419841
          ],
          [
            -66.138494,
            -17.420627
          ],
          [
            -66.138093,
            -17.421026
          ],
          [
            -66.137776,
            -17.421357
          ],
          [
            -66.137185,
            -17.421958
          ],
          [
            -66.136865,
            -17.422289
          ],
          [
            -66.136308,
            -17.422853
          ],
          [
            -66.136095,
            -17.423068
          ],
          [
            -66.135499,
            -17.423698
          ],
          [
            -66.135465,
            -17.42372
          ],
          [
            -66.135407,
            -17.423741
          ],
          [
            -66.135347,
            -17.423754
          ],
          [
            -66.134855,
            -17.423721
          ],
          [
            -66.134732,
            -17.423721
          ],
          [
            -66.134635,
            -17.423736
          ],
          [
            -66.134541,
            -17.423785
          ],
          [
            -66.134462,
            -17.423839
          ],
          [
            -66.133796,
            -17.424387
          ],
          [
            -66.133387,
            -17.42473
          ],
          [
            -66.132634,
            -17.42537
          ],
          [
            -66.131893,
            -17.425999
          ],
          [
            -66.131323,
            -17.426483
          ],
          [
            -66.130769,
            -17.426965
          ],
          [
            -66.130666,
            -17.427065
          ],
          [
            -66.130557,
            -17.427173
          ],
          [
            -66.130454,
            -17.42729
          ],
          [
            -66.130392,
            -17.427364
          ],
          [
            -66.129794,
            -17.428083
          ],
          [
            -66.129097,
            -17.428901
          ],
          [
            -66.128948,
            -17.429095
          ],
          [
            -66.128845,
            -17.429223
          ],
          [
            -66.12873,
            -17.429396
          ],
          [
            -66.128531,
            -17.429737
          ],
          [
            -66.128043,
            -17.430633
          ],
          [
            -66.127602,
            -17.431475
          ],
          [
            -66.126981,
            -17.432661
          ],
          [
            -66.126895,
            -17.432829
          ],
          [
            -66.126714,
            -17.43315
          ],
          [
            -66.126377,
            -17.433676
          ],
          [
            -66.126003,
            -17.434251
          ],
          [
            -66.125366,
            -17.43523
          ],
          [
            -66.125306,
            -17.435342
          ],
          [
            -66.125283,
            -17.435408
          ],
          [
            -66.125262,
            -17.435469
          ],
          [
            -66.125241,
            -17.435608
          ],
          [
            -66.125242,
            -17.435713
          ],
          [
            -66.125258,
            -17.435824
          ],
          [
            -66.125297,
            -17.435961
          ],
          [
            -66.125404,
            -17.436297
          ],
          [
            -66.125455,
            -17.436497
          ],
          [
            -66.125502,
            -17.43671
          ],
          [
            -66.125634,
            -17.437338
          ],
          [
            -66.125659,
            -17.437498
          ],
          [
            -66.125715,
            -17.437775
          ],
          [
            -66.125825,
            -17.438225
          ],
          [
            -66.125851,
            -17.438344
          ],
          [
            -66.125861,
            -17.438456
          ],
          [
            -66.125854,
            -17.438558
          ],
          [
            -66.125838,
            -17.438624
          ],
          [
            -66.125768,
            -17.438764
          ],
          [
            -66.125741,
            -17.43881
          ],
          [
            -66.12566,
            -17.438908
          ],
          [
            -66.125307,
            -17.439312
          ],
          [
            -66.125215,
            -17.439428
          ],
          [
            -66.125162,
            -17.439493
          ],
          [
            -66.12513,
            -17.439562
          ],
          [
            -66.125114,
            -17.439662
          ],
          [
            -66.125118,
            -17.439753
          ],
          [
            -66.125124,
            -17.439956
          ],
          [
            -66.125062,
            -17.439968
          ],
          [
            -66.124574,
            -17.440031
          ],
          [
            -66.122644,
            -17.440327
          ],
          [
            -66.121588,
            -17.440479
          ],
          [
            -66.121512,
            -17.440495
          ],
          [
            -66.120369,
            -17.440684
          ],
          [
            -66.120268,
            -17.440716
          ],
          [
            -66.120288,
            -17.440883
          ],
          [
            -66.12029,
            -17.440964
          ],
          [
            -66.120276,
            -17.44179
          ],
          [
            -66.120268,
            -17.442048
          ],
          [
            -66.120258,
            -17.442641
          ],
          [
            -66.120236,
            -17.443104
          ],
          [
            -66.120235,
            -17.44355
          ],
          [
            -66.120171,
            -17.443782
          ],
          [
            -66.120066,
            -17.444057
          ],
          [
            -66.119472,
            -17.444991
          ],
          [
            -66.119343,
            -17.444938
          ],
          [
            -66.119254,
            -17.444931
          ],
          [
            -66.118005,
            -17.445076
          ],
          [
            -66.117403,
            -17.445153
          ],
          [
            -66.116789,
            -17.445204
          ],
          [
            -66.116801,
            -17.445512
          ],
          [
            -66.116815,
            -17.445852
          ],
          [
            -66.116827,
            -17.446036
          ],
          [
            -66.116846,
            -17.446359
          ],
          [
            -66.116887,
            -17.447443
          ],
          [
            -66.116902,
            -17.447677
          ],
          [
            -66.116911,
            -17.447931
          ],
          [
            -66.116946,
            -17.448662
          ],
          [
            -66.116871,
            -17.448849
          ],
          [
            -66.116789,
            -17.448956
          ],
          [
            -66.116231,
            -17.448813
          ],
          [
            -66.115915,
            -17.448732
          ],
          [
            -66.115808,
            -17.448704
          ],
          [
            -66.115583,
            -17.448647
          ],
          [
            -66.115499,
            -17.449146
          ],
          [
            -66.115407,
            -17.449686
          ],
          [
            -66.115322,
            -17.450185
          ],
          [
            -66.115274,
            -17.450468
          ],
          [
            -66.115254,
            -17.450587
          ],
          [
            -66.115195,
            -17.450652
          ],
          [
            -66.115136,
            -17.45085
          ],
          [
            -66.114936,
            -17.451085
          ],
          [
            -66.114801,
            -17.451335
          ],
          [
            -66.114793,
            -17.451409
          ],
          [
            -66.114818,
            -17.451547
          ],
          [
            -66.114824,
            -17.45182
          ],
          [
            -66.114852,
            -17.451932
          ]
        ]
      }
    }
  ]
}