{
  "type": "FeatureCollection",
  "features": [
    {
      "type": "Feature",
      "properties": {
        "route_id": "10786869",
        "route_short_name": "K",
        "route_long_name": "MicroBus K: Avenida Arqu\u00edmedes \u2192 Avenida del Ruise\u00f1or"
      },
      "geometry": {
        "type": "LineString",
        "coordinates": [
          [
            -66.197683,
            -17.400156
          ],
          [
            -66.197746,
            -17.400154
          ],
          [
            -66.198203,
            -17.400134
          ],
          [
            -66.19813,
            -17.399521
          ],
          [
            -66.198006,
            -17.398659
          ],
          [
            -66.197969,
            -17.398411
          ],
          [
            -66.197825,
            -17.397361
          ],
          [
            -66.197735,
            -17.397207
          ],
          [
            -66.197561,
            -17.397195
          ],
          [
            -66.195831,
            -17.397101
          ],
          [
            -66.195378,
            -17.397079
          ],
          [
            -66.195134,
            -17.397066
          ],
          [
            -66.194525,
            -17.397025
          ],
          [
            -66.194302,
            -17.397012
          ],
          [
            -66.193884,
            -17.39696
          ],
          [
            -66.193798,
            -17.396955
          ],
          [
            -66.193726,
            -17.396951
          ],
          [
            -66.192062,
            -17.396859
          ],
          [
            -66.191198,
            -17.396819
          ],
          [
            -66.190089,
            -17.396771
          ],
          [
            -66.189795,
            -17.396757
          ],
          [
            -66.189423,
            -17.396741
          ],
          [
            -66.189262,
            -17.396723
          ],
          [
            -66.188182,
            -17.396589
          ],
          [
            -66.18755,
            -17.396542
          ],
          [
            -66.186963,
            -17.396459
          ],
          [
            -66.185848,
            -17.396308
          ],
          [
            -66.185566,
            -17.396272
          ],
          [
            -66.185432,
            -17.396272
          ],
          [
            -66.185341,
            -17.396269
          ],
          [
            -66.185333,
            -17.396288
          ],
          [
            -66.185297,
            -17.396334
          ],
          [
            -66.185247,
            -17.396366
          ],
          [
            -66.185189,
            -17.396381
          ],
          [
            -66.185129,
            -17.396375
          ],
          [
            -66.185074,
            -17.396351
          ],
          [
            -66.185047,
            -17.396329
          ],
          [
            -66.184961,
            -17.396282
          ],
          [
            -66.184943,
            -17.396276
          ],
          [
            -66.184883,
            -17.396259
          ],
          [
            -66.184823,
            -17.396249
          ],
          [
            -66.184791,
            -17.396244
          ],
          [
            -66.183947,
            -17.396258
          ],
          [
            -66.183275,
            -17.396284
          ],
          [
            -66.182555,
            -17.396304
          ],
          [
            -66.181867,
            -17.396314
          ],
          [
            -66.181664,
            -17.396311
          ],
          [
            -66.181579,
            -17.396316
          ],
          [
            -66.181511,
            -17.39632
          ],
          [
            -66.180676,
            -17.39634
          ],
          [
            -66.179823,
            -17.396365
          ],
          [
            -66.179196,
            -17.396377
          ],
          [
            -66.178723,
            -17.396379
          ],
          [
            -66.178593,
            -17.396381
          ],
          [
            -66.178569,
            -17.3963
          ],
          [
            -66.178536,
            -17.396201
          ],
          [
            -66.178089,
            -17.395085
          ],
          [
            -66.177797,
            -17.394207
          ],
          [
            -66.177697,
            -17.393933
          ],
          [
            -66.177649,
            -17.393809
          ],
          [
            -66.177637,
            -17.39378
          ],
          [
            -66.177602,
            -17.393686
          ],
          [
            -66.177279,
            -17.393699
          ],
          [
            -66.176819,
            -17.393719
          ],
          [
            -66.176685,
            -17.393724
          ],
          [
            -66.176607,
            -17.393728
          ],
          [
            -66.176473,
            -17.393734
          ],
          [
            -66.174747,
            -17.393808
          ],
          [
            -66.174015,
            -17.393839
          ],
          [
            -66.17391,
            -17.393844
          ],
          [
            -66.171329,
            -17.393958
          ],
          [
            -66.171173,
            -17.393975
          ],
          [
            -66.171037,
            -17.394003
          ],
          [
            -66.170902,
            -17.394036
          ],
          [
            -66.170765,
            -17.394068
          ],
          [
            -66.170705,
            -17.394095
          ],
          [
            -66.170658,
            -17.394102
          ],
          [
            -66.170608,
            -17.394098
          ],
          [
            -66.170567,
            -17.394089
          ],
          [
            -66.170425,
            -17.394073
          ],
          [
            -66.17029,
            -17.394067
          ],
          [
            -66.169213,
            -17.394123
          ],
          [
            -66.168848,
            -17.394136
          ],
          [
            -66.168749,
            -17.39414
          ],
          [
            -66.168475,
            -17.39415
          ],
          [
            -66.168352,
            -17.394154
          ],
          [
            -66.167998,
            -17.394167
          ],
          [
            -66.167899,
            -17.394168
          ],
          [
            -66.167805,
            -17.394157
          ],
          [
            -66.16771,
            -17.394146
          ],
          [
            -66.167603,
            -17.394136
          ],
          [
            -66.167473,
            -17.394122
          ],
          [
            -66.167376,
            -17.394114
          ],
          [
            -66.166963,
            -17.394065
          ],
          [
            -66.166698,
            -17.394038
          ],
          [
            -66.166609,
            -17.394026
          ],
          [
            -66.166515,
            -17.394005
          ],
          [
            -66.166338,
            -17.393931
          ],
          [
            -66.166273,
            -17.393911
          ],
          [
            -66.166192,
            -17.393894
          ],
          [
            -66.165909,
            -17.393848
          ],
          [
            -66.164906,
            -17.39367
          ],
          [
            -66.163915,
            -17.393489
          ],
          [
            -66.162053,
            -17.39318
          ],
          [
            -66.161979,
            -17.393167
          ],
          [
            -66.161115,
            -17.393017
          ],
          [
            -66.161047,
            -17.393009
          ],
          [
            -66.160979,
            -17.393
          ],
          [
            -66.159961,
            -17.392837
          ],
          [
            -66.159906,
            -17.392828
          ],
          [
            -66.159866,
            -17.392822
          ],
          [
            -66.159825,
            -17.392815
          ],
          [
            -66.159037,
            -17.392679
          ],
          [
            -66.158924,
            -17.392658
          ],
          [
            -66.158862,
            -17.392647
          ],
          [
            -66.15877,
            -17.392632
          ],
          [
            -66.15869,
            -17.392617
          ],
          [
            -66.158366,
            -17.392559
          ],
          [
            -66.15829,
            -17.392545
          ],
          [
            -66.157782,
            -17.39246
          ],
          [
            -66.157737,
            -17.392451
          ],
          [
            -66.157684,
            -17.392442
          ],
          [
            -66.157305,
            -17.392376
          ],
          [
            -66.156712,
            -17.392274
          ],
          [
            -66.156656,
            -17.392263
          ],
          [
            -66.156614,
            -17.392256
          ],
          [
            -66.156188,
            -17.392183
          ],
          [
            -66.156156,
            -17.392177
          ],
          [
            -66.155647,
            -17.392082
          ],
          [
            -66.155571,
            -17.392067
          ],
          [
            -66.15552,
            -17.392057
          ],
          [
            -66.154582,
            -17.391891
          ],
          [
            -66.1545,
            -17.391876
          ],
          [
            -66.154438,
            -17.391864
          ],
          [
            -66.154032,
            -17.391794
          ],
          [
            -66.15365,
            -17.391724
          ],
          [
            -66.153404,
            -17.39168
          ],
          [
            -66.153354,
            -17.391672
          ],
          [
            -66.153306,
            -17.391662
          ],
          [
            -66.152362,
            -17.391484
          ],
          [
            -66.152286,
            -17.391471
          ],
          [
            -66.152228,
            -17.39146
          ],
          [
            -66.151264,
            -17.391283
          ],
          [
            -66.151208,
            -17.391273
          ],
          [
            -66.151198,
            -17.391337
          ],
          [
            -66.151126,
            -17.391729
          ],
          [
            -66.15104,
            -17.392193
          ],
          [
            -66.151028,
            -17.392245
          ],
          [
            -66.151021,
            -17.392284
          ],
          [
            -66.150842,
            -17.393227
          ],
          [
            -66.150832,
            -17.393279
          ],
          [
            -66.150822,
            -17.393334
          ],
          [
            -66.15064,
            -17.394328
          ],
          [
            -66.150442,
            -17.395355
          ],
          [
            -66.150386,
            -17.395644
          ],
          [
            -66.150236,
            -17.396417
          ],
          [
            -66.150023,
            -17.397561
          ],
          [
            -66.150017,
            -17.397637
          ],
          [
            -66.150014,
            -17.397688
          ],
          [
            -66.149949,
            -17.398476
          ],
          [
            -66.149941,
            -17.398553
          ],
          [
            -66.149907,
            -17.399003
          ],
          [
            -66.149849,
            -17.399867
          ],
          [
            -66.149822,
            -17.399953
          ],
          [
            -66.149783,
            -17.400029
          ],
          [
            -66.149902,
            -17.400467
          ],
          [
            -66.149894,
            -17.400532
          ],
          [
            -66.149861,
            -17.400585
          ],
          [
            -66.149711,
            -17.400749
          ],
          [
            -66.149504,
            -17.400949
          ],
          [
            -66.149405,
            -17.401055
          ],
          [
            -66.149353,
            -17.401126
          ],
          [
            -66.149287,
            -17.40125
          ],
          [
            -66.149287,
            -17.40129
          ],
          [
            -66.149291,
            -17.401328
          ],
          [
            -66.149304,
            -17.401367
          ],
          [
            -66.149445,
            -17.401838
          ],
          [
            -66.149458,
            -17.401883
          ],
          [
            -66.149475,
            -17.401946
          ],
          [
            -66.149475,
            -17.401977
          ],
          [
            -66.149468,
            -17.402008
          ],
          [
            -66.14942,
            -17.402087
          ],
          [
            -66.149409,
            -17.402162
          ],
          [
            -66.149509,
            -17.402087
          ],
          [
            -66.149569,
            -17.401999
          ],
          [
            -66.149626,
            -17.401894
          ],
          [
            -66.149765,
            -17.401396
          ],
          [
            -66.149813,
            -17.40132
          ],
          [
            -66.149865,
            -17.401271
          ],
          [
            -66.149943,
            -17.401227
          ],
          [
            -66.150025,
            -17.401217
          ],
          [
            -66.150047,
            -17.401219
          ],
          [
            -66.150099,
            -17.401225
          ],
          [
            -66.15016,
            -17.401247
          ],
          [
            -66.15021,
            -17.40128
          ],
          [
            -66.150242,
            -17.401317
          ],
          [
            -66.150292,
            -17.401397
          ],
          [
            -66.150309,
            -17.401447
          ],
          [
            -66.150319,
            -17.401529
          ],
          [
            -66.150317,
            -17.401579
          ],
          [
            -66.15031,
            -17.401666
          ],
          [
            -66.150292,
            -17.401733
          ],
          [
            -66.150271,
            -17.401801
          ],
          [
            -66.150166,
            -17.402087
          ],
          [
            -66.150131,
            -17.402155
          ],
          [
            -66.150095,
            -17.402233
          ],
          [
            -66.150059,
            -17.402293
          ],
          [
            -66.15003,
            -17.402341
          ],
          [
            -66.150095,
            -17.402384
          ],
          [
            -66.150172,
            -17.402406
          ],
          [
            -66.150223,
            -17.403154
          ],
          [
            -66.15024,
            -17.403362
          ],
          [
            -66.150347,
            -17.403711
          ],
          [
            -66.150368,
            -17.403832
          ],
          [
            -66.15038,
            -17.403958
          ],
          [
            -66.150363,
            -17.40407
          ],
          [
            -66.150328,
            -17.404174
          ],
          [
            -66.150275,
            -17.404276
          ],
          [
            -66.150206,
            -17.404382
          ],
          [
            -66.150024,
            -17.404612
          ],
          [
            -66.150489,
            -17.404915
          ],
          [
            -66.150622,
            -17.404953
          ],
          [
            -66.150766,
            -17.40496
          ],
          [
            -66.150768,
            -17.404947
          ],
          [
            -66.150773,
            -17.404936
          ],
          [
            -66.150781,
            -17.404925
          ],
          [
            -66.150794,
            -17.404917
          ],
          [
            -66.150809,
            -17.404912
          ],
          [
            -66.150824,
            -17.404912
          ],
          [
            -66.150839,
            -17.404916
          ],
          [
            -66.150852,
            -17.404924
          ],
          [
            -66.150862,
            -17.404938
          ],
          [
            -66.150868,
            -17.404951
          ],
          [
            -66.150868,
            -17.404967
          ],
          [
            -66.150867,
            -17.404995
          ],
          [
            -66.150863,
            -17.405052
          ],
          [
            -66.150768,
            -17.407635
          ],
          [
            -66.150788,
            -17.408412
          ],
          [
            -66.150782,
            -17.408776
          ],
          [
            -66.150814,
            -17.40934
          ],
          [
            -66.150827,
            -17.409598
          ],
          [
            -66.150923,
            -17.410411
          ],
          [
            -66.15102,
            -17.41141
          ],
          [
            -66.151075,
            -17.4119
          ],
          [
            -66.15114,
            -17.412367
          ],
          [
            -66.151181,
            -17.412687
          ],
          [
            -66.151265,
            -17.413225
          ],
          [
            -66.151179,
            -17.413273
          ],
          [
            -66.150334,
            -17.41372
          ],
          [
            -66.149357,
            -17.414242
          ],
          [
            -66.149592,
            -17.41452
          ],
          [
            -66.149759,
            -17.414696
          ],
          [
            -66.149916,
            -17.414881
          ],
          [
            -66.150048,
            -17.415089
          ],
          [
            -66.149715,
            -17.415325
          ],
          [
            -66.149486,
            -17.415488
          ],
          [
            -66.149367,
            -17.415431
          ],
          [
            -66.149266,
            -17.415394
          ],
          [
            -66.149035,
            -17.415352
          ],
          [
            -66.1488,
            -17.41533
          ],
          [
            -66.148628,
            -17.415326
          ],
          [
            -66.148535,
            -17.415297
          ],
          [
            -66.14848,
            -17.415242
          ],
          [
            -66.148431,
            -17.415143
          ],
          [
            -66.14842,
            -17.415102
          ],
          [
            -66.148342,
            -17.414944
          ],
          [
            -66.148218,
            -17.414716
          ],
          [
            -66.148139,
            -17.414588
          ],
          [
            -66.147828,
            -17.414224
          ],
          [
            -66.147745,
            -17.414149
          ],
          [
            -66.147684,
            -17.414091
          ],
          [
            -66.147522,
            -17.413988
          ],
          [
            -66.14744,
            -17.413948
          ],
          [
            -66.147379,
            -17.413939
          ],
          [
            -66.147321,
            -17.41395
          ],
          [
            -66.147241,
            -17.41397
          ],
          [
            -66.147073,
            -17.41402
          ],
          [
            -66.146999,
            -17.414025
          ],
          [
            -66.146738,
            -17.414068
          ],
          [
            -66.146504,
            -17.414075
          ],
          [
            -66.146369,
            -17.414074
          ],
          [
            -66.146149,
            -17.414095
          ],
          [
            -66.145898,
            -17.414124
          ],
          [
            -66.145717,
            -17.41415
          ],
          [
            -66.145518,
            -17.414174
          ],
          [
            -66.145276,
            -17.41416
          ],
          [
            -66.145237,
            -17.414148
          ],
          [
            -66.145198,
            -17.414133
          ],
          [
            -66.145147,
            -17.414114
          ],
          [
            -66.14466,
            -17.413972
          ],
          [
            -66.144622,
            -17.414042
          ],
          [
            -66.144544,
            -17.414195
          ],
          [
            -66.144495,
            -17.414303
          ],
          [
            -66.144468,
            -17.414386
          ],
          [
            -66.144448,
            -17.41446
          ],
          [
            -66.144434,
            -17.414487
          ],
          [
            -66.144402,
            -17.41453
          ],
          [
            -66.14422,
            -17.414768
          ],
          [
            -66.144148,
            -17.414866
          ],
          [
            -66.144931,
            -17.415068
          ],
          [
            -66.145736,
            -17.415337
          ],
          [
            -66.145418,
            -17.416287
          ],
          [
            -66.145454,
            -17.4163
          ],
          [
            -66.145138,
            -17.417256
          ],
          [
            -66.144324,
            -17.417022
          ],
          [
            -66.143524,
            -17.416778
          ],
          [
            -66.14258,
            -17.416506
          ],
          [
            -66.141887,
            -17.417244
          ],
          [
            -66.14131,
            -17.417839
          ],
          [
            -66.140755,
            -17.418398
          ],
          [
            -66.140597,
            -17.418561
          ],
          [
            -66.140499,
            -17.418615
          ],
          [
            -66.140382,
            -17.41866
          ],
          [
            -66.140321,
            -17.418673
          ],
          [
            -66.140219,
            -17.418693
          ],
          [
            -66.140142,
            -17.418709
          ],
          [
            -66.140086,
            -17.418733
          ],
          [
            -66.140027,
            -17.418772
          ],
          [
            -66.139998,
            -17.418804
          ],
          [
            -66.139926,
            -17.4189
          ],
          [
            -66.139834,
            -17.419193
          ],
          [
            -66.139828,
            -17.419257
          ],
          [
            -66.139834,
            -17.419313
          ],
          [
            -66.139851,
            -17.41937
          ],
          [
            -66.139871,
            -17.419412
          ],
          [
            -66.139918,
            -17.419494
          ],
          [
            -66.139955,
            -17.419559
          ],
          [
            -66.139978,
            -17.419596
          ],
          [
            -66.139995,
            -17.419635
          ],
          [
            -66.140005,
            -17.419677
          ],
          [
            -66.140009,
            -17.419714
          ],
          [
            -66.140006,
            -17.419763
          ],
          [
            -66.139996,
            -17.419804
          ],
          [
            -66.139979,
            -17.419844
          ],
          [
            -66.139957,
            -17.419881
          ],
          [
            -66.139928,
            -17.419914
          ],
          [
            -66.139895,
            -17.419943
          ],
          [
            -66.139858,
            -17.419967
          ],
          [
            -66.139817,
            -17.419985
          ],
          [
            -66.139774,
            -17.419996
          ],
          [
            -66.139729,
            -17.420002
          ],
          [
            -66.139684,
            -17.420001
          ],
          [
            -66.13964,
            -17.419993
          ],
          [
            -66.139598,
            -17.419979
          ],
          [
            -66.139558,
            -17.419959
          ],
          [
            -66.139522,
            -17.419933
          ],
          [
            -66.13949,
            -17.419903
          ],
          [
            -66.139397,
            -17.419831
          ],
          [
            -66.139366,
            -17.419818
          ],
          [
            -66.139331,
            -17.419813
          ],
          [
            -66.139304,
            -17.419815
          ],
          [
            -66.139269,
            -17.419826
          ],
          [
            -66.139244,
            -17.419841
          ],
          [
            -66.138494,
            -17.420627
          ],
          [
            -66.138093,
            -17.421026
          ],
          [
            -66.138048,
            -17.420984
          ],
          [
            -66.137542,
            -17.420525
          ],
          [
            -66.137249,
            -17.420269
          ],
          [
            -66.136788,
            -17.419864
          ],
          [
            -66.13651,
            -17.419631
          ],
          [
            -66.136016,
            -17.419149
          ],
          [
            -66.135156,
            -17.420033
          ],
          [
            -66.134765,
            -17.420439
          ],
          [
            -66.134068,
            -17.421143
          ],
          [
            -66.133755,
            -17.421467
          ],
          [
            -66.133399,
            -17.421831
          ],
          [
            -66.133177,
            -17.422065
          ],
          [
            -66.133181,
            -17.422244
          ],
          [
            -66.132505,
            -17.422208
          ],
          [
            -66.132159,
            -17.422189
          ],
          [
            -66.131069,
            -17.422134
          ],
          [
            -66.130994,
            -17.422129
          ],
          [
            -66.129376,
            -17.422029
          ],
          [
            -66.127719,
            -17.42195
          ],
          [
            -66.127616,
            -17.421952
          ],
          [
            -66.127026,
            -17.421918
          ],
          [
            -66.126622,
            -17.421894
          ],
          [
            -66.125392,
            -17.421822
          ],
          [
            -66.124794,
            -17.421787
          ],
          [
            -66.123939,
            -17.421747
          ]
        ]
      }
    }
  ]
}