{
  "type": "FeatureCollection",
  "features": [
    {
      "type": "Feature",
      "properties": {
        "route_id": "11104667",
        "route_short_name": "L",
        "route_long_name": "MicroBus L: Ticti Norte \u2192 Sumunpaya"
      },
      "geometry": {
        "type": "LineString",
        "coordinates": [
          [
            -66.17137,
            -17.349419
          ],
          [
            -66.171425,
            -17.349508
          ],
          [
            -66.170844,
            -17.349898
          ],
          [
            -66.171241,
            -17.350655
          ],
          [
            -66.171797,
            -17.351744
          ],
          [
            -66.1716,
            -17.351851
          ],
          [
            -66.171975,
            -17.352494
          ],
          [
            -66.172459,
            -17.353359
          ],
          [
            -66.172973,
            -17.35423
          ],
          [
            -66.173443,
            -17.355115
          ],
          [
            -66.173478,
            -17.355179
          ],
          [
            -66.173947,
            -17.355987
          ],
          [
            -66.174426,
            -17.356864
          ],
          [
            -66.173993,
            -17.357094
          ],
          [
            -66.172747,
            -17.357754
          ],
          [
            -66.172901,
            -17.358055
          ],
          [
            -66.172544,
            -17.358255
          ],
          [
            -66.172419,
            -17.358336
          ],
          [
            -66.172232,
            -17.358612
          ],
          [
            -66.172175,
            -17.358713
          ],
          [
            -66.172155,
            -17.358772
          ],
          [
            -66.172133,
            -17.358845
          ],
          [
            -66.172133,
            -17.358907
          ],
          [
            -66.172143,
            -17.358953
          ],
          [
            -66.172183,
            -17.359106
          ],
          [
            -66.172194,
            -17.359144
          ],
          [
            -66.172228,
            -17.359256
          ],
          [
            -66.172264,
            -17.359344
          ],
          [
            -66.172317,
            -17.359501
          ],
          [
            -66.172503,
            -17.360114
          ],
          [
            -66.172738,
            -17.360877
          ],
          [
            -66.172757,
            -17.360941
          ],
          [
            -66.174055,
            -17.360344
          ],
          [
            -66.174246,
            -17.360727
          ],
          [
            -66.174294,
            -17.3608
          ],
          [
            -66.174361,
            -17.360862
          ],
          [
            -66.17447,
            -17.360933
          ],
          [
            -66.174545,
            -17.360972
          ],
          [
            -66.174847,
            -17.36115
          ],
          [
            -66.175618,
            -17.361585
          ],
          [
            -66.176391,
            -17.362039
          ],
          [
            -66.17606,
            -17.362552
          ],
          [
            -66.175471,
            -17.36352
          ],
          [
            -66.174952,
            -17.364341
          ],
          [
            -66.174848,
            -17.3645
          ],
          [
            -66.17491,
            -17.364607
          ],
          [
            -66.174947,
            -17.364672
          ],
          [
            -66.174976,
            -17.364722
          ],
          [
            -66.175023,
            -17.364836
          ],
          [
            -66.175047,
            -17.364961
          ],
          [
            -66.175136,
            -17.365442
          ],
          [
            -66.17516,
            -17.365542
          ],
          [
            -66.175171,
            -17.365663
          ],
          [
            -66.17546,
            -17.366581
          ],
          [
            -66.175486,
            -17.36666
          ],
          [
            -66.175518,
            -17.366767
          ],
          [
            -66.17559,
            -17.366996
          ],
          [
            -66.175781,
            -17.367601
          ],
          [
            -66.175815,
            -17.367722
          ],
          [
            -66.175819,
            -17.367826
          ],
          [
            -66.17579,
            -17.368357
          ],
          [
            -66.175786,
            -17.36842
          ],
          [
            -66.175746,
            -17.369089
          ],
          [
            -66.17574,
            -17.369187
          ],
          [
            -66.175737,
            -17.369256
          ],
          [
            -66.175725,
            -17.369695
          ],
          [
            -66.175728,
            -17.369741
          ],
          [
            -66.17573,
            -17.369786
          ],
          [
            -66.175737,
            -17.369963
          ],
          [
            -66.175776,
            -17.370922
          ],
          [
            -66.175806,
            -17.371521
          ],
          [
            -66.175805,
            -17.371612
          ],
          [
            -66.175805,
            -17.371707
          ],
          [
            -66.175804,
            -17.371783
          ],
          [
            -66.175799,
            -17.372526
          ],
          [
            -66.175849,
            -17.37344
          ],
          [
            -66.175852,
            -17.3735
          ],
          [
            -66.175883,
            -17.374179
          ],
          [
            -66.175884,
            -17.374239
          ],
          [
            -66.175902,
            -17.375127
          ],
          [
            -66.175947,
            -17.376478
          ],
          [
            -66.175958,
            -17.376573
          ],
          [
            -66.17602,
            -17.377159
          ],
          [
            -66.176096,
            -17.377876
          ],
          [
            -66.176,
            -17.377879
          ],
          [
            -66.175212,
            -17.377924
          ],
          [
            -66.17438,
            -17.377994
          ],
          [
            -66.173473,
            -17.378044
          ],
          [
            -66.173378,
            -17.378048
          ],
          [
            -66.172623,
            -17.378091
          ],
          [
            -66.17194,
            -17.378124
          ],
          [
            -66.171166,
            -17.378167
          ],
          [
            -66.170896,
            -17.378187
          ],
          [
            -66.17077,
            -17.378215
          ],
          [
            -66.170572,
            -17.378288
          ],
          [
            -66.17036,
            -17.37839
          ],
          [
            -66.170057,
            -17.378563
          ],
          [
            -66.169276,
            -17.378996
          ],
          [
            -66.169283,
            -17.379053
          ],
          [
            -66.169378,
            -17.379729
          ],
          [
            -66.169385,
            -17.379776
          ],
          [
            -66.169442,
            -17.380382
          ],
          [
            -66.169363,
            -17.380406
          ],
          [
            -66.168064,
            -17.380702
          ],
          [
            -66.167986,
            -17.380101
          ],
          [
            -66.167482,
            -17.380056
          ],
          [
            -66.167388,
            -17.38004
          ],
          [
            -66.166564,
            -17.37969
          ],
          [
            -66.165847,
            -17.37938
          ],
          [
            -66.165772,
            -17.379368
          ],
          [
            -66.165696,
            -17.37937
          ],
          [
            -66.165622,
            -17.37937
          ],
          [
            -66.16559,
            -17.379372
          ],
          [
            -66.165459,
            -17.379376
          ],
          [
            -66.165371,
            -17.379376
          ],
          [
            -66.165304,
            -17.379367
          ],
          [
            -66.165242,
            -17.37934
          ],
          [
            -66.165166,
            -17.379295
          ],
          [
            -66.16509,
            -17.379245
          ],
          [
            -66.165031,
            -17.379203
          ],
          [
            -66.164883,
            -17.379127
          ],
          [
            -66.164813,
            -17.3791
          ],
          [
            -66.16468,
            -17.379067
          ],
          [
            -66.164298,
            -17.378982
          ],
          [
            -66.163488,
            -17.378794
          ],
          [
            -66.16265,
            -17.378607
          ],
          [
            -66.16256,
            -17.378574
          ],
          [
            -66.16249,
            -17.378538
          ],
          [
            -66.16241,
            -17.378486
          ],
          [
            -66.162249,
            -17.378354
          ],
          [
            -66.16216,
            -17.378295
          ],
          [
            -66.162055,
            -17.378248
          ],
          [
            -66.161957,
            -17.378218
          ],
          [
            -66.161864,
            -17.378206
          ],
          [
            -66.161787,
            -17.378204
          ],
          [
            -66.161704,
            -17.378206
          ],
          [
            -66.161391,
            -17.378231
          ],
          [
            -66.161296,
            -17.378232
          ],
          [
            -66.161225,
            -17.378225
          ],
          [
            -66.16116,
            -17.378215
          ],
          [
            -66.161134,
            -17.378214
          ],
          [
            -66.161102,
            -17.378219
          ],
          [
            -66.161065,
            -17.378232
          ],
          [
            -66.161027,
            -17.378256
          ],
          [
            -66.160737,
            -17.379244
          ],
          [
            -66.160421,
            -17.380327
          ],
          [
            -66.160388,
            -17.380454
          ],
          [
            -66.160384,
            -17.380521
          ],
          [
            -66.160395,
            -17.380571
          ],
          [
            -66.160434,
            -17.380703
          ],
          [
            -66.160445,
            -17.380747
          ],
          [
            -66.160451,
            -17.380788
          ],
          [
            -66.160449,
            -17.380831
          ],
          [
            -66.160432,
            -17.380879
          ],
          [
            -66.160394,
            -17.380945
          ],
          [
            -66.160348,
            -17.381026
          ],
          [
            -66.160324,
            -17.381095
          ],
          [
            -66.160303,
            -17.381155
          ],
          [
            -66.160284,
            -17.381209
          ],
          [
            -66.160265,
            -17.381271
          ],
          [
            -66.160255,
            -17.381306
          ],
          [
            -66.160149,
            -17.381663
          ],
          [
            -66.160139,
            -17.381699
          ],
          [
            -66.160118,
            -17.381778
          ],
          [
            -66.160107,
            -17.381844
          ],
          [
            -66.1601,
            -17.381917
          ],
          [
            -66.160102,
            -17.382008
          ],
          [
            -66.160124,
            -17.382136
          ],
          [
            -66.160147,
            -17.382213
          ],
          [
            -66.160147,
            -17.382293
          ],
          [
            -66.160134,
            -17.382365
          ],
          [
            -66.160105,
            -17.382433
          ],
          [
            -66.160049,
            -17.382493
          ],
          [
            -66.159948,
            -17.382564
          ],
          [
            -66.159811,
            -17.382667
          ],
          [
            -66.159744,
            -17.382741
          ],
          [
            -66.1597,
            -17.382801
          ],
          [
            -66.159604,
            -17.382936
          ],
          [
            -66.159491,
            -17.383083
          ],
          [
            -66.159325,
            -17.383296
          ],
          [
            -66.159292,
            -17.383339
          ],
          [
            -66.159241,
            -17.383405
          ],
          [
            -66.15909,
            -17.383596
          ],
          [
            -66.158875,
            -17.383893
          ],
          [
            -66.158834,
            -17.383948
          ],
          [
            -66.158793,
            -17.384001
          ],
          [
            -66.158446,
            -17.38444
          ],
          [
            -66.158365,
            -17.384554
          ],
          [
            -66.158256,
            -17.384691
          ],
          [
            -66.158175,
            -17.384799
          ],
          [
            -66.158068,
            -17.38494
          ],
          [
            -66.158014,
            -17.385013
          ],
          [
            -66.157971,
            -17.385072
          ],
          [
            -66.157936,
            -17.385118
          ],
          [
            -66.157861,
            -17.385215
          ],
          [
            -66.157761,
            -17.385339
          ],
          [
            -66.157508,
            -17.385663
          ],
          [
            -66.156861,
            -17.38651
          ],
          [
            -66.156792,
            -17.386601
          ],
          [
            -66.156737,
            -17.386671
          ],
          [
            -66.156066,
            -17.387551
          ],
          [
            -66.156053,
            -17.387598
          ],
          [
            -66.15605,
            -17.387649
          ],
          [
            -66.156049,
            -17.387711
          ],
          [
            -66.156298,
            -17.387754
          ],
          [
            -66.156283,
            -17.387852
          ],
          [
            -66.156222,
            -17.388261
          ],
          [
            -66.156215,
            -17.388311
          ],
          [
            -66.156154,
            -17.388718
          ],
          [
            -66.156144,
            -17.388828
          ],
          [
            -66.155976,
            -17.389805
          ],
          [
            -66.155965,
            -17.389864
          ],
          [
            -66.155961,
            -17.389889
          ],
          [
            -66.155958,
            -17.389908
          ],
          [
            -66.155796,
            -17.390905
          ],
          [
            -66.155613,
            -17.391912
          ],
          [
            -66.155601,
            -17.391978
          ],
          [
            -66.155571,
            -17.392067
          ],
          [
            -66.15555,
            -17.392135
          ],
          [
            -66.15538,
            -17.393009
          ],
          [
            -66.155185,
            -17.394046
          ],
          [
            -66.15519,
            -17.394103
          ],
          [
            -66.155102,
            -17.394555
          ],
          [
            -66.155099,
            -17.394569
          ],
          [
            -66.155095,
            -17.394591
          ],
          [
            -66.155047,
            -17.394856
          ],
          [
            -66.155014,
            -17.395035
          ],
          [
            -66.155006,
            -17.395076
          ],
          [
            -66.154837,
            -17.39592
          ],
          [
            -66.15481,
            -17.396053
          ],
          [
            -66.154794,
            -17.396134
          ],
          [
            -66.15467,
            -17.396758
          ],
          [
            -66.15458,
            -17.397192
          ],
          [
            -66.154382,
            -17.398223
          ],
          [
            -66.154227,
            -17.399006
          ],
          [
            -66.154206,
            -17.399084
          ],
          [
            -66.154045,
            -17.399999
          ],
          [
            -66.15393,
            -17.400709
          ],
          [
            -66.153977,
            -17.401365
          ],
          [
            -66.154027,
            -17.402254
          ],
          [
            -66.154504,
            -17.402243
          ],
          [
            -66.154967,
            -17.402208
          ],
          [
            -66.155316,
            -17.402192
          ],
          [
            -66.155307,
            -17.401651
          ],
          [
            -66.155285,
            -17.401299
          ],
          [
            -66.155201,
            -17.400649
          ],
          [
            -66.155177,
            -17.40015
          ],
          [
            -66.155175,
            -17.400035
          ],
          [
            -66.155179,
            -17.39997
          ],
          [
            -66.155189,
            -17.399895
          ],
          [
            -66.155283,
            -17.399341
          ],
          [
            -66.155304,
            -17.399247
          ],
          [
            -66.155347,
            -17.39926
          ],
          [
            -66.156322,
            -17.399465
          ],
          [
            -66.156424,
            -17.399487
          ],
          [
            -66.156591,
            -17.399495
          ],
          [
            -66.156693,
            -17.399496
          ],
          [
            -66.156793,
            -17.39949
          ],
          [
            -66.157154,
            -17.39944
          ],
          [
            -66.157566,
            -17.399369
          ],
          [
            -66.157636,
            -17.399359
          ],
          [
            -66.157728,
            -17.399353
          ],
          [
            -66.157813,
            -17.399341
          ],
          [
            -66.158533,
            -17.399231
          ],
          [
            -66.158712,
            -17.399233
          ],
          [
            -66.159174,
            -17.399272
          ],
          [
            -66.159997,
            -17.399303
          ],
          [
            -66.160064,
            -17.399315
          ],
          [
            -66.160243,
            -17.399366
          ],
          [
            -66.160307,
            -17.399387
          ],
          [
            -66.160433,
            -17.399427
          ],
          [
            -66.161091,
            -17.399618
          ],
          [
            -66.161271,
            -17.39838
          ],
          [
            -66.161432,
            -17.397301
          ],
          [
            -66.16158,
            -17.396255
          ],
          [
            -66.161745,
            -17.395202
          ],
          [
            -66.161898,
            -17.394106
          ],
          [
            -66.162003,
            -17.393517
          ],
          [
            -66.162053,
            -17.39318
          ],
          [
            -66.162063,
            -17.393107
          ],
          [
            -66.163928,
            -17.393418
          ],
          [
            -66.164921,
            -17.393602
          ],
          [
            -66.165917,
            -17.393779
          ],
          [
            -66.166231,
            -17.39383
          ],
          [
            -66.166439,
            -17.393829
          ],
          [
            -66.16661,
            -17.393841
          ],
          [
            -66.166791,
            -17.393901
          ],
          [
            -66.166842,
            -17.393916
          ],
          [
            -66.166937,
            -17.393937
          ],
          [
            -66.167351,
            -17.393978
          ],
          [
            -66.167446,
            -17.393974
          ],
          [
            -66.167566,
            -17.393955
          ],
          [
            -66.167642,
            -17.393945
          ],
          [
            -66.167797,
            -17.393916
          ],
          [
            -66.167983,
            -17.393884
          ],
          [
            -66.168452,
            -17.39386
          ],
          [
            -66.168603,
            -17.393852
          ],
          [
            -66.168686,
            -17.393847
          ],
          [
            -66.16904,
            -17.393829
          ],
          [
            -66.170294,
            -17.393778
          ],
          [
            -66.170407,
            -17.393766
          ],
          [
            -66.170544,
            -17.393744
          ],
          [
            -66.170598,
            -17.393719
          ],
          [
            -66.170657,
            -17.393711
          ],
          [
            -66.170715,
            -17.393721
          ],
          [
            -66.170768,
            -17.393749
          ],
          [
            -66.170889,
            -17.393784
          ],
          [
            -66.17108,
            -17.393821
          ],
          [
            -66.171181,
            -17.393835
          ],
          [
            -66.17129,
            -17.393838
          ],
          [
            -66.173912,
            -17.39372
          ],
          [
            -66.174359,
            -17.393702
          ],
          [
            -66.174412,
            -17.3937
          ],
          [
            -66.176206,
            -17.39362
          ],
          [
            -66.176443,
            -17.39361
          ],
          [
            -66.176576,
            -17.393604
          ],
          [
            -66.176802,
            -17.393594
          ],
          [
            -66.177511,
            -17.393564
          ],
          [
            -66.178586,
            -17.393512
          ],
          [
            -66.179906,
            -17.393454
          ],
          [
            -66.179978,
            -17.393452
          ],
          [
            -66.180952,
            -17.393404
          ],
          [
            -66.181751,
            -17.393373
          ],
          [
            -66.182345,
            -17.393344
          ],
          [
            -66.1841,
            -17.393278
          ],
          [
            -66.184452,
            -17.39326
          ],
          [
            -66.186412,
            -17.393171
          ],
          [
            -66.186639,
            -17.393159
          ],
          [
            -66.187412,
            -17.393127
          ],
          [
            -66.188857,
            -17.393063
          ],
          [
            -66.189274,
            -17.393044
          ],
          [
            -66.191125,
            -17.392965
          ],
          [
            -66.192135,
            -17.39292
          ],
          [
            -66.193899,
            -17.392841
          ],
          [
            -66.194723,
            -17.392809
          ],
          [
            -66.19693,
            -17.392708
          ],
          [
            -66.197091,
            -17.392701
          ],
          [
            -66.198926,
            -17.392621
          ],
          [
            -66.199474,
            -17.392591
          ],
          [
            -66.199594,
            -17.392585
          ],
          [
            -66.199678,
            -17.39258
          ],
          [
            -66.199683,
            -17.39271
          ],
          [
            -66.199687,
            -17.392825
          ],
          [
            -66.199688,
            -17.392856
          ],
          [
            -66.199691,
            -17.392928
          ],
          [
            -66.199747,
            -17.393823
          ],
          [
            -66.199759,
            -17.394019
          ],
          [
            -66.199849,
            -17.39567
          ],
          [
            -66.19985,
            -17.395802
          ],
          [
            -66.199916,
            -17.396544
          ],
          [
            -66.199976,
            -17.397185
          ],
          [
            -66.201139,
            -17.397226
          ],
          [
            -66.201591,
            -17.397191
          ],
          [
            -66.201836,
            -17.39717
          ],
          [
            -66.203329,
            -17.397049
          ],
          [
            -66.203655,
            -17.397035
          ],
          [
            -66.20391,
            -17.397026
          ],
          [
            -66.204911,
            -17.396994
          ],
          [
            -66.205774,
            -17.39701
          ],
          [
            -66.206831,
            -17.397029
          ],
          [
            -66.208147,
            -17.397041
          ],
          [
            -66.208359,
            -17.397047
          ],
          [
            -66.208737,
            -17.397058
          ],
          [
            -66.209636,
            -17.397085
          ],
          [
            -66.21035,
            -17.397088
          ],
          [
            -66.212292,
            -17.397126
          ],
          [
            -66.213454,
            -17.397123
          ],
          [
            -66.214209,
            -17.3971
          ],
          [
            -66.214374,
            -17.397069
          ],
          [
            -66.214405,
            -17.397063
          ],
          [
            -66.214579,
            -17.39704
          ],
          [
            -66.215733,
            -17.397034
          ],
          [
            -66.217183,
            -17.397028
          ],
          [
            -66.218647,
            -17.396997
          ],
          [
            -66.219857,
            -17.396825
          ],
          [
            -66.221101,
            -17.39664
          ],
          [
            -66.221201,
            -17.396626
          ],
          [
            -66.221858,
            -17.39653
          ],
          [
            -66.222204,
            -17.396444
          ],
          [
            -66.22245,
            -17.39636
          ],
          [
            -66.222636,
            -17.396296
          ],
          [
            -66.223206,
            -17.39606
          ],
          [
            -66.2239,
            -17.395777
          ],
          [
            -66.224739,
            -17.395482
          ],
          [
            -66.225747,
            -17.395113
          ],
          [
            -66.226344,
            -17.394913
          ],
          [
            -66.22648,
            -17.394877
          ],
          [
            -66.227058,
            -17.394755
          ],
          [
            -66.227376,
            -17.394661
          ],
          [
            -66.228227,
            -17.394368
          ],
          [
            -66.22928,
            -17.39395
          ],
          [
            -66.230814,
            -17.393558
          ],
          [
            -66.231508,
            -17.393358
          ],
          [
            -66.231812,
            -17.393311
          ],
          [
            -66.232023,
            -17.393297
          ],
          [
            -66.232479,
            -17.393274
          ],
          [
            -66.233676,
            -17.393245
          ],
          [
            -66.235086,
            -17.39322
          ],
          [
            -66.235635,
            -17.39321
          ],
          [
            -66.236218,
            -17.393209
          ],
          [
            -66.236302,
            -17.393214
          ],
          [
            -66.237019,
            -17.393257
          ],
          [
            -66.237082,
            -17.393259
          ],
          [
            -66.2373,
            -17.39328
          ],
          [
            -66.237831,
            -17.39336
          ],
          [
            -66.238109,
            -17.393395
          ],
          [
            -66.238336,
            -17.393419
          ],
          [
            -66.239166,
            -17.393479
          ],
          [
            -66.239593,
            -17.393498
          ],
          [
            -66.239844,
            -17.393503
          ],
          [
            -66.241357,
            -17.393486
          ],
          [
            -66.241356,
            -17.393604
          ],
          [
            -66.241381,
            -17.394417
          ],
          [
            -66.24138,
            -17.396004
          ],
          [
            -66.241424,
            -17.397065
          ],
          [
            -66.240349,
            -17.397162
          ],
          [
            -66.239613,
            -17.397203
          ],
          [
            -66.23896,
            -17.397177
          ],
          [
            -66.238247,
            -17.397126
          ]
        ]
      }
    }
  ]
}