{
  "type": "FeatureCollection",
  "features": [
    {
      "type": "Feature",
      "properties": {
        "route_id": "5470046",
        "route_short_name": "LL",
        "route_long_name": "MicroBus LL: Charles Darwin \u2192 La Concordia"
      },
      "geometry": {
        "type": "LineString",
        "coordinates": [
          [
            -66.202339,
            -17.377579
          ],
          [
            -66.202331,
            -17.377339
          ],
          [
            -66.201521,
            -17.377512
          ],
          [
            -66.200682,
            -17.377704
          ],
          [
            -66.200675,
            -17.37799
          ],
          [
            -66.200675,
            -17.378059
          ],
          [
            -66.200676,
            -17.378117
          ],
          [
            -66.200675,
            -17.378175
          ],
          [
            -66.200676,
            -17.378797
          ],
          [
            -66.200724,
            -17.379413
          ],
          [
            -66.200716,
            -17.380024
          ],
          [
            -66.200779,
            -17.381049
          ],
          [
            -66.201125,
            -17.381026
          ],
          [
            -66.201135,
            -17.381161
          ],
          [
            -66.200308,
            -17.381253
          ],
          [
            -66.200024,
            -17.381277
          ],
          [
            -66.199002,
            -17.381388
          ],
          [
            -66.198896,
            -17.381399
          ],
          [
            -66.197175,
            -17.381599
          ],
          [
            -66.197022,
            -17.381643
          ],
          [
            -66.196493,
            -17.38171
          ],
          [
            -66.196265,
            -17.381719
          ],
          [
            -66.196216,
            -17.381719
          ],
          [
            -66.196187,
            -17.381724
          ],
          [
            -66.196156,
            -17.381719
          ],
          [
            -66.196101,
            -17.381712
          ],
          [
            -66.196053,
            -17.381705
          ],
          [
            -66.195959,
            -17.381703
          ],
          [
            -66.195274,
            -17.381745
          ],
          [
            -66.195158,
            -17.381754
          ],
          [
            -66.194876,
            -17.38177
          ],
          [
            -66.194783,
            -17.381781
          ],
          [
            -66.194654,
            -17.381815
          ],
          [
            -66.19456,
            -17.381858
          ],
          [
            -66.194491,
            -17.381896
          ],
          [
            -66.194447,
            -17.381751
          ],
          [
            -66.1944,
            -17.381209
          ],
          [
            -66.194375,
            -17.380806
          ],
          [
            -66.194329,
            -17.380231
          ],
          [
            -66.19431,
            -17.379994
          ],
          [
            -66.1943,
            -17.379886
          ],
          [
            -66.194233,
            -17.379155
          ],
          [
            -66.194825,
            -17.379109
          ],
          [
            -66.195212,
            -17.379082
          ],
          [
            -66.195971,
            -17.379038
          ],
          [
            -66.195894,
            -17.37792
          ],
          [
            -66.194736,
            -17.378008
          ],
          [
            -66.194137,
            -17.378054
          ],
          [
            -66.19354,
            -17.378096
          ],
          [
            -66.193379,
            -17.378109
          ],
          [
            -66.192635,
            -17.37814
          ],
          [
            -66.191826,
            -17.378208
          ],
          [
            -66.19091,
            -17.378285
          ],
          [
            -66.190773,
            -17.377796
          ],
          [
            -66.190687,
            -17.377491
          ],
          [
            -66.190665,
            -17.377419
          ],
          [
            -66.190641,
            -17.377327
          ],
          [
            -66.190445,
            -17.376665
          ],
          [
            -66.190071,
            -17.376893
          ],
          [
            -66.189876,
            -17.377048
          ],
          [
            -66.189262,
            -17.377484
          ],
          [
            -66.188747,
            -17.377948
          ],
          [
            -66.188654,
            -17.377996
          ],
          [
            -66.188122,
            -17.378249
          ],
          [
            -66.188082,
            -17.37809
          ],
          [
            -66.187193,
            -17.37818
          ],
          [
            -66.187095,
            -17.37819
          ],
          [
            -66.186362,
            -17.378264
          ],
          [
            -66.185689,
            -17.378361
          ],
          [
            -66.185718,
            -17.378516
          ],
          [
            -66.184666,
            -17.378612
          ],
          [
            -66.183634,
            -17.378691
          ],
          [
            -66.182485,
            -17.378766
          ],
          [
            -66.181485,
            -17.3788
          ],
          [
            -66.18119,
            -17.37885
          ],
          [
            -66.181112,
            -17.378857
          ],
          [
            -66.180936,
            -17.378875
          ],
          [
            -66.180747,
            -17.378885
          ],
          [
            -66.180752,
            -17.378961
          ],
          [
            -66.18078,
            -17.379401
          ],
          [
            -66.180784,
            -17.379467
          ],
          [
            -66.180238,
            -17.379485
          ],
          [
            -66.180184,
            -17.379487
          ],
          [
            -66.180137,
            -17.379488
          ],
          [
            -66.179443,
            -17.379508
          ],
          [
            -66.179374,
            -17.37951
          ],
          [
            -66.179415,
            -17.380678
          ],
          [
            -66.179417,
            -17.380732
          ],
          [
            -66.179418,
            -17.380797
          ],
          [
            -66.179433,
            -17.381462
          ],
          [
            -66.179434,
            -17.381519
          ],
          [
            -66.179437,
            -17.38157
          ],
          [
            -66.179471,
            -17.382774
          ],
          [
            -66.179472,
            -17.382805
          ],
          [
            -66.179467,
            -17.382858
          ],
          [
            -66.179457,
            -17.382887
          ],
          [
            -66.177994,
            -17.382487
          ],
          [
            -66.176819,
            -17.382131
          ],
          [
            -66.176576,
            -17.382058
          ],
          [
            -66.17646,
            -17.382033
          ],
          [
            -66.176216,
            -17.381976
          ],
          [
            -66.175982,
            -17.381949
          ],
          [
            -66.175799,
            -17.381944
          ],
          [
            -66.175609,
            -17.381959
          ],
          [
            -66.175397,
            -17.381999
          ],
          [
            -66.174747,
            -17.382168
          ],
          [
            -66.17416,
            -17.382328
          ],
          [
            -66.172792,
            -17.3827
          ],
          [
            -66.171665,
            -17.383001
          ],
          [
            -66.170625,
            -17.383288
          ],
          [
            -66.170029,
            -17.38345
          ],
          [
            -66.169963,
            -17.383475
          ],
          [
            -66.169901,
            -17.383498
          ],
          [
            -66.169826,
            -17.383523
          ],
          [
            -66.169823,
            -17.383532
          ],
          [
            -66.169786,
            -17.383566
          ],
          [
            -66.169754,
            -17.383586
          ],
          [
            -66.169708,
            -17.383601
          ],
          [
            -66.169654,
            -17.383605
          ],
          [
            -66.169603,
            -17.383591
          ],
          [
            -66.169594,
            -17.383584
          ],
          [
            -66.169493,
            -17.383539
          ],
          [
            -66.169358,
            -17.383476
          ],
          [
            -66.169268,
            -17.383445
          ],
          [
            -66.169066,
            -17.383369
          ],
          [
            -66.167861,
            -17.382967
          ],
          [
            -66.16674,
            -17.38257
          ],
          [
            -66.166658,
            -17.382545
          ],
          [
            -66.16658,
            -17.382528
          ],
          [
            -66.166531,
            -17.382517
          ],
          [
            -66.166454,
            -17.382508
          ],
          [
            -66.166352,
            -17.382505
          ],
          [
            -66.166312,
            -17.382506
          ],
          [
            -66.166162,
            -17.382524
          ],
          [
            -66.166099,
            -17.382534
          ],
          [
            -66.166023,
            -17.382552
          ],
          [
            -66.165925,
            -17.382579
          ],
          [
            -66.16576,
            -17.38266
          ],
          [
            -66.165149,
            -17.38301
          ],
          [
            -66.165106,
            -17.383035
          ],
          [
            -66.165057,
            -17.383064
          ],
          [
            -66.165002,
            -17.383095
          ],
          [
            -66.164482,
            -17.383407
          ],
          [
            -66.164098,
            -17.383611
          ],
          [
            -66.164037,
            -17.383642
          ],
          [
            -66.16406,
            -17.383669
          ],
          [
            -66.164387,
            -17.384104
          ],
          [
            -66.164664,
            -17.384518
          ],
          [
            -66.164902,
            -17.384927
          ],
          [
            -66.165078,
            -17.38524
          ],
          [
            -66.165107,
            -17.385299
          ],
          [
            -66.165339,
            -17.385713
          ],
          [
            -66.165488,
            -17.386028
          ],
          [
            -66.165626,
            -17.386232
          ],
          [
            -66.165879,
            -17.386838
          ],
          [
            -66.165964,
            -17.387044
          ],
          [
            -66.165993,
            -17.387092
          ],
          [
            -66.166014,
            -17.387143
          ],
          [
            -66.166023,
            -17.387194
          ],
          [
            -66.166027,
            -17.387247
          ],
          [
            -66.166079,
            -17.387391
          ],
          [
            -66.166242,
            -17.38788
          ],
          [
            -66.166243,
            -17.388063
          ],
          [
            -66.166455,
            -17.388799
          ],
          [
            -66.166666,
            -17.389637
          ],
          [
            -66.166871,
            -17.390637
          ],
          [
            -66.166879,
            -17.390676
          ],
          [
            -66.166901,
            -17.390813
          ],
          [
            -66.167099,
            -17.391862
          ],
          [
            -66.167263,
            -17.392695
          ],
          [
            -66.167322,
            -17.393043
          ],
          [
            -66.167343,
            -17.39314
          ],
          [
            -66.167429,
            -17.393357
          ],
          [
            -66.16748,
            -17.393478
          ],
          [
            -66.167537,
            -17.393611
          ],
          [
            -66.167563,
            -17.393682
          ],
          [
            -66.1676,
            -17.393746
          ],
          [
            -66.167669,
            -17.393822
          ],
          [
            -66.16772,
            -17.393856
          ],
          [
            -66.167756,
            -17.39387
          ],
          [
            -66.167817,
            -17.39388
          ],
          [
            -66.167983,
            -17.393884
          ],
          [
            -66.168042,
            -17.393903
          ],
          [
            -66.16808,
            -17.393933
          ],
          [
            -66.168103,
            -17.39398
          ],
          [
            -66.168104,
            -17.394057
          ],
          [
            -66.168083,
            -17.39411
          ],
          [
            -66.168049,
            -17.394142
          ],
          [
            -66.167998,
            -17.394167
          ],
          [
            -66.167899,
            -17.394168
          ],
          [
            -66.167805,
            -17.394157
          ],
          [
            -66.16771,
            -17.394146
          ],
          [
            -66.167603,
            -17.394136
          ],
          [
            -66.167473,
            -17.394122
          ],
          [
            -66.167376,
            -17.394114
          ],
          [
            -66.166963,
            -17.394065
          ],
          [
            -66.166698,
            -17.394038
          ],
          [
            -66.166609,
            -17.394026
          ],
          [
            -66.166515,
            -17.394005
          ],
          [
            -66.166338,
            -17.393931
          ],
          [
            -66.166273,
            -17.393911
          ],
          [
            -66.166192,
            -17.393894
          ],
          [
            -66.165909,
            -17.393848
          ],
          [
            -66.164906,
            -17.39367
          ],
          [
            -66.163915,
            -17.393489
          ],
          [
            -66.162053,
            -17.39318
          ],
          [
            -66.161979,
            -17.393167
          ],
          [
            -66.161115,
            -17.393017
          ],
          [
            -66.161047,
            -17.393009
          ],
          [
            -66.160979,
            -17.393
          ],
          [
            -66.159961,
            -17.392837
          ],
          [
            -66.159906,
            -17.392828
          ],
          [
            -66.159866,
            -17.392822
          ],
          [
            -66.159825,
            -17.392815
          ],
          [
            -66.159037,
            -17.392679
          ],
          [
            -66.158924,
            -17.392658
          ],
          [
            -66.158862,
            -17.392647
          ],
          [
            -66.15877,
            -17.392632
          ],
          [
            -66.15869,
            -17.392617
          ],
          [
            -66.158366,
            -17.392559
          ],
          [
            -66.15829,
            -17.392545
          ],
          [
            -66.157782,
            -17.39246
          ],
          [
            -66.157737,
            -17.392451
          ],
          [
            -66.157684,
            -17.392442
          ],
          [
            -66.157305,
            -17.392376
          ],
          [
            -66.156712,
            -17.392274
          ],
          [
            -66.156656,
            -17.392263
          ],
          [
            -66.156614,
            -17.392256
          ],
          [
            -66.156188,
            -17.392183
          ],
          [
            -66.156156,
            -17.392177
          ],
          [
            -66.155647,
            -17.392082
          ],
          [
            -66.155571,
            -17.392067
          ],
          [
            -66.15552,
            -17.392057
          ],
          [
            -66.154582,
            -17.391891
          ],
          [
            -66.1545,
            -17.391876
          ],
          [
            -66.154438,
            -17.391864
          ],
          [
            -66.154032,
            -17.391794
          ],
          [
            -66.15365,
            -17.391724
          ],
          [
            -66.153404,
            -17.39168
          ],
          [
            -66.153354,
            -17.391672
          ],
          [
            -66.153347,
            -17.391727
          ],
          [
            -66.153198,
            -17.392624
          ],
          [
            -66.153,
            -17.393664
          ],
          [
            -66.152808,
            -17.394698
          ],
          [
            -66.152617,
            -17.395754
          ],
          [
            -66.152423,
            -17.396818
          ],
          [
            -66.152249,
            -17.397788
          ],
          [
            -66.152243,
            -17.397898
          ],
          [
            -66.152249,
            -17.398145
          ],
          [
            -66.152228,
            -17.398381
          ],
          [
            -66.152219,
            -17.398466
          ],
          [
            -66.152219,
            -17.398546
          ],
          [
            -66.152191,
            -17.398799
          ],
          [
            -66.152165,
            -17.399158
          ],
          [
            -66.152148,
            -17.399257
          ],
          [
            -66.152152,
            -17.399909
          ],
          [
            -66.152196,
            -17.401461
          ],
          [
            -66.151274,
            -17.40147
          ],
          [
            -66.151186,
            -17.401446
          ],
          [
            -66.15122,
            -17.401284
          ],
          [
            -66.151222,
            -17.401146
          ],
          [
            -66.151208,
            -17.401011
          ],
          [
            -66.151194,
            -17.400919
          ],
          [
            -66.15116,
            -17.400784
          ],
          [
            -66.151108,
            -17.400672
          ],
          [
            -66.151067,
            -17.400598
          ],
          [
            -66.151,
            -17.400493
          ],
          [
            -66.150916,
            -17.400394
          ],
          [
            -66.150843,
            -17.400317
          ],
          [
            -66.150702,
            -17.400191
          ],
          [
            -66.150598,
            -17.40012
          ],
          [
            -66.150511,
            -17.400071
          ],
          [
            -66.150393,
            -17.400027
          ],
          [
            -66.150272,
            -17.399991
          ],
          [
            -66.150116,
            -17.399965
          ],
          [
            -66.149822,
            -17.399953
          ],
          [
            -66.148299,
            -17.399918
          ],
          [
            -66.148205,
            -17.399907
          ],
          [
            -66.148074,
            -17.39986
          ],
          [
            -66.147193,
            -17.399734
          ],
          [
            -66.147129,
            -17.399727
          ],
          [
            -66.14708,
            -17.39972
          ],
          [
            -66.14678,
            -17.399681
          ],
          [
            -66.146342,
            -17.399625
          ],
          [
            -66.146322,
            -17.399622
          ],
          [
            -66.146259,
            -17.399614
          ],
          [
            -66.146137,
            -17.399597
          ],
          [
            -66.14609,
            -17.39959
          ],
          [
            -66.145795,
            -17.399548
          ],
          [
            -66.145575,
            -17.399516
          ],
          [
            -66.144511,
            -17.399374
          ],
          [
            -66.143966,
            -17.399299
          ],
          [
            -66.143166,
            -17.39919
          ],
          [
            -66.142426,
            -17.399085
          ],
          [
            -66.141921,
            -17.399019
          ],
          [
            -66.141164,
            -17.398916
          ],
          [
            -66.140552,
            -17.39883
          ],
          [
            -66.139626,
            -17.398694
          ],
          [
            -66.138526,
            -17.398544
          ],
          [
            -66.137717,
            -17.398426
          ],
          [
            -66.137561,
            -17.398403
          ],
          [
            -66.137429,
            -17.398384
          ],
          [
            -66.136615,
            -17.398266
          ],
          [
            -66.136483,
            -17.398271
          ],
          [
            -66.136405,
            -17.398277
          ],
          [
            -66.136309,
            -17.398296
          ],
          [
            -66.136235,
            -17.398323
          ],
          [
            -66.136172,
            -17.39836
          ],
          [
            -66.136018,
            -17.398466
          ],
          [
            -66.13597,
            -17.398498
          ],
          [
            -66.1359,
            -17.398541
          ],
          [
            -66.135857,
            -17.398573
          ],
          [
            -66.135796,
            -17.398591
          ],
          [
            -66.135736,
            -17.398582
          ],
          [
            -66.135685,
            -17.398562
          ],
          [
            -66.135641,
            -17.398523
          ],
          [
            -66.13562,
            -17.39848
          ],
          [
            -66.135615,
            -17.398441
          ],
          [
            -66.135625,
            -17.39835
          ],
          [
            -66.135646,
            -17.398302
          ],
          [
            -66.135667,
            -17.398166
          ],
          [
            -66.135693,
            -17.398012
          ],
          [
            -66.135719,
            -17.397734
          ],
          [
            -66.135733,
            -17.397429
          ],
          [
            -66.135736,
            -17.397368
          ],
          [
            -66.135749,
            -17.397251
          ],
          [
            -66.135772,
            -17.39714
          ],
          [
            -66.136152,
            -17.395729
          ],
          [
            -66.136402,
            -17.394813
          ],
          [
            -66.136448,
            -17.394642
          ],
          [
            -66.136832,
            -17.393209
          ],
          [
            -66.136865,
            -17.393091
          ],
          [
            -66.13687,
            -17.393072
          ],
          [
            -66.136919,
            -17.392895
          ],
          [
            -66.136845,
            -17.392757
          ],
          [
            -66.136775,
            -17.392595
          ],
          [
            -66.136595,
            -17.392323
          ],
          [
            -66.13638,
            -17.392002
          ],
          [
            -66.136198,
            -17.391693
          ],
          [
            -66.136099,
            -17.391412
          ],
          [
            -66.136068,
            -17.391336
          ],
          [
            -66.135939,
            -17.390753
          ],
          [
            -66.135832,
            -17.390614
          ],
          [
            -66.135706,
            -17.390417
          ],
          [
            -66.135652,
            -17.390346
          ],
          [
            -66.136041,
            -17.390467
          ]
        ]
      }
    }
  ]
}