{
  "type": "FeatureCollection",
  "features": [
    {
      "type": "Feature",
      "properties": {
        "route_id": "9321521",
        "route_short_name": "M",
        "route_long_name": "MicroBus M: Calle Jose Curtinas \u2192 Calle Pozo Petrolero Buena Vista"
      },
      "geometry": {
        "type": "LineString",
        "coordinates": [
          [
            -66.127296,
            -17.364089
          ],
          [
            -66.127462,
            -17.364152
          ],
          [
            -66.127818,
            -17.364273
          ],
          [
            -66.127923,
            -17.364312
          ],
          [
            -66.128358,
            -17.364441
          ],
          [
            -66.128445,
            -17.364446
          ],
          [
            -66.128638,
            -17.364445
          ],
          [
            -66.128806,
            -17.364466
          ],
          [
            -66.129036,
            -17.364493
          ],
          [
            -66.129317,
            -17.3645
          ],
          [
            -66.129403,
            -17.36449
          ],
          [
            -66.12999,
            -17.364381
          ],
          [
            -66.130598,
            -17.364261
          ],
          [
            -66.131095,
            -17.364162
          ],
          [
            -66.131428,
            -17.364097
          ],
          [
            -66.131576,
            -17.36463
          ],
          [
            -66.131687,
            -17.364735
          ],
          [
            -66.131754,
            -17.364697
          ],
          [
            -66.132182,
            -17.36461
          ],
          [
            -66.132703,
            -17.364519
          ],
          [
            -66.132723,
            -17.364594
          ],
          [
            -66.132735,
            -17.364646
          ],
          [
            -66.132853,
            -17.365171
          ],
          [
            -66.132855,
            -17.365192
          ],
          [
            -66.132843,
            -17.365223
          ],
          [
            -66.132827,
            -17.36525
          ],
          [
            -66.132803,
            -17.365265
          ],
          [
            -66.132676,
            -17.3653
          ],
          [
            -66.13293,
            -17.3657
          ],
          [
            -66.133159,
            -17.36607
          ],
          [
            -66.133492,
            -17.366601
          ],
          [
            -66.13383,
            -17.367128
          ],
          [
            -66.134004,
            -17.36702
          ],
          [
            -66.134692,
            -17.366593
          ],
          [
            -66.134782,
            -17.366549
          ],
          [
            -66.134853,
            -17.366527
          ],
          [
            -66.134925,
            -17.366571
          ],
          [
            -66.135122,
            -17.366891
          ],
          [
            -66.135222,
            -17.366993
          ],
          [
            -66.135354,
            -17.367172
          ],
          [
            -66.135666,
            -17.367706
          ],
          [
            -66.135827,
            -17.36762
          ],
          [
            -66.136223,
            -17.367463
          ],
          [
            -66.1368,
            -17.367239
          ],
          [
            -66.137075,
            -17.367802
          ],
          [
            -66.13713,
            -17.367936
          ],
          [
            -66.137176,
            -17.368058
          ],
          [
            -66.137213,
            -17.368207
          ],
          [
            -66.137276,
            -17.368464
          ],
          [
            -66.137417,
            -17.368475
          ],
          [
            -66.137467,
            -17.368474
          ],
          [
            -66.138233,
            -17.368481
          ],
          [
            -66.138302,
            -17.368716
          ],
          [
            -66.138462,
            -17.369275
          ],
          [
            -66.138541,
            -17.36952
          ],
          [
            -66.139384,
            -17.369311
          ],
          [
            -66.139498,
            -17.369609
          ],
          [
            -66.139731,
            -17.370263
          ],
          [
            -66.140147,
            -17.37139
          ],
          [
            -66.140292,
            -17.371331
          ],
          [
            -66.140818,
            -17.371033
          ],
          [
            -66.140921,
            -17.370974
          ],
          [
            -66.141637,
            -17.3705
          ],
          [
            -66.14211,
            -17.370178
          ],
          [
            -66.142206,
            -17.370119
          ],
          [
            -66.142255,
            -17.370115
          ],
          [
            -66.142305,
            -17.370126
          ],
          [
            -66.142329,
            -17.370143
          ],
          [
            -66.142345,
            -17.370166
          ],
          [
            -66.142374,
            -17.370205
          ],
          [
            -66.142382,
            -17.370258
          ],
          [
            -66.142376,
            -17.370319
          ],
          [
            -66.142366,
            -17.370434
          ],
          [
            -66.142361,
            -17.370468
          ],
          [
            -66.142351,
            -17.370561
          ],
          [
            -66.142344,
            -17.370693
          ],
          [
            -66.142348,
            -17.37079
          ],
          [
            -66.142578,
            -17.371781
          ],
          [
            -66.142608,
            -17.371923
          ],
          [
            -66.142636,
            -17.37205
          ],
          [
            -66.142748,
            -17.372561
          ],
          [
            -66.142895,
            -17.373188
          ],
          [
            -66.142944,
            -17.373306
          ],
          [
            -66.142993,
            -17.373378
          ],
          [
            -66.143066,
            -17.37344
          ],
          [
            -66.143124,
            -17.373468
          ],
          [
            -66.143211,
            -17.373542
          ],
          [
            -66.143255,
            -17.373608
          ],
          [
            -66.143281,
            -17.373681
          ],
          [
            -66.143288,
            -17.373721
          ],
          [
            -66.143289,
            -17.373761
          ],
          [
            -66.143285,
            -17.373845
          ],
          [
            -66.143259,
            -17.373917
          ],
          [
            -66.143203,
            -17.373994
          ],
          [
            -66.14312,
            -17.374053
          ],
          [
            -66.143019,
            -17.37409
          ],
          [
            -66.142987,
            -17.37412
          ],
          [
            -66.142946,
            -17.374187
          ],
          [
            -66.142923,
            -17.374249
          ],
          [
            -66.142826,
            -17.374871
          ],
          [
            -66.142813,
            -17.374963
          ],
          [
            -66.142801,
            -17.375036
          ],
          [
            -66.142753,
            -17.375341
          ],
          [
            -66.142684,
            -17.375775
          ],
          [
            -66.142674,
            -17.37584
          ],
          [
            -66.142619,
            -17.376235
          ],
          [
            -66.142601,
            -17.376365
          ],
          [
            -66.142619,
            -17.376475
          ],
          [
            -66.142631,
            -17.37653
          ],
          [
            -66.142645,
            -17.376578
          ],
          [
            -66.142668,
            -17.376629
          ],
          [
            -66.142701,
            -17.376684
          ],
          [
            -66.142734,
            -17.376729
          ],
          [
            -66.142777,
            -17.376771
          ],
          [
            -66.142829,
            -17.376809
          ],
          [
            -66.142891,
            -17.376841
          ],
          [
            -66.142951,
            -17.376862
          ],
          [
            -66.143401,
            -17.376976
          ],
          [
            -66.14382,
            -17.37708
          ],
          [
            -66.143886,
            -17.377132
          ],
          [
            -66.144627,
            -17.377302
          ],
          [
            -66.144855,
            -17.37736
          ],
          [
            -66.145195,
            -17.377442
          ],
          [
            -66.145655,
            -17.377561
          ],
          [
            -66.146085,
            -17.377669
          ],
          [
            -66.146656,
            -17.377809
          ],
          [
            -66.146878,
            -17.377864
          ],
          [
            -66.146947,
            -17.377879
          ],
          [
            -66.147991,
            -17.378135
          ],
          [
            -66.148809,
            -17.378331
          ],
          [
            -66.149503,
            -17.378503
          ],
          [
            -66.149589,
            -17.378512
          ],
          [
            -66.149647,
            -17.378512
          ],
          [
            -66.149697,
            -17.378512
          ],
          [
            -66.14972,
            -17.378512
          ],
          [
            -66.149744,
            -17.378519
          ],
          [
            -66.14979,
            -17.378538
          ],
          [
            -66.149875,
            -17.378582
          ],
          [
            -66.149937,
            -17.378604
          ],
          [
            -66.150688,
            -17.378787
          ],
          [
            -66.151032,
            -17.378871
          ],
          [
            -66.151273,
            -17.378898
          ],
          [
            -66.151987,
            -17.379063
          ],
          [
            -66.152033,
            -17.379059
          ],
          [
            -66.152059,
            -17.37905
          ],
          [
            -66.152088,
            -17.379032
          ],
          [
            -66.152115,
            -17.378999
          ],
          [
            -66.152129,
            -17.378966
          ],
          [
            -66.15212,
            -17.378807
          ],
          [
            -66.152116,
            -17.378747
          ],
          [
            -66.152108,
            -17.378594
          ],
          [
            -66.152093,
            -17.378567
          ],
          [
            -66.152073,
            -17.378543
          ],
          [
            -66.152047,
            -17.378516
          ],
          [
            -66.152011,
            -17.378482
          ],
          [
            -66.151981,
            -17.378446
          ],
          [
            -66.151962,
            -17.378416
          ],
          [
            -66.151949,
            -17.378359
          ],
          [
            -66.151954,
            -17.378315
          ],
          [
            -66.151976,
            -17.378265
          ],
          [
            -66.152012,
            -17.378223
          ],
          [
            -66.152059,
            -17.378195
          ],
          [
            -66.152113,
            -17.378183
          ],
          [
            -66.152168,
            -17.378188
          ],
          [
            -66.152219,
            -17.37821
          ],
          [
            -66.152239,
            -17.378228
          ],
          [
            -66.15226,
            -17.378246
          ],
          [
            -66.152288,
            -17.378287
          ],
          [
            -66.152298,
            -17.378332
          ],
          [
            -66.1523,
            -17.378364
          ],
          [
            -66.152293,
            -17.378408
          ],
          [
            -66.152276,
            -17.378449
          ],
          [
            -66.152244,
            -17.378484
          ],
          [
            -66.152213,
            -17.378509
          ],
          [
            -66.15219,
            -17.37854
          ],
          [
            -66.152175,
            -17.378572
          ],
          [
            -66.152172,
            -17.378595
          ],
          [
            -66.152199,
            -17.379012
          ],
          [
            -66.152204,
            -17.379136
          ],
          [
            -66.152202,
            -17.379194
          ],
          [
            -66.152196,
            -17.379247
          ],
          [
            -66.152183,
            -17.379301
          ],
          [
            -66.152179,
            -17.379319
          ],
          [
            -66.152085,
            -17.379685
          ],
          [
            -66.152079,
            -17.379733
          ],
          [
            -66.152089,
            -17.37981
          ],
          [
            -66.152114,
            -17.379856
          ],
          [
            -66.152124,
            -17.379876
          ],
          [
            -66.152151,
            -17.379925
          ],
          [
            -66.152169,
            -17.379999
          ],
          [
            -66.152162,
            -17.380073
          ],
          [
            -66.15213,
            -17.380141
          ],
          [
            -66.152108,
            -17.380164
          ],
          [
            -66.152078,
            -17.380214
          ],
          [
            -66.152064,
            -17.380274
          ],
          [
            -66.152052,
            -17.380344
          ],
          [
            -66.152031,
            -17.380509
          ],
          [
            -66.151996,
            -17.380838
          ],
          [
            -66.151982,
            -17.380946
          ],
          [
            -66.151972,
            -17.381013
          ],
          [
            -66.151901,
            -17.381562
          ],
          [
            -66.151909,
            -17.381602
          ],
          [
            -66.151933,
            -17.381645
          ],
          [
            -66.151984,
            -17.381693
          ],
          [
            -66.15206,
            -17.38173
          ],
          [
            -66.152137,
            -17.381778
          ],
          [
            -66.152201,
            -17.381831
          ],
          [
            -66.152264,
            -17.381916
          ],
          [
            -66.152321,
            -17.382016
          ],
          [
            -66.152348,
            -17.382123
          ],
          [
            -66.152349,
            -17.382197
          ],
          [
            -66.152345,
            -17.382272
          ],
          [
            -66.152341,
            -17.382301
          ],
          [
            -66.15232,
            -17.382389
          ],
          [
            -66.152285,
            -17.382461
          ],
          [
            -66.152237,
            -17.382533
          ],
          [
            -66.152167,
            -17.382611
          ],
          [
            -66.152169,
            -17.382675
          ],
          [
            -66.152169,
            -17.382734
          ],
          [
            -66.152178,
            -17.382822
          ],
          [
            -66.152634,
            -17.383527
          ],
          [
            -66.152672,
            -17.383585
          ],
          [
            -66.152714,
            -17.383652
          ],
          [
            -66.153053,
            -17.384188
          ],
          [
            -66.153099,
            -17.384251
          ],
          [
            -66.153182,
            -17.384232
          ],
          [
            -66.153277,
            -17.384242
          ],
          [
            -66.153371,
            -17.384286
          ],
          [
            -66.153446,
            -17.384348
          ],
          [
            -66.153507,
            -17.384422
          ],
          [
            -66.153538,
            -17.384483
          ],
          [
            -66.153567,
            -17.384564
          ],
          [
            -66.153583,
            -17.384625
          ],
          [
            -66.153589,
            -17.384672
          ],
          [
            -66.153589,
            -17.384744
          ],
          [
            -66.153564,
            -17.384826
          ],
          [
            -66.153522,
            -17.384869
          ],
          [
            -66.153448,
            -17.384886
          ],
          [
            -66.153342,
            -17.384869
          ],
          [
            -66.153285,
            -17.384847
          ],
          [
            -66.153238,
            -17.384822
          ],
          [
            -66.153168,
            -17.384904
          ],
          [
            -66.152695,
            -17.385507
          ],
          [
            -66.152326,
            -17.386038
          ],
          [
            -66.152238,
            -17.386161
          ],
          [
            -66.152197,
            -17.386215
          ],
          [
            -66.152147,
            -17.386272
          ],
          [
            -66.152079,
            -17.386348
          ],
          [
            -66.151989,
            -17.386798
          ],
          [
            -66.151781,
            -17.387869
          ],
          [
            -66.151771,
            -17.387925
          ],
          [
            -66.15176,
            -17.388
          ],
          [
            -66.151611,
            -17.388925
          ],
          [
            -66.151604,
            -17.388963
          ],
          [
            -66.1516,
            -17.388988
          ],
          [
            -66.151594,
            -17.389029
          ],
          [
            -66.151417,
            -17.390035
          ],
          [
            -66.151233,
            -17.391123
          ],
          [
            -66.151221,
            -17.391186
          ],
          [
            -66.151208,
            -17.391273
          ],
          [
            -66.151198,
            -17.391337
          ],
          [
            -66.151126,
            -17.391729
          ],
          [
            -66.15104,
            -17.392193
          ],
          [
            -66.151028,
            -17.392245
          ],
          [
            -66.151021,
            -17.392284
          ],
          [
            -66.150842,
            -17.393227
          ],
          [
            -66.150832,
            -17.393279
          ],
          [
            -66.150822,
            -17.393334
          ],
          [
            -66.15064,
            -17.394328
          ],
          [
            -66.150442,
            -17.395355
          ],
          [
            -66.150386,
            -17.395644
          ],
          [
            -66.150236,
            -17.396417
          ],
          [
            -66.15131,
            -17.396615
          ],
          [
            -66.151896,
            -17.396722
          ],
          [
            -66.152423,
            -17.396818
          ],
          [
            -66.153532,
            -17.397006
          ],
          [
            -66.15458,
            -17.397192
          ],
          [
            -66.155693,
            -17.397366
          ],
          [
            -66.15678,
            -17.397562
          ],
          [
            -66.15658,
            -17.398655
          ],
          [
            -66.156424,
            -17.399487
          ],
          [
            -66.156402,
            -17.399592
          ],
          [
            -66.156219,
            -17.400783
          ],
          [
            -66.156116,
            -17.401314
          ],
          [
            -66.155948,
            -17.402196
          ],
          [
            -66.156667,
            -17.402209
          ],
          [
            -66.156736,
            -17.400874
          ],
          [
            -66.157393,
            -17.400959
          ],
          [
            -66.157479,
            -17.40097
          ],
          [
            -66.15759,
            -17.400982
          ],
          [
            -66.157572,
            -17.401163
          ],
          [
            -66.157533,
            -17.401542
          ],
          [
            -66.157493,
            -17.401979
          ],
          [
            -66.157476,
            -17.40212
          ],
          [
            -66.15746,
            -17.40225
          ],
          [
            -66.157367,
            -17.402927
          ],
          [
            -66.15729,
            -17.403424
          ],
          [
            -66.157198,
            -17.403985
          ],
          [
            -66.157174,
            -17.404029
          ],
          [
            -66.157149,
            -17.404081
          ],
          [
            -66.156975,
            -17.405144
          ],
          [
            -66.156929,
            -17.405396
          ],
          [
            -66.156715,
            -17.406568
          ],
          [
            -66.156675,
            -17.406831
          ],
          [
            -66.156608,
            -17.407373
          ],
          [
            -66.156579,
            -17.407596
          ],
          [
            -66.156564,
            -17.407672
          ],
          [
            -66.156552,
            -17.407749
          ],
          [
            -66.156392,
            -17.408892
          ],
          [
            -66.1563,
            -17.409309
          ],
          [
            -66.156253,
            -17.409537
          ],
          [
            -66.156149,
            -17.410116
          ],
          [
            -66.156103,
            -17.410409
          ],
          [
            -66.156079,
            -17.410653
          ],
          [
            -66.15606,
            -17.410819
          ],
          [
            -66.156047,
            -17.410917
          ],
          [
            -66.156056,
            -17.41103
          ],
          [
            -66.156067,
            -17.4111
          ],
          [
            -66.156098,
            -17.411222
          ],
          [
            -66.156306,
            -17.411877
          ],
          [
            -66.156356,
            -17.412078
          ],
          [
            -66.156398,
            -17.412262
          ],
          [
            -66.156401,
            -17.412427
          ],
          [
            -66.15652,
            -17.413072
          ],
          [
            -66.156659,
            -17.413832
          ],
          [
            -66.156789,
            -17.414592
          ],
          [
            -66.156829,
            -17.414708
          ],
          [
            -66.156992,
            -17.415539
          ],
          [
            -66.157009,
            -17.415627
          ],
          [
            -66.157023,
            -17.41571
          ],
          [
            -66.157197,
            -17.416571
          ],
          [
            -66.157207,
            -17.416628
          ],
          [
            -66.157223,
            -17.416711
          ],
          [
            -66.15737,
            -17.417621
          ],
          [
            -66.157533,
            -17.41871
          ],
          [
            -66.157607,
            -17.419193
          ],
          [
            -66.157692,
            -17.419748
          ],
          [
            -66.157757,
            -17.420172
          ],
          [
            -66.157766,
            -17.420231
          ],
          [
            -66.157808,
            -17.420502
          ],
          [
            -66.157878,
            -17.420959
          ],
          [
            -66.15791,
            -17.421167
          ],
          [
            -66.157981,
            -17.421644
          ],
          [
            -66.157997,
            -17.421777
          ],
          [
            -66.158148,
            -17.422665
          ],
          [
            -66.158168,
            -17.422791
          ],
          [
            -66.158291,
            -17.423584
          ],
          [
            -66.158488,
            -17.424531
          ],
          [
            -66.158738,
            -17.425724
          ],
          [
            -66.158753,
            -17.425782
          ],
          [
            -66.159078,
            -17.426985
          ],
          [
            -66.159217,
            -17.427518
          ],
          [
            -66.159255,
            -17.427654
          ],
          [
            -66.159317,
            -17.427875
          ],
          [
            -66.159443,
            -17.428333
          ],
          [
            -66.159735,
            -17.429338
          ],
          [
            -66.159762,
            -17.42942
          ],
          [
            -66.160211,
            -17.430958
          ],
          [
            -66.16027,
            -17.431169
          ],
          [
            -66.160668,
            -17.43255
          ],
          [
            -66.160913,
            -17.433402
          ],
          [
            -66.162012,
            -17.433223
          ],
          [
            -66.162093,
            -17.433212
          ],
          [
            -66.162075,
            -17.433745
          ],
          [
            -66.1621,
            -17.433817
          ],
          [
            -66.162135,
            -17.433864
          ],
          [
            -66.162183,
            -17.433908
          ],
          [
            -66.162256,
            -17.433939
          ],
          [
            -66.16238,
            -17.433963
          ],
          [
            -66.162443,
            -17.433952
          ],
          [
            -66.162556,
            -17.43394
          ],
          [
            -66.162646,
            -17.433943
          ],
          [
            -66.162778,
            -17.43396
          ],
          [
            -66.163837,
            -17.43421
          ],
          [
            -66.164081,
            -17.434263
          ],
          [
            -66.164161,
            -17.434254
          ],
          [
            -66.164228,
            -17.434241
          ],
          [
            -66.164288,
            -17.43422
          ],
          [
            -66.164344,
            -17.434192
          ],
          [
            -66.164393,
            -17.434157
          ],
          [
            -66.165486,
            -17.433221
          ],
          [
            -66.165826,
            -17.432907
          ],
          [
            -66.16669,
            -17.432205
          ],
          [
            -66.167915,
            -17.431143
          ],
          [
            -66.169282,
            -17.429983
          ],
          [
            -66.169506,
            -17.429799
          ],
          [
            -66.169906,
            -17.429443
          ],
          [
            -66.171968,
            -17.427636
          ],
          [
            -66.172874,
            -17.426849
          ],
          [
            -66.173754,
            -17.42609
          ],
          [
            -66.174775,
            -17.425207
          ],
          [
            -66.174826,
            -17.425144
          ],
          [
            -66.174904,
            -17.425092
          ],
          [
            -66.174968,
            -17.425063
          ],
          [
            -66.175022,
            -17.425054
          ],
          [
            -66.175073,
            -17.425057
          ],
          [
            -66.1751,
            -17.425058
          ],
          [
            -66.175172,
            -17.425075
          ],
          [
            -66.175241,
            -17.425108
          ],
          [
            -66.175317,
            -17.425154
          ],
          [
            -66.175366,
            -17.425193
          ],
          [
            -66.176537,
            -17.426109
          ],
          [
            -66.176716,
            -17.42625
          ],
          [
            -66.177998,
            -17.427259
          ],
          [
            -66.178519,
            -17.42766
          ],
          [
            -66.178537,
            -17.427675
          ],
          [
            -66.1793,
            -17.428287
          ],
          [
            -66.179454,
            -17.42841
          ],
          [
            -66.18068,
            -17.429347
          ],
          [
            -66.181658,
            -17.430121
          ],
          [
            -66.182396,
            -17.43069
          ],
          [
            -66.183036,
            -17.431205
          ],
          [
            -66.183132,
            -17.43128
          ],
          [
            -66.183224,
            -17.431342
          ],
          [
            -66.183396,
            -17.431445
          ],
          [
            -66.183725,
            -17.431612
          ],
          [
            -66.183965,
            -17.431686
          ],
          [
            -66.184084,
            -17.431709
          ],
          [
            -66.184284,
            -17.431742
          ],
          [
            -66.184547,
            -17.43173
          ],
          [
            -66.185055,
            -17.431686
          ],
          [
            -66.185237,
            -17.431686
          ],
          [
            -66.185501,
            -17.431727
          ],
          [
            -66.186518,
            -17.431937
          ],
          [
            -66.190246,
            -17.432711
          ],
          [
            -66.19175,
            -17.433008
          ],
          [
            -66.192642,
            -17.433188
          ],
          [
            -66.192711,
            -17.4332
          ],
          [
            -66.193426,
            -17.434268
          ],
          [
            -66.193692,
            -17.434672
          ],
          [
            -66.194106,
            -17.435312
          ],
          [
            -66.194664,
            -17.43617
          ],
          [
            -66.195737,
            -17.437794
          ],
          [
            -66.196,
            -17.43818
          ],
          [
            -66.196182,
            -17.438481
          ],
          [
            -66.196362,
            -17.438956
          ],
          [
            -66.196939,
            -17.440484
          ],
          [
            -66.197565,
            -17.441984
          ],
          [
            -66.198059,
            -17.443185
          ],
          [
            -66.198226,
            -17.44367
          ],
          [
            -66.198598,
            -17.444524
          ],
          [
            -66.199023,
            -17.445554
          ],
          [
            -66.199378,
            -17.446414
          ],
          [
            -66.199775,
            -17.447375
          ],
          [
            -66.199976,
            -17.447849
          ],
          [
            -66.20036,
            -17.448764
          ],
          [
            -66.201036,
            -17.4504
          ],
          [
            -66.20114,
            -17.450672
          ],
          [
            -66.201185,
            -17.450826
          ],
          [
            -66.201253,
            -17.451171
          ],
          [
            -66.201276,
            -17.451608
          ],
          [
            -66.201313,
            -17.451881
          ],
          [
            -66.201341,
            -17.452057
          ],
          [
            -66.201488,
            -17.453009
          ],
          [
            -66.201629,
            -17.453899
          ],
          [
            -66.201665,
            -17.454076
          ],
          [
            -66.201707,
            -17.45423
          ],
          [
            -66.201849,
            -17.454815
          ],
          [
            -66.201893,
            -17.454986
          ],
          [
            -66.20208,
            -17.455959
          ],
          [
            -66.202171,
            -17.456427
          ],
          [
            -66.202222,
            -17.456735
          ],
          [
            -66.202276,
            -17.45698
          ],
          [
            -66.202408,
            -17.457547
          ],
          [
            -66.202481,
            -17.457861
          ],
          [
            -66.202466,
            -17.458029
          ],
          [
            -66.202435,
            -17.458201
          ],
          [
            -66.202389,
            -17.458368
          ],
          [
            -66.202271,
            -17.458685
          ],
          [
            -66.20218,
            -17.458939
          ],
          [
            -66.202105,
            -17.459214
          ],
          [
            -66.202048,
            -17.459482
          ],
          [
            -66.202013,
            -17.459654
          ],
          [
            -66.202005,
            -17.4598
          ],
          [
            -66.202018,
            -17.460149
          ],
          [
            -66.202017,
            -17.46035
          ],
          [
            -66.202001,
            -17.460545
          ],
          [
            -66.201965,
            -17.460743
          ],
          [
            -66.201848,
            -17.461389
          ],
          [
            -66.201694,
            -17.462534
          ],
          [
            -66.201677,
            -17.462679
          ],
          [
            -66.201614,
            -17.463211
          ],
          [
            -66.201518,
            -17.46393
          ],
          [
            -66.201484,
            -17.464083
          ],
          [
            -66.201544,
            -17.464183
          ],
          [
            -66.201629,
            -17.464262
          ],
          [
            -66.201738,
            -17.464334
          ],
          [
            -66.201956,
            -17.464505
          ],
          [
            -66.202095,
            -17.464654
          ],
          [
            -66.202143,
            -17.464719
          ],
          [
            -66.202438,
            -17.465192
          ],
          [
            -66.202606,
            -17.465442
          ],
          [
            -66.202701,
            -17.465601
          ],
          [
            -66.202789,
            -17.465765
          ],
          [
            -66.202885,
            -17.465919
          ],
          [
            -66.202964,
            -17.46603
          ],
          [
            -66.203171,
            -17.4663
          ],
          [
            -66.203299,
            -17.466454
          ],
          [
            -66.203405,
            -17.466575
          ],
          [
            -66.203523,
            -17.466644
          ],
          [
            -66.203752,
            -17.466779
          ],
          [
            -66.204177,
            -17.466989
          ],
          [
            -66.204379,
            -17.467122
          ],
          [
            -66.204499,
            -17.467197
          ],
          [
            -66.204628,
            -17.46722
          ],
          [
            -66.204847,
            -17.467237
          ],
          [
            -66.205174,
            -17.467287
          ],
          [
            -66.205538,
            -17.467353
          ],
          [
            -66.205983,
            -17.467408
          ],
          [
            -66.206433,
            -17.467456
          ],
          [
            -66.20707,
            -17.467495
          ],
          [
            -66.207131,
            -17.467538
          ],
          [
            -66.20712,
            -17.468077
          ],
          [
            -66.207082,
            -17.46828
          ],
          [
            -66.206873,
            -17.468182
          ],
          [
            -66.206862,
            -17.468235
          ],
          [
            -66.206945,
            -17.468266
          ],
          [
            -66.207086,
            -17.468342
          ],
          [
            -66.207242,
            -17.468414
          ],
          [
            -66.207506,
            -17.468534
          ],
          [
            -66.207621,
            -17.468609
          ],
          [
            -66.207727,
            -17.468674
          ],
          [
            -66.207854,
            -17.468731
          ],
          [
            -66.207985,
            -17.46879
          ],
          [
            -66.207979,
            -17.46885
          ],
          [
            -66.207966,
            -17.469481
          ],
          [
            -66.207944,
            -17.469877
          ],
          [
            -66.207935,
            -17.470219
          ],
          [
            -66.207951,
            -17.470296
          ],
          [
            -66.208021,
            -17.470458
          ],
          [
            -66.207776,
            -17.470517
          ],
          [
            -66.207701,
            -17.470522
          ],
          [
            -66.207658,
            -17.47063
          ],
          [
            -66.207616,
            -17.470755
          ],
          [
            -66.207596,
            -17.470875
          ],
          [
            -66.207596,
            -17.470938
          ],
          [
            -66.207602,
            -17.471022
          ],
          [
            -66.207662,
            -17.47117
          ],
          [
            -66.20774,
            -17.471437
          ],
          [
            -66.207775,
            -17.471566
          ],
          [
            -66.207791,
            -17.471659
          ],
          [
            -66.207787,
            -17.471712
          ],
          [
            -66.20777,
            -17.471756
          ],
          [
            -66.207842,
            -17.47191
          ],
          [
            -66.207984,
            -17.472223
          ],
          [
            -66.208204,
            -17.472698
          ],
          [
            -66.208419,
            -17.473164
          ],
          [
            -66.208529,
            -17.473106
          ],
          [
            -66.208685,
            -17.473031
          ],
          [
            -66.209135,
            -17.472837
          ]
        ]
      }
    }
  ]
}