{
  "type": "FeatureCollection",
  "features": [
    {
      "type": "Feature",
      "properties": {
        "route_id": "11132650",
        "route_short_name": "N",
        "route_long_name": "MicroBus N: El Abra \u2192 Calle Severo Fernandez A."
      },
      "geometry": {
        "type": "LineString",
        "coordinates": [
          [
            -66.1141,
            -17.407421
          ],
          [
            -66.114912,
            -17.407086
          ],
          [
            -66.11415,
            -17.405641
          ],
          [
            -66.113512,
            -17.404411
          ],
          [
            -66.113445,
            -17.404464
          ],
          [
            -66.113171,
            -17.40368
          ],
          [
            -66.113102,
            -17.403559
          ],
          [
            -66.112903,
            -17.402985
          ],
          [
            -66.112728,
            -17.40238
          ],
          [
            -66.112488,
            -17.40167
          ],
          [
            -66.111524,
            -17.40182
          ],
          [
            -66.112392,
            -17.399978
          ],
          [
            -66.112653,
            -17.399409
          ],
          [
            -66.112816,
            -17.399061
          ],
          [
            -66.11283,
            -17.398844
          ],
          [
            -66.112805,
            -17.39856
          ],
          [
            -66.112735,
            -17.397584
          ],
          [
            -66.112571,
            -17.396339
          ],
          [
            -66.112546,
            -17.396155
          ],
          [
            -66.1125,
            -17.395911
          ],
          [
            -66.112431,
            -17.395636
          ],
          [
            -66.112174,
            -17.394634
          ],
          [
            -66.112151,
            -17.394531
          ],
          [
            -66.112114,
            -17.394387
          ],
          [
            -66.111957,
            -17.393721
          ],
          [
            -66.111912,
            -17.393553
          ],
          [
            -66.111529,
            -17.392062
          ],
          [
            -66.111513,
            -17.391994
          ],
          [
            -66.111115,
            -17.390355
          ],
          [
            -66.110801,
            -17.389027
          ],
          [
            -66.110776,
            -17.388931
          ],
          [
            -66.110469,
            -17.387675
          ],
          [
            -66.110283,
            -17.387034
          ],
          [
            -66.110095,
            -17.386335
          ],
          [
            -66.110052,
            -17.386179
          ],
          [
            -66.110012,
            -17.386031
          ],
          [
            -66.109836,
            -17.385334
          ],
          [
            -66.109735,
            -17.384932
          ],
          [
            -66.109544,
            -17.384104
          ],
          [
            -66.109499,
            -17.384025
          ],
          [
            -66.109426,
            -17.384008
          ],
          [
            -66.109364,
            -17.383968
          ],
          [
            -66.109321,
            -17.38391
          ],
          [
            -66.1093,
            -17.38382
          ],
          [
            -66.109312,
            -17.383757
          ],
          [
            -66.109343,
            -17.383701
          ],
          [
            -66.109392,
            -17.383656
          ],
          [
            -66.109473,
            -17.383624
          ],
          [
            -66.109561,
            -17.383625
          ],
          [
            -66.109621,
            -17.383648
          ],
          [
            -66.109671,
            -17.383687
          ],
          [
            -66.109706,
            -17.383739
          ],
          [
            -66.110554,
            -17.38357
          ],
          [
            -66.111628,
            -17.383347
          ],
          [
            -66.112717,
            -17.383138
          ],
          [
            -66.113771,
            -17.382908
          ],
          [
            -66.114755,
            -17.382697
          ],
          [
            -66.116089,
            -17.382419
          ],
          [
            -66.116758,
            -17.38228
          ],
          [
            -66.117217,
            -17.382184
          ],
          [
            -66.117813,
            -17.382029
          ],
          [
            -66.118245,
            -17.381903
          ],
          [
            -66.118757,
            -17.381724
          ],
          [
            -66.11928,
            -17.381501
          ],
          [
            -66.119504,
            -17.38141
          ],
          [
            -66.119997,
            -17.381167
          ],
          [
            -66.12026,
            -17.381016
          ],
          [
            -66.120802,
            -17.380671
          ],
          [
            -66.120842,
            -17.380646
          ],
          [
            -66.121682,
            -17.380086
          ],
          [
            -66.121789,
            -17.380015
          ],
          [
            -66.121832,
            -17.379988
          ],
          [
            -66.122166,
            -17.379774
          ],
          [
            -66.12243,
            -17.379599
          ],
          [
            -66.122469,
            -17.379576
          ],
          [
            -66.122621,
            -17.379476
          ],
          [
            -66.123609,
            -17.378817
          ],
          [
            -66.124543,
            -17.378197
          ],
          [
            -66.125341,
            -17.377638
          ],
          [
            -66.126958,
            -17.376521
          ],
          [
            -66.127171,
            -17.376375
          ],
          [
            -66.127201,
            -17.376354
          ],
          [
            -66.127555,
            -17.376117
          ],
          [
            -66.12793,
            -17.375855
          ],
          [
            -66.128045,
            -17.375774
          ],
          [
            -66.128225,
            -17.37565
          ],
          [
            -66.128297,
            -17.3756
          ],
          [
            -66.128815,
            -17.37523
          ],
          [
            -66.128874,
            -17.375188
          ],
          [
            -66.12898,
            -17.375117
          ],
          [
            -66.129287,
            -17.374932
          ],
          [
            -66.129437,
            -17.374854
          ],
          [
            -66.129617,
            -17.37478
          ],
          [
            -66.129841,
            -17.374701
          ],
          [
            -66.130055,
            -17.374638
          ],
          [
            -66.13028,
            -17.37459
          ],
          [
            -66.130522,
            -17.37455
          ],
          [
            -66.130769,
            -17.374529
          ],
          [
            -66.131392,
            -17.374523
          ],
          [
            -66.13191,
            -17.374529
          ],
          [
            -66.132141,
            -17.374527
          ],
          [
            -66.132369,
            -17.374526
          ],
          [
            -66.134525,
            -17.374534
          ],
          [
            -66.134675,
            -17.374545
          ],
          [
            -66.134869,
            -17.374569
          ],
          [
            -66.135057,
            -17.374603
          ],
          [
            -66.135239,
            -17.374646
          ],
          [
            -66.135429,
            -17.3747
          ],
          [
            -66.135587,
            -17.374755
          ],
          [
            -66.135766,
            -17.374829
          ],
          [
            -66.13596,
            -17.37492
          ],
          [
            -66.136176,
            -17.375045
          ],
          [
            -66.136629,
            -17.375342
          ],
          [
            -66.137149,
            -17.375692
          ],
          [
            -66.137177,
            -17.375711
          ],
          [
            -66.137563,
            -17.375943
          ],
          [
            -66.137902,
            -17.376124
          ],
          [
            -66.138255,
            -17.376294
          ],
          [
            -66.138483,
            -17.376392
          ],
          [
            -66.138718,
            -17.376486
          ],
          [
            -66.138942,
            -17.376566
          ],
          [
            -66.139193,
            -17.376646
          ],
          [
            -66.139641,
            -17.376772
          ],
          [
            -66.140381,
            -17.376957
          ],
          [
            -66.140842,
            -17.377022
          ],
          [
            -66.141042,
            -17.377051
          ],
          [
            -66.141191,
            -17.377079
          ],
          [
            -66.141465,
            -17.377142
          ],
          [
            -66.142007,
            -17.377268
          ],
          [
            -66.142225,
            -17.377319
          ],
          [
            -66.142283,
            -17.377351
          ],
          [
            -66.142311,
            -17.377371
          ],
          [
            -66.142337,
            -17.377395
          ],
          [
            -66.142364,
            -17.377424
          ],
          [
            -66.142385,
            -17.377458
          ],
          [
            -66.142406,
            -17.377499
          ],
          [
            -66.142418,
            -17.377538
          ],
          [
            -66.142423,
            -17.377578
          ],
          [
            -66.142423,
            -17.377606
          ],
          [
            -66.142421,
            -17.377634
          ],
          [
            -66.142405,
            -17.377763
          ],
          [
            -66.142381,
            -17.378052
          ],
          [
            -66.142378,
            -17.378228
          ],
          [
            -66.142358,
            -17.378448
          ],
          [
            -66.142356,
            -17.3786
          ],
          [
            -66.142359,
            -17.378672
          ],
          [
            -66.142377,
            -17.37875
          ],
          [
            -66.142386,
            -17.37879
          ],
          [
            -66.142412,
            -17.378833
          ],
          [
            -66.14246,
            -17.378878
          ],
          [
            -66.142527,
            -17.378917
          ],
          [
            -66.142681,
            -17.378969
          ],
          [
            -66.142997,
            -17.379067
          ],
          [
            -66.143049,
            -17.379083
          ],
          [
            -66.143076,
            -17.379123
          ],
          [
            -66.143097,
            -17.379166
          ],
          [
            -66.143101,
            -17.379191
          ],
          [
            -66.143103,
            -17.379215
          ],
          [
            -66.1431,
            -17.379237
          ],
          [
            -66.143068,
            -17.379373
          ],
          [
            -66.143069,
            -17.379414
          ],
          [
            -66.143094,
            -17.379472
          ],
          [
            -66.143204,
            -17.379635
          ],
          [
            -66.144141,
            -17.380997
          ],
          [
            -66.144226,
            -17.381125
          ],
          [
            -66.144334,
            -17.381281
          ],
          [
            -66.14509,
            -17.382375
          ],
          [
            -66.145167,
            -17.38248
          ],
          [
            -66.145264,
            -17.382624
          ],
          [
            -66.146291,
            -17.384133
          ],
          [
            -66.146304,
            -17.384151
          ],
          [
            -66.146311,
            -17.38416
          ],
          [
            -66.146332,
            -17.384194
          ],
          [
            -66.146398,
            -17.38429
          ],
          [
            -66.147463,
            -17.385856
          ],
          [
            -66.147514,
            -17.385931
          ],
          [
            -66.147567,
            -17.386007
          ],
          [
            -66.147716,
            -17.386223
          ],
          [
            -66.148064,
            -17.386723
          ],
          [
            -66.148365,
            -17.387155
          ],
          [
            -66.148409,
            -17.38722
          ],
          [
            -66.148501,
            -17.387349
          ],
          [
            -66.148519,
            -17.387374
          ],
          [
            -66.148643,
            -17.387551
          ],
          [
            -66.148842,
            -17.387832
          ],
          [
            -66.14901,
            -17.38807
          ],
          [
            -66.149326,
            -17.388518
          ],
          [
            -66.149551,
            -17.388829
          ],
          [
            -66.149579,
            -17.388861
          ],
          [
            -66.149612,
            -17.38888
          ],
          [
            -66.149664,
            -17.388894
          ],
          [
            -66.149734,
            -17.38891
          ],
          [
            -66.149893,
            -17.388916
          ],
          [
            -66.150008,
            -17.388916
          ],
          [
            -66.150081,
            -17.388907
          ],
          [
            -66.150194,
            -17.388881
          ],
          [
            -66.150314,
            -17.388842
          ],
          [
            -66.150432,
            -17.388802
          ],
          [
            -66.150527,
            -17.38877
          ],
          [
            -66.150549,
            -17.388774
          ],
          [
            -66.151547,
            -17.388953
          ],
          [
            -66.151604,
            -17.388963
          ],
          [
            -66.1516,
            -17.388988
          ],
          [
            -66.151594,
            -17.389029
          ],
          [
            -66.151417,
            -17.390035
          ],
          [
            -66.151233,
            -17.391123
          ],
          [
            -66.151221,
            -17.391186
          ],
          [
            -66.151208,
            -17.391273
          ],
          [
            -66.151198,
            -17.391337
          ],
          [
            -66.151126,
            -17.391729
          ],
          [
            -66.15104,
            -17.392193
          ],
          [
            -66.151028,
            -17.392245
          ],
          [
            -66.151021,
            -17.392284
          ],
          [
            -66.150842,
            -17.393227
          ],
          [
            -66.150832,
            -17.393279
          ],
          [
            -66.150822,
            -17.393334
          ],
          [
            -66.15064,
            -17.394328
          ],
          [
            -66.150442,
            -17.395355
          ],
          [
            -66.150386,
            -17.395644
          ],
          [
            -66.150236,
            -17.396417
          ],
          [
            -66.150023,
            -17.397561
          ],
          [
            -66.150017,
            -17.397637
          ],
          [
            -66.150014,
            -17.397688
          ],
          [
            -66.149949,
            -17.398476
          ],
          [
            -66.149941,
            -17.398553
          ],
          [
            -66.149907,
            -17.399003
          ],
          [
            -66.149849,
            -17.399867
          ],
          [
            -66.150022,
            -17.399873
          ],
          [
            -66.150125,
            -17.399876
          ],
          [
            -66.150221,
            -17.399889
          ],
          [
            -66.15035,
            -17.399919
          ],
          [
            -66.150359,
            -17.399922
          ],
          [
            -66.150441,
            -17.399951
          ],
          [
            -66.150566,
            -17.400006
          ],
          [
            -66.15073,
            -17.400113
          ],
          [
            -66.150872,
            -17.400238
          ],
          [
            -66.150974,
            -17.400334
          ],
          [
            -66.151083,
            -17.400467
          ],
          [
            -66.151158,
            -17.400587
          ],
          [
            -66.15124,
            -17.400754
          ],
          [
            -66.15129,
            -17.400901
          ],
          [
            -66.151311,
            -17.401041
          ],
          [
            -66.151318,
            -17.401207
          ],
          [
            -66.151304,
            -17.401331
          ],
          [
            -66.151274,
            -17.40147
          ],
          [
            -66.15122,
            -17.401588
          ],
          [
            -66.151061,
            -17.401901
          ],
          [
            -66.15102,
            -17.402016
          ],
          [
            -66.150982,
            -17.402131
          ],
          [
            -66.150961,
            -17.402256
          ],
          [
            -66.150943,
            -17.402375
          ],
          [
            -66.150947,
            -17.402591
          ],
          [
            -66.151001,
            -17.403136
          ],
          [
            -66.151008,
            -17.403267
          ],
          [
            -66.151023,
            -17.403469
          ],
          [
            -66.151025,
            -17.403845
          ],
          [
            -66.15101,
            -17.404142
          ],
          [
            -66.150971,
            -17.404419
          ],
          [
            -66.150913,
            -17.404686
          ],
          [
            -66.150872,
            -17.40493
          ],
          [
            -66.150868,
            -17.404951
          ],
          [
            -66.150868,
            -17.404967
          ],
          [
            -66.150867,
            -17.404995
          ],
          [
            -66.150863,
            -17.405052
          ],
          [
            -66.150768,
            -17.407635
          ],
          [
            -66.150788,
            -17.408412
          ],
          [
            -66.150782,
            -17.408776
          ],
          [
            -66.150814,
            -17.40934
          ],
          [
            -66.150827,
            -17.409598
          ],
          [
            -66.150923,
            -17.410411
          ],
          [
            -66.15102,
            -17.41141
          ],
          [
            -66.151075,
            -17.4119
          ],
          [
            -66.15114,
            -17.412367
          ],
          [
            -66.151181,
            -17.412687
          ],
          [
            -66.151265,
            -17.413225
          ],
          [
            -66.151337,
            -17.413878
          ],
          [
            -66.151354,
            -17.414015
          ],
          [
            -66.151537,
            -17.415454
          ],
          [
            -66.151548,
            -17.415533
          ],
          [
            -66.151637,
            -17.416373
          ],
          [
            -66.151663,
            -17.416541
          ],
          [
            -66.151674,
            -17.41661
          ],
          [
            -66.151695,
            -17.416674
          ],
          [
            -66.151731,
            -17.416735
          ],
          [
            -66.151767,
            -17.416789
          ],
          [
            -66.15181,
            -17.416842
          ],
          [
            -66.151844,
            -17.416911
          ],
          [
            -66.151881,
            -17.416938
          ],
          [
            -66.151909,
            -17.416973
          ],
          [
            -66.151927,
            -17.417013
          ],
          [
            -66.151934,
            -17.417057
          ],
          [
            -66.151927,
            -17.417107
          ],
          [
            -66.151906,
            -17.417154
          ],
          [
            -66.151871,
            -17.417251
          ],
          [
            -66.151859,
            -17.417288
          ],
          [
            -66.151829,
            -17.417404
          ],
          [
            -66.151806,
            -17.417526
          ],
          [
            -66.1518,
            -17.417698
          ],
          [
            -66.151808,
            -17.417921
          ],
          [
            -66.151849,
            -17.418174
          ],
          [
            -66.151896,
            -17.418344
          ],
          [
            -66.151994,
            -17.418545
          ],
          [
            -66.152308,
            -17.419084
          ],
          [
            -66.152414,
            -17.419269
          ],
          [
            -66.152708,
            -17.419825
          ],
          [
            -66.152877,
            -17.420169
          ],
          [
            -66.153136,
            -17.420748
          ],
          [
            -66.153317,
            -17.421261
          ],
          [
            -66.153368,
            -17.421416
          ],
          [
            -66.153389,
            -17.421498
          ],
          [
            -66.153376,
            -17.421551
          ],
          [
            -66.15335,
            -17.421599
          ],
          [
            -66.15331,
            -17.421637
          ],
          [
            -66.15326,
            -17.421662
          ],
          [
            -66.153204,
            -17.42167
          ],
          [
            -66.153142,
            -17.421665
          ],
          [
            -66.153087,
            -17.421646
          ],
          [
            -66.152975,
            -17.421621
          ],
          [
            -66.152817,
            -17.421555
          ],
          [
            -66.152562,
            -17.421418
          ],
          [
            -66.152046,
            -17.42116
          ],
          [
            -66.15195,
            -17.42109
          ],
          [
            -66.151886,
            -17.421009
          ],
          [
            -66.151817,
            -17.420882
          ],
          [
            -66.15147,
            -17.420231
          ],
          [
            -66.151159,
            -17.419646
          ],
          [
            -66.150821,
            -17.418981
          ],
          [
            -66.150227,
            -17.41925
          ],
          [
            -66.149513,
            -17.419575
          ],
          [
            -66.149351,
            -17.419641
          ],
          [
            -66.149273,
            -17.419672
          ],
          [
            -66.148994,
            -17.419559
          ],
          [
            -66.148955,
            -17.419561
          ],
          [
            -66.14892,
            -17.419578
          ],
          [
            -66.148892,
            -17.419604
          ],
          [
            -66.148875,
            -17.419635
          ],
          [
            -66.148864,
            -17.419674
          ],
          [
            -66.148878,
            -17.419966
          ],
          [
            -66.148913,
            -17.42043
          ],
          [
            -66.149463,
            -17.420597
          ],
          [
            -66.149461,
            -17.420667
          ],
          [
            -66.149467,
            -17.420887
          ],
          [
            -66.149545,
            -17.421087
          ],
          [
            -66.149607,
            -17.421498
          ],
          [
            -66.149649,
            -17.421694
          ],
          [
            -66.149732,
            -17.422196
          ],
          [
            -66.149797,
            -17.422542
          ],
          [
            -66.149827,
            -17.422717
          ],
          [
            -66.14993,
            -17.423113
          ],
          [
            -66.149989,
            -17.423261
          ],
          [
            -66.150041,
            -17.423313
          ],
          [
            -66.150107,
            -17.423347
          ],
          [
            -66.150166,
            -17.423367
          ],
          [
            -66.150232,
            -17.423369
          ],
          [
            -66.150288,
            -17.423352
          ],
          [
            -66.150336,
            -17.423324
          ],
          [
            -66.150848,
            -17.422899
          ],
          [
            -66.150968,
            -17.422822
          ],
          [
            -66.151087,
            -17.422749
          ],
          [
            -66.151179,
            -17.422715
          ],
          [
            -66.15138,
            -17.42267
          ],
          [
            -66.151517,
            -17.422683
          ],
          [
            -66.151632,
            -17.422721
          ],
          [
            -66.151727,
            -17.422777
          ],
          [
            -66.15179,
            -17.422838
          ],
          [
            -66.151884,
            -17.422989
          ],
          [
            -66.151897,
            -17.423074
          ],
          [
            -66.151915,
            -17.42319
          ],
          [
            -66.151945,
            -17.423334
          ],
          [
            -66.151965,
            -17.423417
          ],
          [
            -66.151995,
            -17.423495
          ],
          [
            -66.152058,
            -17.423632
          ],
          [
            -66.152065,
            -17.423686
          ],
          [
            -66.152063,
            -17.423717
          ],
          [
            -66.152045,
            -17.423744
          ],
          [
            -66.152006,
            -17.423753
          ],
          [
            -66.151978,
            -17.423745
          ],
          [
            -66.151946,
            -17.423727
          ],
          [
            -66.151901,
            -17.423677
          ],
          [
            -66.151723,
            -17.423473
          ],
          [
            -66.151654,
            -17.423412
          ],
          [
            -66.151627,
            -17.423387
          ],
          [
            -66.151467,
            -17.423285
          ],
          [
            -66.151398,
            -17.423243
          ],
          [
            -66.151316,
            -17.423206
          ],
          [
            -66.151246,
            -17.423188
          ],
          [
            -66.151198,
            -17.423192
          ],
          [
            -66.151119,
            -17.423196
          ],
          [
            -66.151029,
            -17.423232
          ],
          [
            -66.150904,
            -17.423316
          ],
          [
            -66.150554,
            -17.423604
          ],
          [
            -66.150392,
            -17.423739
          ],
          [
            -66.150182,
            -17.423897
          ],
          [
            -66.150093,
            -17.423943
          ],
          [
            -66.150014,
            -17.423954
          ],
          [
            -66.149875,
            -17.423956
          ],
          [
            -66.149753,
            -17.423982
          ],
          [
            -66.149658,
            -17.423976
          ]
        ]
      }
    }
  ]
}