{
  "type": "FeatureCollection",
  "features": [
    {
      "type": "Feature",
      "properties": {
        "route_id": "10712108",
        "route_short_name": "O",
        "route_long_name": "MicroBus O: Avenida Circuncalaci\u00f3n II Doctor Mart\u00edn C\u00e1rdenas Hermosa \u2192 Sau Sau Loma"
      },
      "geometry": {
        "type": "LineString",
        "coordinates": [
          [
            -66.119551,
            -17.365027
          ],
          [
            -66.120015,
            -17.364905
          ],
          [
            -66.120691,
            -17.364731
          ],
          [
            -66.121172,
            -17.364628
          ],
          [
            -66.121412,
            -17.36456
          ],
          [
            -66.121897,
            -17.364344
          ],
          [
            -66.122046,
            -17.364299
          ],
          [
            -66.12216,
            -17.3643
          ],
          [
            -66.122238,
            -17.364335
          ],
          [
            -66.122307,
            -17.364375
          ],
          [
            -66.122367,
            -17.364413
          ],
          [
            -66.122454,
            -17.364451
          ],
          [
            -66.122633,
            -17.364505
          ],
          [
            -66.122798,
            -17.364536
          ],
          [
            -66.122951,
            -17.364552
          ],
          [
            -66.123136,
            -17.36459
          ],
          [
            -66.123372,
            -17.364608
          ],
          [
            -66.123569,
            -17.364643
          ],
          [
            -66.123714,
            -17.364641
          ],
          [
            -66.123976,
            -17.364595
          ],
          [
            -66.12415,
            -17.364571
          ],
          [
            -66.124268,
            -17.364584
          ],
          [
            -66.124368,
            -17.364624
          ],
          [
            -66.124427,
            -17.364671
          ],
          [
            -66.124507,
            -17.364711
          ],
          [
            -66.124687,
            -17.364781
          ],
          [
            -66.124843,
            -17.364841
          ],
          [
            -66.12533,
            -17.365043
          ],
          [
            -66.125318,
            -17.365071
          ],
          [
            -66.125311,
            -17.365176
          ],
          [
            -66.125431,
            -17.365225
          ],
          [
            -66.125547,
            -17.365267
          ],
          [
            -66.125604,
            -17.365294
          ],
          [
            -66.125652,
            -17.365325
          ],
          [
            -66.125759,
            -17.365406
          ],
          [
            -66.126219,
            -17.365597
          ],
          [
            -66.126279,
            -17.365475
          ],
          [
            -66.12705,
            -17.365783
          ],
          [
            -66.127789,
            -17.366066
          ],
          [
            -66.127852,
            -17.366086
          ],
          [
            -66.127904,
            -17.366086
          ],
          [
            -66.128021,
            -17.366059
          ],
          [
            -66.128447,
            -17.365869
          ],
          [
            -66.128693,
            -17.365743
          ],
          [
            -66.128961,
            -17.365554
          ],
          [
            -66.129178,
            -17.365364
          ],
          [
            -66.129287,
            -17.365278
          ],
          [
            -66.129377,
            -17.365234
          ],
          [
            -66.129478,
            -17.365196
          ],
          [
            -66.129528,
            -17.365186
          ],
          [
            -66.130131,
            -17.365066
          ],
          [
            -66.130736,
            -17.36495
          ],
          [
            -66.131252,
            -17.364845
          ],
          [
            -66.131612,
            -17.364771
          ],
          [
            -66.131687,
            -17.364735
          ],
          [
            -66.131754,
            -17.364697
          ],
          [
            -66.132182,
            -17.36461
          ],
          [
            -66.132703,
            -17.364519
          ],
          [
            -66.132723,
            -17.364594
          ],
          [
            -66.132735,
            -17.364646
          ],
          [
            -66.132853,
            -17.365171
          ],
          [
            -66.132855,
            -17.365192
          ],
          [
            -66.132843,
            -17.365223
          ],
          [
            -66.132827,
            -17.36525
          ],
          [
            -66.132803,
            -17.365265
          ],
          [
            -66.132676,
            -17.3653
          ],
          [
            -66.13293,
            -17.3657
          ],
          [
            -66.133159,
            -17.36607
          ],
          [
            -66.133492,
            -17.366601
          ],
          [
            -66.13383,
            -17.367128
          ],
          [
            -66.134004,
            -17.36702
          ],
          [
            -66.134214,
            -17.367085
          ],
          [
            -66.134323,
            -17.367199
          ],
          [
            -66.134387,
            -17.367304
          ],
          [
            -66.134411,
            -17.367396
          ],
          [
            -66.134408,
            -17.367501
          ],
          [
            -66.134388,
            -17.367633
          ],
          [
            -66.134336,
            -17.367741
          ],
          [
            -66.134259,
            -17.367792
          ],
          [
            -66.134531,
            -17.368276
          ],
          [
            -66.134569,
            -17.368332
          ],
          [
            -66.134604,
            -17.368387
          ],
          [
            -66.135015,
            -17.369013
          ],
          [
            -66.135101,
            -17.369157
          ],
          [
            -66.135168,
            -17.369315
          ],
          [
            -66.135219,
            -17.369528
          ],
          [
            -66.135251,
            -17.369843
          ],
          [
            -66.135259,
            -17.369935
          ],
          [
            -66.135271,
            -17.370044
          ],
          [
            -66.135282,
            -17.370129
          ],
          [
            -66.135336,
            -17.37053
          ],
          [
            -66.135338,
            -17.370605
          ],
          [
            -66.135337,
            -17.370615
          ],
          [
            -66.135335,
            -17.370683
          ],
          [
            -66.135319,
            -17.370855
          ],
          [
            -66.135258,
            -17.371318
          ],
          [
            -66.135199,
            -17.372087
          ],
          [
            -66.135161,
            -17.372668
          ],
          [
            -66.135216,
            -17.372682
          ],
          [
            -66.135524,
            -17.372736
          ],
          [
            -66.135694,
            -17.372761
          ],
          [
            -66.135801,
            -17.372762
          ],
          [
            -66.135868,
            -17.37276
          ],
          [
            -66.135971,
            -17.372756
          ],
          [
            -66.136223,
            -17.372732
          ],
          [
            -66.136444,
            -17.372706
          ],
          [
            -66.136571,
            -17.372684
          ],
          [
            -66.136618,
            -17.372672
          ],
          [
            -66.136686,
            -17.372654
          ],
          [
            -66.136732,
            -17.372638
          ],
          [
            -66.136799,
            -17.372733
          ],
          [
            -66.136827,
            -17.372781
          ],
          [
            -66.136869,
            -17.372858
          ],
          [
            -66.136895,
            -17.372917
          ],
          [
            -66.136906,
            -17.372959
          ],
          [
            -66.136907,
            -17.373003
          ],
          [
            -66.136881,
            -17.373206
          ],
          [
            -66.13684,
            -17.373472
          ],
          [
            -66.136844,
            -17.373554
          ],
          [
            -66.136869,
            -17.373693
          ],
          [
            -66.136945,
            -17.373792
          ],
          [
            -66.136989,
            -17.373845
          ],
          [
            -66.137023,
            -17.37388
          ],
          [
            -66.137068,
            -17.373917
          ],
          [
            -66.137163,
            -17.37399
          ],
          [
            -66.137262,
            -17.374016
          ],
          [
            -66.137366,
            -17.374029
          ],
          [
            -66.137754,
            -17.374008
          ],
          [
            -66.137994,
            -17.373992
          ],
          [
            -66.138031,
            -17.37399
          ],
          [
            -66.138065,
            -17.373987
          ],
          [
            -66.138834,
            -17.373937
          ],
          [
            -66.139673,
            -17.373885
          ],
          [
            -66.140596,
            -17.373829
          ],
          [
            -66.1416,
            -17.373772
          ],
          [
            -66.142262,
            -17.373735
          ],
          [
            -66.142329,
            -17.37372
          ],
          [
            -66.142428,
            -17.373694
          ],
          [
            -66.142502,
            -17.373664
          ],
          [
            -66.142617,
            -17.373611
          ],
          [
            -66.142652,
            -17.373555
          ],
          [
            -66.142699,
            -17.373505
          ],
          [
            -66.142748,
            -17.37347
          ],
          [
            -66.142802,
            -17.373442
          ],
          [
            -66.142853,
            -17.373428
          ],
          [
            -66.14287,
            -17.373423
          ],
          [
            -66.142932,
            -17.373417
          ],
          [
            -66.142997,
            -17.373424
          ],
          [
            -66.143066,
            -17.37344
          ],
          [
            -66.143124,
            -17.373468
          ],
          [
            -66.143211,
            -17.373542
          ],
          [
            -66.143255,
            -17.373608
          ],
          [
            -66.143281,
            -17.373681
          ],
          [
            -66.143288,
            -17.373721
          ],
          [
            -66.143289,
            -17.373761
          ],
          [
            -66.143285,
            -17.373845
          ],
          [
            -66.143259,
            -17.373917
          ],
          [
            -66.143203,
            -17.373994
          ],
          [
            -66.14312,
            -17.374053
          ],
          [
            -66.143019,
            -17.37409
          ],
          [
            -66.142987,
            -17.37412
          ],
          [
            -66.142946,
            -17.374187
          ],
          [
            -66.142923,
            -17.374249
          ],
          [
            -66.142826,
            -17.374871
          ],
          [
            -66.142813,
            -17.374963
          ],
          [
            -66.142801,
            -17.375036
          ],
          [
            -66.142753,
            -17.375341
          ],
          [
            -66.142684,
            -17.375775
          ],
          [
            -66.142674,
            -17.37584
          ],
          [
            -66.142619,
            -17.376235
          ],
          [
            -66.142601,
            -17.376365
          ],
          [
            -66.142581,
            -17.376479
          ],
          [
            -66.142549,
            -17.376778
          ],
          [
            -66.142543,
            -17.376843
          ],
          [
            -66.142538,
            -17.376885
          ],
          [
            -66.142529,
            -17.376945
          ],
          [
            -66.142525,
            -17.37696
          ],
          [
            -66.142428,
            -17.377327
          ],
          [
            -66.142404,
            -17.377419
          ],
          [
            -66.142409,
            -17.377445
          ],
          [
            -66.142422,
            -17.377476
          ],
          [
            -66.142438,
            -17.377495
          ],
          [
            -66.142452,
            -17.377523
          ],
          [
            -66.142461,
            -17.377552
          ],
          [
            -66.142464,
            -17.377583
          ],
          [
            -66.142462,
            -17.377619
          ],
          [
            -66.142468,
            -17.377648
          ],
          [
            -66.142455,
            -17.377792
          ],
          [
            -66.142456,
            -17.377945
          ],
          [
            -66.142401,
            -17.378448
          ],
          [
            -66.142377,
            -17.37875
          ],
          [
            -66.142386,
            -17.37879
          ],
          [
            -66.142412,
            -17.378833
          ],
          [
            -66.14246,
            -17.378878
          ],
          [
            -66.142527,
            -17.378917
          ],
          [
            -66.142681,
            -17.378969
          ],
          [
            -66.142997,
            -17.379067
          ],
          [
            -66.143049,
            -17.379083
          ],
          [
            -66.143076,
            -17.379123
          ],
          [
            -66.143097,
            -17.379166
          ],
          [
            -66.143101,
            -17.379191
          ],
          [
            -66.143103,
            -17.379215
          ],
          [
            -66.1431,
            -17.379237
          ],
          [
            -66.143068,
            -17.379373
          ],
          [
            -66.143069,
            -17.379414
          ],
          [
            -66.143094,
            -17.379472
          ],
          [
            -66.143204,
            -17.379635
          ],
          [
            -66.144141,
            -17.380997
          ],
          [
            -66.144226,
            -17.381125
          ],
          [
            -66.144334,
            -17.381281
          ],
          [
            -66.14509,
            -17.382375
          ],
          [
            -66.145167,
            -17.38248
          ],
          [
            -66.145264,
            -17.382624
          ],
          [
            -66.146291,
            -17.384133
          ],
          [
            -66.146358,
            -17.384108
          ],
          [
            -66.147271,
            -17.38378
          ],
          [
            -66.148589,
            -17.383311
          ],
          [
            -66.148953,
            -17.38318
          ],
          [
            -66.149162,
            -17.383105
          ],
          [
            -66.149274,
            -17.383065
          ],
          [
            -66.1493,
            -17.383136
          ],
          [
            -66.149337,
            -17.383239
          ],
          [
            -66.149376,
            -17.383345
          ],
          [
            -66.150051,
            -17.383547
          ],
          [
            -66.15009,
            -17.383559
          ],
          [
            -66.150156,
            -17.383577
          ],
          [
            -66.151324,
            -17.383905
          ],
          [
            -66.151422,
            -17.383932
          ],
          [
            -66.151513,
            -17.383962
          ],
          [
            -66.151543,
            -17.38397
          ],
          [
            -66.152231,
            -17.384166
          ],
          [
            -66.152589,
            -17.384268
          ],
          [
            -66.152943,
            -17.384362
          ],
          [
            -66.153022,
            -17.384383
          ],
          [
            -66.15306,
            -17.384302
          ],
          [
            -66.153099,
            -17.384251
          ],
          [
            -66.153182,
            -17.384232
          ],
          [
            -66.153277,
            -17.384242
          ],
          [
            -66.153371,
            -17.384286
          ],
          [
            -66.153446,
            -17.384348
          ],
          [
            -66.153507,
            -17.384422
          ],
          [
            -66.153538,
            -17.384483
          ],
          [
            -66.153567,
            -17.384564
          ],
          [
            -66.153583,
            -17.384625
          ],
          [
            -66.153589,
            -17.384672
          ],
          [
            -66.153589,
            -17.384744
          ],
          [
            -66.153564,
            -17.384826
          ],
          [
            -66.153522,
            -17.384869
          ],
          [
            -66.153448,
            -17.384886
          ],
          [
            -66.153342,
            -17.384869
          ],
          [
            -66.153285,
            -17.384847
          ],
          [
            -66.153238,
            -17.384822
          ],
          [
            -66.153168,
            -17.384904
          ],
          [
            -66.152695,
            -17.385507
          ],
          [
            -66.152326,
            -17.386038
          ],
          [
            -66.152238,
            -17.386161
          ],
          [
            -66.152197,
            -17.386215
          ],
          [
            -66.152147,
            -17.386272
          ],
          [
            -66.152079,
            -17.386348
          ],
          [
            -66.151989,
            -17.386798
          ],
          [
            -66.151781,
            -17.387869
          ],
          [
            -66.151771,
            -17.387925
          ],
          [
            -66.15176,
            -17.388
          ],
          [
            -66.151611,
            -17.388925
          ],
          [
            -66.151604,
            -17.388963
          ],
          [
            -66.1516,
            -17.388988
          ],
          [
            -66.151594,
            -17.389029
          ],
          [
            -66.151417,
            -17.390035
          ],
          [
            -66.151233,
            -17.391123
          ],
          [
            -66.151221,
            -17.391186
          ],
          [
            -66.151208,
            -17.391273
          ],
          [
            -66.151198,
            -17.391337
          ],
          [
            -66.151126,
            -17.391729
          ],
          [
            -66.15104,
            -17.392193
          ],
          [
            -66.151028,
            -17.392245
          ],
          [
            -66.151021,
            -17.392284
          ],
          [
            -66.150842,
            -17.393227
          ],
          [
            -66.150832,
            -17.393279
          ],
          [
            -66.150822,
            -17.393334
          ],
          [
            -66.15064,
            -17.394328
          ],
          [
            -66.150442,
            -17.395355
          ],
          [
            -66.150386,
            -17.395644
          ],
          [
            -66.150236,
            -17.396417
          ],
          [
            -66.150023,
            -17.397561
          ],
          [
            -66.150017,
            -17.397637
          ],
          [
            -66.150014,
            -17.397688
          ],
          [
            -66.149949,
            -17.398476
          ],
          [
            -66.149941,
            -17.398553
          ],
          [
            -66.149907,
            -17.399003
          ],
          [
            -66.149849,
            -17.399867
          ],
          [
            -66.150022,
            -17.399873
          ],
          [
            -66.150125,
            -17.399876
          ],
          [
            -66.150221,
            -17.399889
          ],
          [
            -66.15035,
            -17.399919
          ],
          [
            -66.150359,
            -17.399922
          ],
          [
            -66.150441,
            -17.399951
          ],
          [
            -66.150566,
            -17.400006
          ],
          [
            -66.15073,
            -17.400113
          ],
          [
            -66.150872,
            -17.400238
          ],
          [
            -66.150974,
            -17.400334
          ],
          [
            -66.151083,
            -17.400467
          ],
          [
            -66.151158,
            -17.400587
          ],
          [
            -66.15124,
            -17.400754
          ],
          [
            -66.15129,
            -17.400901
          ],
          [
            -66.151311,
            -17.401041
          ],
          [
            -66.151318,
            -17.401207
          ],
          [
            -66.151304,
            -17.401331
          ],
          [
            -66.151274,
            -17.40147
          ],
          [
            -66.15122,
            -17.401588
          ],
          [
            -66.151061,
            -17.401901
          ],
          [
            -66.15102,
            -17.402016
          ],
          [
            -66.150982,
            -17.402131
          ],
          [
            -66.150961,
            -17.402256
          ],
          [
            -66.150943,
            -17.402375
          ],
          [
            -66.150947,
            -17.402591
          ],
          [
            -66.151001,
            -17.403136
          ],
          [
            -66.151008,
            -17.403267
          ],
          [
            -66.151023,
            -17.403469
          ],
          [
            -66.151025,
            -17.403845
          ],
          [
            -66.15101,
            -17.404142
          ],
          [
            -66.150971,
            -17.404419
          ],
          [
            -66.150913,
            -17.404686
          ],
          [
            -66.150872,
            -17.40493
          ],
          [
            -66.150868,
            -17.404951
          ],
          [
            -66.150868,
            -17.404967
          ],
          [
            -66.150867,
            -17.404995
          ],
          [
            -66.150863,
            -17.405052
          ],
          [
            -66.150768,
            -17.407635
          ],
          [
            -66.150788,
            -17.408412
          ],
          [
            -66.150782,
            -17.408776
          ],
          [
            -66.150814,
            -17.40934
          ],
          [
            -66.150827,
            -17.409598
          ],
          [
            -66.150923,
            -17.410411
          ],
          [
            -66.15102,
            -17.41141
          ],
          [
            -66.151075,
            -17.4119
          ],
          [
            -66.15114,
            -17.412367
          ],
          [
            -66.151181,
            -17.412687
          ],
          [
            -66.151265,
            -17.413225
          ],
          [
            -66.151179,
            -17.413273
          ],
          [
            -66.150334,
            -17.41372
          ],
          [
            -66.149357,
            -17.414242
          ],
          [
            -66.149592,
            -17.41452
          ],
          [
            -66.149759,
            -17.414696
          ],
          [
            -66.149916,
            -17.414881
          ],
          [
            -66.150048,
            -17.415089
          ],
          [
            -66.150147,
            -17.415268
          ],
          [
            -66.150222,
            -17.415457
          ],
          [
            -66.150279,
            -17.41562
          ],
          [
            -66.150312,
            -17.415788
          ],
          [
            -66.150333,
            -17.415936
          ],
          [
            -66.150362,
            -17.416201
          ],
          [
            -66.150385,
            -17.416487
          ],
          [
            -66.150383,
            -17.416561
          ],
          [
            -66.150368,
            -17.416656
          ],
          [
            -66.1503,
            -17.417085
          ],
          [
            -66.150198,
            -17.417568
          ],
          [
            -66.150125,
            -17.417964
          ],
          [
            -66.150099,
            -17.418058
          ],
          [
            -66.150075,
            -17.418125
          ],
          [
            -66.150034,
            -17.418204
          ],
          [
            -66.149809,
            -17.418529
          ],
          [
            -66.149359,
            -17.419166
          ],
          [
            -66.149337,
            -17.419238
          ],
          [
            -66.14933,
            -17.419273
          ],
          [
            -66.149323,
            -17.419308
          ],
          [
            -66.149317,
            -17.419365
          ],
          [
            -66.149329,
            -17.419467
          ],
          [
            -66.149351,
            -17.419641
          ],
          [
            -66.149273,
            -17.419672
          ],
          [
            -66.148994,
            -17.419559
          ],
          [
            -66.148955,
            -17.419561
          ],
          [
            -66.14892,
            -17.419578
          ],
          [
            -66.148892,
            -17.419604
          ],
          [
            -66.148875,
            -17.419635
          ],
          [
            -66.148864,
            -17.419674
          ],
          [
            -66.148878,
            -17.419966
          ],
          [
            -66.148913,
            -17.42043
          ],
          [
            -66.149463,
            -17.420597
          ],
          [
            -66.149461,
            -17.420667
          ],
          [
            -66.149467,
            -17.420887
          ],
          [
            -66.149545,
            -17.421087
          ],
          [
            -66.149607,
            -17.421498
          ],
          [
            -66.149649,
            -17.421694
          ],
          [
            -66.149732,
            -17.422196
          ],
          [
            -66.149797,
            -17.422542
          ],
          [
            -66.149827,
            -17.422717
          ],
          [
            -66.14993,
            -17.423113
          ],
          [
            -66.149989,
            -17.423261
          ],
          [
            -66.150041,
            -17.423313
          ],
          [
            -66.150107,
            -17.423347
          ],
          [
            -66.150166,
            -17.423367
          ],
          [
            -66.150232,
            -17.423369
          ],
          [
            -66.150288,
            -17.423352
          ],
          [
            -66.150336,
            -17.423324
          ],
          [
            -66.150848,
            -17.422899
          ],
          [
            -66.150968,
            -17.422822
          ],
          [
            -66.151087,
            -17.422749
          ],
          [
            -66.151179,
            -17.422715
          ],
          [
            -66.15138,
            -17.42267
          ],
          [
            -66.151517,
            -17.422683
          ],
          [
            -66.151632,
            -17.422721
          ],
          [
            -66.151727,
            -17.422777
          ],
          [
            -66.15179,
            -17.422838
          ],
          [
            -66.151884,
            -17.422989
          ],
          [
            -66.151897,
            -17.423074
          ],
          [
            -66.151915,
            -17.42319
          ],
          [
            -66.151945,
            -17.423334
          ],
          [
            -66.151965,
            -17.423417
          ],
          [
            -66.151995,
            -17.423495
          ],
          [
            -66.152058,
            -17.423632
          ],
          [
            -66.152065,
            -17.423686
          ],
          [
            -66.152063,
            -17.423717
          ],
          [
            -66.152045,
            -17.423744
          ],
          [
            -66.152006,
            -17.423753
          ],
          [
            -66.151978,
            -17.423745
          ],
          [
            -66.151946,
            -17.423727
          ],
          [
            -66.151901,
            -17.423677
          ],
          [
            -66.151723,
            -17.423473
          ],
          [
            -66.151654,
            -17.423412
          ],
          [
            -66.151627,
            -17.423387
          ],
          [
            -66.151467,
            -17.423285
          ],
          [
            -66.151398,
            -17.423243
          ],
          [
            -66.151316,
            -17.423206
          ],
          [
            -66.151246,
            -17.423188
          ],
          [
            -66.151198,
            -17.423192
          ],
          [
            -66.151187,
            -17.423338
          ],
          [
            -66.151163,
            -17.423611
          ],
          [
            -66.151169,
            -17.423663
          ],
          [
            -66.151197,
            -17.423701
          ],
          [
            -66.151245,
            -17.423725
          ],
          [
            -66.151348,
            -17.42376
          ],
          [
            -66.151375,
            -17.423774
          ],
          [
            -66.151411,
            -17.423798
          ],
          [
            -66.151475,
            -17.423851
          ],
          [
            -66.151543,
            -17.423926
          ],
          [
            -66.151639,
            -17.424038
          ],
          [
            -66.151666,
            -17.424089
          ],
          [
            -66.151724,
            -17.424287
          ],
          [
            -66.151832,
            -17.424911
          ],
          [
            -66.151356,
            -17.42499
          ],
          [
            -66.150594,
            -17.425112
          ],
          [
            -66.150554,
            -17.424874
          ],
          [
            -66.150459,
            -17.424379
          ],
          [
            -66.150103,
            -17.424475
          ],
          [
            -66.149953,
            -17.424518
          ],
          [
            -66.149907,
            -17.42454
          ],
          [
            -66.149524,
            -17.424695
          ],
          [
            -66.149344,
            -17.424736
          ],
          [
            -66.149099,
            -17.424786
          ],
          [
            -66.148983,
            -17.424794
          ],
          [
            -66.149006,
            -17.423851
          ],
          [
            -66.148914,
            -17.42381
          ],
          [
            -66.148764,
            -17.423745
          ],
          [
            -66.148686,
            -17.423727
          ],
          [
            -66.148546,
            -17.423734
          ],
          [
            -66.148395,
            -17.423753
          ],
          [
            -66.148353,
            -17.423767
          ],
          [
            -66.148332,
            -17.423774
          ],
          [
            -66.148176,
            -17.423805
          ],
          [
            -66.147936,
            -17.423829
          ],
          [
            -66.147732,
            -17.423798
          ],
          [
            -66.147484,
            -17.423738
          ],
          [
            -66.147268,
            -17.423732
          ],
          [
            -66.147172,
            -17.423722
          ],
          [
            -66.147034,
            -17.423686
          ],
          [
            -66.146874,
            -17.423632
          ],
          [
            -66.146659,
            -17.423589
          ],
          [
            -66.146643,
            -17.423586
          ],
          [
            -66.146196,
            -17.423546
          ],
          [
            -66.146093,
            -17.423543
          ],
          [
            -66.146007,
            -17.423553
          ],
          [
            -66.145909,
            -17.423571
          ],
          [
            -66.145776,
            -17.423569
          ],
          [
            -66.145627,
            -17.423553
          ],
          [
            -66.145576,
            -17.423545
          ],
          [
            -66.14553,
            -17.423538
          ],
          [
            -66.145352,
            -17.423513
          ],
          [
            -66.145148,
            -17.423478
          ],
          [
            -66.144994,
            -17.423437
          ],
          [
            -66.144817,
            -17.423402
          ],
          [
            -66.144564,
            -17.423377
          ],
          [
            -66.144374,
            -17.423374
          ],
          [
            -66.14421,
            -17.423402
          ],
          [
            -66.144024,
            -17.423432
          ],
          [
            -66.143832,
            -17.423485
          ],
          [
            -66.143739,
            -17.423513
          ],
          [
            -66.143637,
            -17.423554
          ],
          [
            -66.143553,
            -17.4236
          ],
          [
            -66.14337,
            -17.423741
          ],
          [
            -66.143255,
            -17.423905
          ],
          [
            -66.143154,
            -17.424112
          ],
          [
            -66.142914,
            -17.423926
          ],
          [
            -66.142793,
            -17.423814
          ],
          [
            -66.142732,
            -17.423763
          ],
          [
            -66.142677,
            -17.423875
          ],
          [
            -66.142648,
            -17.42397
          ],
          [
            -66.14264,
            -17.424281
          ],
          [
            -66.142643,
            -17.424329
          ],
          [
            -66.142605,
            -17.424616
          ],
          [
            -66.142416,
            -17.425471
          ],
          [
            -66.142346,
            -17.425739
          ],
          [
            -66.142251,
            -17.42616
          ],
          [
            -66.142679,
            -17.426276
          ],
          [
            -66.142702,
            -17.426242
          ],
          [
            -66.142896,
            -17.4263
          ],
          [
            -66.143266,
            -17.426411
          ],
          [
            -66.143258,
            -17.426499
          ],
          [
            -66.143102,
            -17.427119
          ],
          [
            -66.143006,
            -17.427381
          ],
          [
            -66.142871,
            -17.427682
          ],
          [
            -66.14277,
            -17.427921
          ],
          [
            -66.142743,
            -17.428007
          ],
          [
            -66.142523,
            -17.42842
          ],
          [
            -66.142445,
            -17.4286
          ],
          [
            -66.142276,
            -17.428876
          ],
          [
            -66.142091,
            -17.428786
          ],
          [
            -66.142017,
            -17.428772
          ],
          [
            -66.14194,
            -17.428766
          ],
          [
            -66.141892,
            -17.428778
          ],
          [
            -66.141825,
            -17.42882
          ],
          [
            -66.14175,
            -17.428873
          ],
          [
            -66.141663,
            -17.428919
          ],
          [
            -66.141526,
            -17.42903
          ],
          [
            -66.141143,
            -17.429365
          ],
          [
            -66.141024,
            -17.429493
          ],
          [
            -66.140923,
            -17.429635
          ],
          [
            -66.140874,
            -17.429675
          ],
          [
            -66.14082,
            -17.429689
          ],
          [
            -66.140718,
            -17.429681
          ],
          [
            -66.140325,
            -17.429605
          ],
          [
            -66.139679,
            -17.429459
          ],
          [
            -66.139017,
            -17.42932
          ],
          [
            -66.138975,
            -17.429482
          ],
          [
            -66.13894,
            -17.429577
          ],
          [
            -66.138875,
            -17.429711
          ],
          [
            -66.138565,
            -17.430257
          ],
          [
            -66.138336,
            -17.430145
          ],
          [
            -66.138313,
            -17.4302
          ],
          [
            -66.138257,
            -17.430241
          ],
          [
            -66.137818,
            -17.431025
          ],
          [
            -66.137413,
            -17.430797
          ],
          [
            -66.137395,
            -17.43076
          ],
          [
            -66.137359,
            -17.430726
          ],
          [
            -66.137198,
            -17.430635
          ],
          [
            -66.137078,
            -17.430573
          ],
          [
            -66.136971,
            -17.43053
          ],
          [
            -66.136908,
            -17.430507
          ],
          [
            -66.13686,
            -17.430485
          ],
          [
            -66.136836,
            -17.430464
          ],
          [
            -66.136812,
            -17.430416
          ],
          [
            -66.136796,
            -17.430336
          ],
          [
            -66.136532,
            -17.430638
          ],
          [
            -66.136367,
            -17.430832
          ],
          [
            -66.136226,
            -17.431036
          ],
          [
            -66.136034,
            -17.431248
          ],
          [
            -66.135882,
            -17.431432
          ],
          [
            -66.13524,
            -17.432211
          ],
          [
            -66.135169,
            -17.43229
          ],
          [
            -66.135041,
            -17.432335
          ],
          [
            -66.135096,
            -17.432356
          ],
          [
            -66.135119,
            -17.432385
          ],
          [
            -66.135119,
            -17.432417
          ],
          [
            -66.135108,
            -17.432455
          ],
          [
            -66.135066,
            -17.432541
          ],
          [
            -66.135022,
            -17.432735
          ],
          [
            -66.134928,
            -17.433329
          ],
          [
            -66.134873,
            -17.433769
          ],
          [
            -66.13482,
            -17.434091
          ],
          [
            -66.13507,
            -17.434108
          ],
          [
            -66.135189,
            -17.434103
          ],
          [
            -66.135278,
            -17.434086
          ],
          [
            -66.135331,
            -17.434056
          ],
          [
            -66.135403,
            -17.433997
          ],
          [
            -66.135476,
            -17.434086
          ],
          [
            -66.135592,
            -17.434225
          ],
          [
            -66.135667,
            -17.434274
          ],
          [
            -66.135788,
            -17.434314
          ],
          [
            -66.136155,
            -17.434541
          ],
          [
            -66.136029,
            -17.434674
          ],
          [
            -66.13624,
            -17.435454
          ],
          [
            -66.136791,
            -17.435317
          ],
          [
            -66.136943,
            -17.435911
          ],
          [
            -66.13699,
            -17.436114
          ],
          [
            -66.136924,
            -17.436139
          ],
          [
            -66.136731,
            -17.436182
          ],
          [
            -66.136459,
            -17.43624
          ]
        ]
      }
    }
  ]
}