{
  "type": "FeatureCollection",
  "features": [
    {
      "type": "Feature",
      "properties": {
        "route_id": "10668749",
        "route_short_name": "P",
        "route_long_name": "Trufi P: Maica Central \u2192 Calle Gran Chaco"
      },
      "geometry": {
        "type": "LineString",
        "coordinates": [
          [
            -66.201705,
            -17.424079
          ],
          [
            -66.2017,
            -17.423934
          ],
          [
            -66.201702,
            -17.423832
          ],
          [
            -66.201727,
            -17.423736
          ],
          [
            -66.201857,
            -17.423398
          ],
          [
            -66.201986,
            -17.423041
          ],
          [
            -66.202032,
            -17.422878
          ],
          [
            -66.20205,
            -17.422794
          ],
          [
            -66.202056,
            -17.422606
          ],
          [
            -66.202044,
            -17.42226
          ],
          [
            -66.202035,
            -17.422101
          ],
          [
            -66.20201,
            -17.421742
          ],
          [
            -66.201982,
            -17.421328
          ],
          [
            -66.20194,
            -17.420647
          ],
          [
            -66.201879,
            -17.419623
          ],
          [
            -66.201825,
            -17.418755
          ],
          [
            -66.201793,
            -17.418167
          ],
          [
            -66.201787,
            -17.418054
          ],
          [
            -66.201745,
            -17.417104
          ],
          [
            -66.201702,
            -17.416387
          ],
          [
            -66.201662,
            -17.415746
          ],
          [
            -66.201356,
            -17.41565
          ],
          [
            -66.200711,
            -17.415454
          ],
          [
            -66.200488,
            -17.415412
          ],
          [
            -66.200323,
            -17.415388
          ],
          [
            -66.200036,
            -17.415377
          ],
          [
            -66.199644,
            -17.415356
          ],
          [
            -66.199589,
            -17.41533
          ],
          [
            -66.199535,
            -17.415277
          ],
          [
            -66.199368,
            -17.415017
          ],
          [
            -66.199315,
            -17.414962
          ],
          [
            -66.199248,
            -17.414923
          ],
          [
            -66.199021,
            -17.414818
          ],
          [
            -66.198015,
            -17.414435
          ],
          [
            -66.197697,
            -17.414288
          ],
          [
            -66.197456,
            -17.414191
          ],
          [
            -66.196863,
            -17.413961
          ],
          [
            -66.19639,
            -17.413769
          ],
          [
            -66.195953,
            -17.413601
          ],
          [
            -66.195836,
            -17.413573
          ],
          [
            -66.195713,
            -17.413554
          ],
          [
            -66.19557,
            -17.413553
          ],
          [
            -66.195067,
            -17.413577
          ],
          [
            -66.194951,
            -17.413576
          ],
          [
            -66.194856,
            -17.413568
          ],
          [
            -66.194738,
            -17.413525
          ],
          [
            -66.194575,
            -17.413452
          ],
          [
            -66.194387,
            -17.413346
          ],
          [
            -66.194195,
            -17.413274
          ],
          [
            -66.19391,
            -17.413158
          ],
          [
            -66.193693,
            -17.41309
          ],
          [
            -66.1936,
            -17.413066
          ],
          [
            -66.193468,
            -17.412986
          ],
          [
            -66.19307,
            -17.412799
          ],
          [
            -66.19243,
            -17.412502
          ],
          [
            -66.192363,
            -17.412471
          ],
          [
            -66.192287,
            -17.412452
          ],
          [
            -66.192136,
            -17.412441
          ],
          [
            -66.191915,
            -17.412438
          ],
          [
            -66.191666,
            -17.412454
          ],
          [
            -66.190988,
            -17.412518
          ],
          [
            -66.190789,
            -17.412447
          ],
          [
            -66.190668,
            -17.412416
          ],
          [
            -66.190108,
            -17.412317
          ],
          [
            -66.190028,
            -17.412289
          ],
          [
            -66.18997,
            -17.412242
          ],
          [
            -66.192961,
            -17.40968
          ],
          [
            -66.19305,
            -17.409607
          ],
          [
            -66.193073,
            -17.409588
          ],
          [
            -66.191076,
            -17.407242
          ],
          [
            -66.19094,
            -17.407121
          ],
          [
            -66.190777,
            -17.407027
          ],
          [
            -66.190591,
            -17.40696
          ],
          [
            -66.190243,
            -17.406897
          ],
          [
            -66.190095,
            -17.405887
          ],
          [
            -66.190085,
            -17.405828
          ],
          [
            -66.189907,
            -17.404567
          ],
          [
            -66.189853,
            -17.404007
          ],
          [
            -66.189791,
            -17.403543
          ],
          [
            -66.189774,
            -17.403404
          ],
          [
            -66.18976,
            -17.403275
          ],
          [
            -66.189711,
            -17.402914
          ],
          [
            -66.189653,
            -17.40263
          ],
          [
            -66.189557,
            -17.402137
          ],
          [
            -66.18953,
            -17.401576
          ],
          [
            -66.189486,
            -17.401226
          ],
          [
            -66.189382,
            -17.4006
          ],
          [
            -66.189371,
            -17.400468
          ],
          [
            -66.189367,
            -17.400421
          ],
          [
            -66.189365,
            -17.400394
          ],
          [
            -66.18935,
            -17.400275
          ],
          [
            -66.189193,
            -17.399064
          ],
          [
            -66.189149,
            -17.398968
          ],
          [
            -66.188327,
            -17.399041
          ],
          [
            -66.187502,
            -17.39911
          ],
          [
            -66.186549,
            -17.3992
          ],
          [
            -66.186437,
            -17.39925
          ],
          [
            -66.186343,
            -17.399299
          ],
          [
            -66.186269,
            -17.399344
          ],
          [
            -66.186227,
            -17.399367
          ],
          [
            -66.18618,
            -17.399378
          ],
          [
            -66.186131,
            -17.399374
          ],
          [
            -66.186086,
            -17.399358
          ],
          [
            -66.186048,
            -17.399329
          ],
          [
            -66.186019,
            -17.399288
          ],
          [
            -66.185976,
            -17.399267
          ],
          [
            -66.185917,
            -17.399245
          ],
          [
            -66.185841,
            -17.399229
          ],
          [
            -66.184787,
            -17.399315
          ],
          [
            -66.184083,
            -17.399384
          ],
          [
            -66.182552,
            -17.399523
          ],
          [
            -66.182577,
            -17.399611
          ],
          [
            -66.182682,
            -17.399978
          ],
          [
            -66.182773,
            -17.400299
          ],
          [
            -66.182837,
            -17.400538
          ],
          [
            -66.182877,
            -17.400691
          ],
          [
            -66.182898,
            -17.400753
          ],
          [
            -66.182908,
            -17.400796
          ],
          [
            -66.182941,
            -17.400894
          ],
          [
            -66.182971,
            -17.40095
          ],
          [
            -66.182999,
            -17.400997
          ],
          [
            -66.183026,
            -17.401036
          ],
          [
            -66.183038,
            -17.401054
          ],
          [
            -66.183067,
            -17.401092
          ],
          [
            -66.183083,
            -17.401137
          ],
          [
            -66.183084,
            -17.401184
          ],
          [
            -66.18307,
            -17.401229
          ],
          [
            -66.183043,
            -17.401269
          ],
          [
            -66.183004,
            -17.401298
          ],
          [
            -66.182958,
            -17.401315
          ],
          [
            -66.18286,
            -17.401371
          ],
          [
            -66.182837,
            -17.401384
          ],
          [
            -66.182781,
            -17.401421
          ],
          [
            -66.182711,
            -17.401482
          ],
          [
            -66.182656,
            -17.401535
          ],
          [
            -66.182121,
            -17.402234
          ],
          [
            -66.181465,
            -17.403092
          ],
          [
            -66.180817,
            -17.403906
          ],
          [
            -66.180632,
            -17.404129
          ],
          [
            -66.180512,
            -17.404251
          ],
          [
            -66.18023,
            -17.404509
          ],
          [
            -66.179972,
            -17.404726
          ],
          [
            -66.179789,
            -17.404861
          ],
          [
            -66.179701,
            -17.404914
          ],
          [
            -66.179285,
            -17.405157
          ],
          [
            -66.178122,
            -17.405754
          ],
          [
            -66.177626,
            -17.406005
          ],
          [
            -66.177329,
            -17.406175
          ],
          [
            -66.177058,
            -17.406365
          ],
          [
            -66.176646,
            -17.406681
          ],
          [
            -66.176554,
            -17.406754
          ],
          [
            -66.176215,
            -17.407046
          ],
          [
            -66.176112,
            -17.407153
          ],
          [
            -66.1761,
            -17.407176
          ],
          [
            -66.175692,
            -17.407688
          ],
          [
            -66.175089,
            -17.408482
          ],
          [
            -66.174863,
            -17.408787
          ],
          [
            -66.174773,
            -17.408907
          ],
          [
            -66.174706,
            -17.408975
          ],
          [
            -66.174605,
            -17.409063
          ],
          [
            -66.174538,
            -17.409129
          ],
          [
            -66.17421,
            -17.409481
          ],
          [
            -66.174158,
            -17.409531
          ],
          [
            -66.174099,
            -17.409619
          ],
          [
            -66.174066,
            -17.409677
          ],
          [
            -66.174006,
            -17.409748
          ],
          [
            -66.173912,
            -17.409862
          ],
          [
            -66.173875,
            -17.409898
          ],
          [
            -66.173808,
            -17.409939
          ],
          [
            -66.173687,
            -17.410005
          ],
          [
            -66.173569,
            -17.410047
          ],
          [
            -66.173317,
            -17.410109
          ],
          [
            -66.173116,
            -17.410123
          ],
          [
            -66.173017,
            -17.410133
          ],
          [
            -66.172731,
            -17.41014
          ],
          [
            -66.171822,
            -17.410142
          ],
          [
            -66.171219,
            -17.410144
          ],
          [
            -66.171138,
            -17.410154
          ],
          [
            -66.170922,
            -17.410212
          ],
          [
            -66.1709,
            -17.410221
          ],
          [
            -66.170877,
            -17.410223
          ],
          [
            -66.170853,
            -17.410218
          ],
          [
            -66.170831,
            -17.410206
          ],
          [
            -66.170815,
            -17.410187
          ],
          [
            -66.170807,
            -17.410163
          ],
          [
            -66.170807,
            -17.410139
          ],
          [
            -66.170801,
            -17.4101
          ],
          [
            -66.170795,
            -17.410013
          ],
          [
            -66.170787,
            -17.409949
          ],
          [
            -66.170558,
            -17.409136
          ],
          [
            -66.17054,
            -17.409057
          ],
          [
            -66.17035,
            -17.408321
          ],
          [
            -66.17034,
            -17.408297
          ],
          [
            -66.170316,
            -17.408273
          ],
          [
            -66.17026,
            -17.408234
          ],
          [
            -66.170073,
            -17.408305
          ],
          [
            -66.168889,
            -17.408722
          ],
          [
            -66.168592,
            -17.40883
          ],
          [
            -66.168376,
            -17.408915
          ],
          [
            -66.168302,
            -17.408942
          ],
          [
            -66.168269,
            -17.408869
          ],
          [
            -66.167832,
            -17.407977
          ],
          [
            -66.167625,
            -17.408081
          ],
          [
            -66.167547,
            -17.408063
          ],
          [
            -66.1675,
            -17.408039
          ],
          [
            -66.167488,
            -17.408033
          ],
          [
            -66.167471,
            -17.408002
          ],
          [
            -66.167459,
            -17.407982
          ],
          [
            -66.16744,
            -17.407914
          ],
          [
            -66.167423,
            -17.407791
          ],
          [
            -66.167597,
            -17.407712
          ],
          [
            -66.167678,
            -17.407672
          ],
          [
            -66.167324,
            -17.406948
          ],
          [
            -66.166981,
            -17.406008
          ],
          [
            -66.166954,
            -17.405862
          ],
          [
            -66.166807,
            -17.405116
          ],
          [
            -66.166746,
            -17.404459
          ],
          [
            -66.166715,
            -17.403816
          ],
          [
            -66.166533,
            -17.403482
          ],
          [
            -66.166435,
            -17.403287
          ],
          [
            -66.166404,
            -17.403226
          ],
          [
            -66.166185,
            -17.402791
          ],
          [
            -66.166066,
            -17.402554
          ],
          [
            -66.165645,
            -17.401682
          ],
          [
            -66.165149,
            -17.400665
          ],
          [
            -66.1651,
            -17.400564
          ],
          [
            -66.165066,
            -17.400496
          ],
          [
            -66.165026,
            -17.400399
          ],
          [
            -66.164819,
            -17.399958
          ],
          [
            -66.164765,
            -17.399884
          ],
          [
            -66.164737,
            -17.399846
          ],
          [
            -66.164627,
            -17.399715
          ],
          [
            -66.164563,
            -17.399636
          ],
          [
            -66.164392,
            -17.399438
          ],
          [
            -66.164274,
            -17.399285
          ],
          [
            -66.164215,
            -17.399213
          ],
          [
            -66.164156,
            -17.399133
          ],
          [
            -66.164096,
            -17.399054
          ],
          [
            -66.164071,
            -17.39902
          ],
          [
            -66.1639,
            -17.398791
          ],
          [
            -66.16329,
            -17.398022
          ],
          [
            -66.162978,
            -17.397692
          ],
          [
            -66.162883,
            -17.39763
          ],
          [
            -66.162854,
            -17.397611
          ],
          [
            -66.162805,
            -17.397577
          ],
          [
            -66.162717,
            -17.397532
          ],
          [
            -66.162606,
            -17.397508
          ],
          [
            -66.162272,
            -17.397446
          ],
          [
            -66.162122,
            -17.397418
          ],
          [
            -66.161432,
            -17.397301
          ],
          [
            -66.160232,
            -17.397084
          ],
          [
            -66.159147,
            -17.396898
          ],
          [
            -66.158183,
            -17.396723
          ],
          [
            -66.15813,
            -17.396715
          ],
          [
            -66.158039,
            -17.396701
          ],
          [
            -66.157998,
            -17.396694
          ],
          [
            -66.156972,
            -17.396526
          ],
          [
            -66.156627,
            -17.396464
          ],
          [
            -66.156456,
            -17.396435
          ],
          [
            -66.155882,
            -17.39633
          ],
          [
            -66.154794,
            -17.396134
          ],
          [
            -66.15467,
            -17.396758
          ],
          [
            -66.15458,
            -17.397192
          ],
          [
            -66.154382,
            -17.398223
          ],
          [
            -66.154227,
            -17.399006
          ],
          [
            -66.154206,
            -17.399084
          ],
          [
            -66.154045,
            -17.399999
          ],
          [
            -66.15393,
            -17.400709
          ],
          [
            -66.153977,
            -17.401365
          ],
          [
            -66.15364,
            -17.401374
          ],
          [
            -66.153295,
            -17.401383
          ],
          [
            -66.152196,
            -17.401461
          ],
          [
            -66.151274,
            -17.40147
          ],
          [
            -66.151186,
            -17.401446
          ],
          [
            -66.15122,
            -17.401284
          ],
          [
            -66.151222,
            -17.401146
          ],
          [
            -66.151208,
            -17.401011
          ],
          [
            -66.151194,
            -17.400919
          ],
          [
            -66.15116,
            -17.400784
          ],
          [
            -66.151108,
            -17.400672
          ],
          [
            -66.151067,
            -17.400598
          ],
          [
            -66.151,
            -17.400493
          ],
          [
            -66.150916,
            -17.400394
          ],
          [
            -66.150843,
            -17.400317
          ],
          [
            -66.150702,
            -17.400191
          ],
          [
            -66.150598,
            -17.40012
          ],
          [
            -66.150511,
            -17.400071
          ],
          [
            -66.150393,
            -17.400027
          ],
          [
            -66.150272,
            -17.399991
          ],
          [
            -66.150116,
            -17.399965
          ],
          [
            -66.149822,
            -17.399953
          ],
          [
            -66.149783,
            -17.400029
          ],
          [
            -66.149705,
            -17.400127
          ],
          [
            -66.149054,
            -17.400803
          ],
          [
            -66.148986,
            -17.400932
          ],
          [
            -66.148957,
            -17.401046
          ],
          [
            -66.148953,
            -17.401143
          ],
          [
            -66.14892,
            -17.401287
          ],
          [
            -66.14884,
            -17.401536
          ],
          [
            -66.14875,
            -17.401754
          ],
          [
            -66.148693,
            -17.401854
          ],
          [
            -66.148609,
            -17.40198
          ],
          [
            -66.148496,
            -17.402124
          ],
          [
            -66.148378,
            -17.402247
          ],
          [
            -66.148261,
            -17.402353
          ],
          [
            -66.148143,
            -17.402439
          ],
          [
            -66.147952,
            -17.402574
          ],
          [
            -66.147787,
            -17.402674
          ],
          [
            -66.147318,
            -17.402906
          ],
          [
            -66.147007,
            -17.403065
          ],
          [
            -66.146861,
            -17.40321
          ],
          [
            -66.146778,
            -17.403311
          ],
          [
            -66.146697,
            -17.403404
          ],
          [
            -66.146366,
            -17.403785
          ],
          [
            -66.14615,
            -17.404056
          ],
          [
            -66.145992,
            -17.40427
          ],
          [
            -66.145888,
            -17.404455
          ],
          [
            -66.145736,
            -17.404743
          ],
          [
            -66.145686,
            -17.404852
          ],
          [
            -66.145466,
            -17.40542
          ],
          [
            -66.145428,
            -17.405555
          ],
          [
            -66.145404,
            -17.405652
          ],
          [
            -66.145374,
            -17.405757
          ],
          [
            -66.145352,
            -17.405879
          ],
          [
            -66.145337,
            -17.406043
          ],
          [
            -66.14534,
            -17.406149
          ],
          [
            -66.145363,
            -17.406284
          ],
          [
            -66.145369,
            -17.40633
          ],
          [
            -66.14536,
            -17.406384
          ],
          [
            -66.145339,
            -17.406428
          ],
          [
            -66.1453,
            -17.40647
          ],
          [
            -66.145258,
            -17.406499
          ],
          [
            -66.1452,
            -17.406511
          ],
          [
            -66.145141,
            -17.406506
          ],
          [
            -66.145083,
            -17.4065
          ],
          [
            -66.145005,
            -17.40649
          ],
          [
            -66.144932,
            -17.406485
          ],
          [
            -66.144863,
            -17.406492
          ],
          [
            -66.144794,
            -17.40652
          ],
          [
            -66.144749,
            -17.40655
          ],
          [
            -66.1447,
            -17.406612
          ],
          [
            -66.144642,
            -17.406684
          ],
          [
            -66.144355,
            -17.407061
          ],
          [
            -66.144162,
            -17.407307
          ],
          [
            -66.143995,
            -17.407518
          ],
          [
            -66.143601,
            -17.408013
          ],
          [
            -66.143212,
            -17.40857
          ],
          [
            -66.143057,
            -17.408806
          ],
          [
            -66.142909,
            -17.409074
          ],
          [
            -66.142813,
            -17.409286
          ],
          [
            -66.1427,
            -17.4096
          ],
          [
            -66.142628,
            -17.40982
          ],
          [
            -66.142588,
            -17.410001
          ],
          [
            -66.142564,
            -17.410113
          ],
          [
            -66.142549,
            -17.410187
          ],
          [
            -66.142541,
            -17.410224
          ],
          [
            -66.142513,
            -17.410421
          ],
          [
            -66.14251,
            -17.410504
          ],
          [
            -66.142506,
            -17.410622
          ],
          [
            -66.142503,
            -17.410708
          ],
          [
            -66.14249,
            -17.411554
          ],
          [
            -66.142475,
            -17.412072
          ],
          [
            -66.142462,
            -17.412292
          ],
          [
            -66.1424,
            -17.413348
          ],
          [
            -66.142393,
            -17.413521
          ],
          [
            -66.142378,
            -17.413799
          ],
          [
            -66.142351,
            -17.414019
          ],
          [
            -66.142314,
            -17.414188
          ],
          [
            -66.142238,
            -17.414433
          ],
          [
            -66.142116,
            -17.414731
          ],
          [
            -66.141984,
            -17.414977
          ],
          [
            -66.14183,
            -17.415198
          ],
          [
            -66.141638,
            -17.415436
          ],
          [
            -66.141492,
            -17.415581
          ],
          [
            -66.141248,
            -17.4158
          ],
          [
            -66.141045,
            -17.415943
          ],
          [
            -66.140892,
            -17.416033
          ],
          [
            -66.140702,
            -17.416136
          ],
          [
            -66.140542,
            -17.416213
          ],
          [
            -66.140395,
            -17.416275
          ],
          [
            -66.140259,
            -17.416327
          ],
          [
            -66.138701,
            -17.416935
          ],
          [
            -66.138245,
            -17.417108
          ],
          [
            -66.138068,
            -17.417186
          ],
          [
            -66.137785,
            -17.417332
          ],
          [
            -66.137496,
            -17.417486
          ],
          [
            -66.137196,
            -17.41766
          ],
          [
            -66.137055,
            -17.417749
          ],
          [
            -66.137244,
            -17.4179
          ],
          [
            -66.137758,
            -17.418353
          ],
          [
            -66.138265,
            -17.418816
          ],
          [
            -66.138771,
            -17.41928
          ],
          [
            -66.139209,
            -17.419667
          ],
          [
            -66.139237,
            -17.419677
          ],
          [
            -66.139268,
            -17.419679
          ],
          [
            -66.139298,
            -17.419674
          ],
          [
            -66.139333,
            -17.419662
          ],
          [
            -66.139364,
            -17.419632
          ],
          [
            -66.139437,
            -17.419575
          ],
          [
            -66.139517,
            -17.419513
          ],
          [
            -66.139553,
            -17.419487
          ],
          [
            -66.139593,
            -17.419466
          ],
          [
            -66.139635,
            -17.419451
          ],
          [
            -66.139679,
            -17.419442
          ],
          [
            -66.139724,
            -17.419441
          ],
          [
            -66.139769,
            -17.419445
          ],
          [
            -66.139813,
            -17.419456
          ],
          [
            -66.139854,
            -17.419474
          ],
          [
            -66.139893,
            -17.419497
          ],
          [
            -66.139926,
            -17.419526
          ],
          [
            -66.139955,
            -17.419559
          ],
          [
            -66.139978,
            -17.419596
          ],
          [
            -66.139995,
            -17.419635
          ],
          [
            -66.140005,
            -17.419677
          ],
          [
            -66.140009,
            -17.419714
          ],
          [
            -66.140006,
            -17.419763
          ],
          [
            -66.139996,
            -17.419804
          ],
          [
            -66.139979,
            -17.419844
          ],
          [
            -66.139957,
            -17.419881
          ],
          [
            -66.139928,
            -17.419914
          ],
          [
            -66.139895,
            -17.419943
          ],
          [
            -66.139858,
            -17.419967
          ],
          [
            -66.139817,
            -17.419985
          ],
          [
            -66.139774,
            -17.419996
          ],
          [
            -66.139729,
            -17.420002
          ],
          [
            -66.139684,
            -17.420001
          ],
          [
            -66.13964,
            -17.419993
          ],
          [
            -66.139598,
            -17.419979
          ],
          [
            -66.139558,
            -17.419959
          ],
          [
            -66.139522,
            -17.419933
          ],
          [
            -66.13949,
            -17.419903
          ],
          [
            -66.139397,
            -17.419831
          ],
          [
            -66.139366,
            -17.419818
          ],
          [
            -66.139331,
            -17.419813
          ],
          [
            -66.139304,
            -17.419815
          ],
          [
            -66.139269,
            -17.419826
          ],
          [
            -66.139244,
            -17.419841
          ],
          [
            -66.138494,
            -17.420627
          ],
          [
            -66.138093,
            -17.421026
          ],
          [
            -66.137776,
            -17.421357
          ],
          [
            -66.137185,
            -17.421958
          ],
          [
            -66.136865,
            -17.422289
          ],
          [
            -66.136308,
            -17.422853
          ],
          [
            -66.136095,
            -17.423068
          ],
          [
            -66.135499,
            -17.423698
          ],
          [
            -66.135465,
            -17.42372
          ],
          [
            -66.135407,
            -17.423741
          ],
          [
            -66.135347,
            -17.423754
          ],
          [
            -66.134855,
            -17.423721
          ],
          [
            -66.134732,
            -17.423721
          ],
          [
            -66.134635,
            -17.423736
          ],
          [
            -66.134541,
            -17.423785
          ],
          [
            -66.134462,
            -17.423839
          ],
          [
            -66.133796,
            -17.424387
          ],
          [
            -66.133387,
            -17.42473
          ],
          [
            -66.132634,
            -17.42537
          ],
          [
            -66.131893,
            -17.425999
          ],
          [
            -66.131323,
            -17.426483
          ],
          [
            -66.130769,
            -17.426965
          ],
          [
            -66.130666,
            -17.427065
          ],
          [
            -66.130557,
            -17.427173
          ],
          [
            -66.130454,
            -17.42729
          ],
          [
            -66.130392,
            -17.427364
          ],
          [
            -66.129794,
            -17.428083
          ],
          [
            -66.129097,
            -17.428901
          ],
          [
            -66.128948,
            -17.429095
          ],
          [
            -66.128845,
            -17.429223
          ],
          [
            -66.12873,
            -17.429396
          ],
          [
            -66.128531,
            -17.429737
          ],
          [
            -66.128043,
            -17.430633
          ],
          [
            -66.127602,
            -17.431475
          ],
          [
            -66.126981,
            -17.432661
          ],
          [
            -66.126895,
            -17.432829
          ],
          [
            -66.126714,
            -17.43315
          ],
          [
            -66.126377,
            -17.433676
          ],
          [
            -66.126003,
            -17.434251
          ],
          [
            -66.125366,
            -17.43523
          ],
          [
            -66.125306,
            -17.435342
          ],
          [
            -66.125283,
            -17.435408
          ],
          [
            -66.125262,
            -17.435469
          ],
          [
            -66.125241,
            -17.435608
          ],
          [
            -66.125242,
            -17.435713
          ],
          [
            -66.125258,
            -17.435824
          ],
          [
            -66.125297,
            -17.435961
          ],
          [
            -66.125404,
            -17.436297
          ],
          [
            -66.125455,
            -17.436497
          ],
          [
            -66.125502,
            -17.43671
          ],
          [
            -66.125634,
            -17.437338
          ],
          [
            -66.125659,
            -17.437498
          ],
          [
            -66.125563,
            -17.43753
          ],
          [
            -66.125442,
            -17.437566
          ],
          [
            -66.125295,
            -17.437596
          ],
          [
            -66.124901,
            -17.437652
          ],
          [
            -66.124681,
            -17.43767
          ],
          [
            -66.124477,
            -17.437652
          ],
          [
            -66.124131,
            -17.437614
          ],
          [
            -66.123084,
            -17.437448
          ],
          [
            -66.122091,
            -17.437287
          ],
          [
            -66.122021,
            -17.437278
          ],
          [
            -66.121046,
            -17.43713
          ],
          [
            -66.119815,
            -17.436927
          ],
          [
            -66.119618,
            -17.436949
          ],
          [
            -66.119452,
            -17.436953
          ],
          [
            -66.118886,
            -17.436972
          ],
          [
            -66.118416,
            -17.436997
          ],
          [
            -66.11843,
            -17.437634
          ],
          [
            -66.118406,
            -17.438108
          ],
          [
            -66.118332,
            -17.438847
          ],
          [
            -66.118328,
            -17.439337
          ],
          [
            -66.118319,
            -17.439824
          ],
          [
            -66.11831,
            -17.439889
          ],
          [
            -66.116551,
            -17.439965
          ],
          [
            -66.116563,
            -17.440135
          ],
          [
            -66.116585,
            -17.440792
          ],
          [
            -66.116605,
            -17.441245
          ],
          [
            -66.116608,
            -17.441359
          ],
          [
            -66.116612,
            -17.441415
          ],
          [
            -66.116612,
            -17.441438
          ],
          [
            -66.116617,
            -17.441537
          ],
          [
            -66.11662,
            -17.441595
          ],
          [
            -66.116648,
            -17.442059
          ],
          [
            -66.116676,
            -17.442574
          ],
          [
            -66.116698,
            -17.442965
          ],
          [
            -66.116727,
            -17.443813
          ],
          [
            -66.116728,
            -17.44384
          ],
          [
            -66.116732,
            -17.443926
          ],
          [
            -66.116764,
            -17.444661
          ],
          [
            -66.116789,
            -17.445204
          ],
          [
            -66.116801,
            -17.445512
          ],
          [
            -66.116815,
            -17.445852
          ],
          [
            -66.116827,
            -17.446036
          ],
          [
            -66.116846,
            -17.446359
          ],
          [
            -66.116887,
            -17.447443
          ],
          [
            -66.116902,
            -17.447677
          ],
          [
            -66.116911,
            -17.447931
          ],
          [
            -66.116946,
            -17.448662
          ],
          [
            -66.116979,
            -17.449404
          ],
          [
            -66.11702,
            -17.449686
          ],
          [
            -66.117423,
            -17.449887
          ],
          [
            -66.117503,
            -17.449934
          ],
          [
            -66.117289,
            -17.450305
          ],
          [
            -66.117048,
            -17.450762
          ],
          [
            -66.116929,
            -17.450981
          ],
          [
            -66.116761,
            -17.451333
          ],
          [
            -66.11674,
            -17.451386
          ],
          [
            -66.116734,
            -17.451576
          ],
          [
            -66.116651,
            -17.45236
          ],
          [
            -66.116609,
            -17.452844
          ],
          [
            -66.116552,
            -17.453619
          ],
          [
            -66.116534,
            -17.453826
          ],
          [
            -66.116489,
            -17.4543
          ],
          [
            -66.116467,
            -17.454376
          ],
          [
            -66.11646,
            -17.4544
          ],
          [
            -66.11638,
            -17.454576
          ],
          [
            -66.116291,
            -17.454653
          ],
          [
            -66.116218,
            -17.45474
          ],
          [
            -66.116168,
            -17.454781
          ],
          [
            -66.116139,
            -17.454818
          ],
          [
            -66.11594,
            -17.454987
          ],
          [
            -66.115599,
            -17.455285
          ],
          [
            -66.115503,
            -17.455379
          ],
          [
            -66.115426,
            -17.455468
          ],
          [
            -66.115377,
            -17.45555
          ],
          [
            -66.115324,
            -17.455636
          ],
          [
            -66.115178,
            -17.455826
          ],
          [
            -66.115176,
            -17.456012
          ],
          [
            -66.11515,
            -17.456213
          ],
          [
            -66.115107,
            -17.456452
          ],
          [
            -66.115088,
            -17.456527
          ],
          [
            -66.115017,
            -17.456892
          ],
          [
            -66.114917,
            -17.457308
          ],
          [
            -66.114781,
            -17.457798
          ],
          [
            -66.114765,
            -17.45786
          ],
          [
            -66.11463,
            -17.458447
          ],
          [
            -66.114331,
            -17.459747
          ],
          [
            -66.114313,
            -17.459802
          ],
          [
            -66.114022,
            -17.460028
          ],
          [
            -66.113716,
            -17.460235
          ],
          [
            -66.11295,
            -17.460696
          ]
        ]
      }
    }
  ]
}