{
  "type": "FeatureCollection",
  "features": [
    {
      "type": "Feature",
      "properties": {
        "route_id": "9645302",
        "route_short_name": "Q",
        "route_long_name": "MicroBus Q: Avenida Circuito Bolivia \u2192 Villa Urkupi\u00f1a Calvario"
      },
      "geometry": {
        "type": "LineString",
        "coordinates": [
          [
            -66.135929,
            -17.399232
          ],
          [
            -66.135814,
            -17.399154
          ],
          [
            -66.135738,
            -17.399076
          ],
          [
            -66.135693,
            -17.399009
          ],
          [
            -66.135643,
            -17.398924
          ],
          [
            -66.135608,
            -17.398805
          ],
          [
            -66.135597,
            -17.398753
          ],
          [
            -66.135602,
            -17.39854
          ],
          [
            -66.135615,
            -17.398441
          ],
          [
            -66.135625,
            -17.39835
          ],
          [
            -66.135646,
            -17.398302
          ],
          [
            -66.135676,
            -17.398271
          ],
          [
            -66.135721,
            -17.398248
          ],
          [
            -66.135779,
            -17.398214
          ],
          [
            -66.135848,
            -17.398182
          ],
          [
            -66.135919,
            -17.398164
          ],
          [
            -66.135966,
            -17.398162
          ],
          [
            -66.136453,
            -17.398232
          ],
          [
            -66.136615,
            -17.398266
          ],
          [
            -66.137429,
            -17.398384
          ],
          [
            -66.137561,
            -17.398403
          ],
          [
            -66.137717,
            -17.398426
          ],
          [
            -66.138526,
            -17.398544
          ],
          [
            -66.13838,
            -17.399458
          ],
          [
            -66.138406,
            -17.399513
          ],
          [
            -66.138396,
            -17.399583
          ],
          [
            -66.138387,
            -17.399649
          ],
          [
            -66.139118,
            -17.399904
          ],
          [
            -66.139175,
            -17.399925
          ],
          [
            -66.139672,
            -17.400091
          ],
          [
            -66.139975,
            -17.400158
          ],
          [
            -66.140039,
            -17.40017
          ],
          [
            -66.141605,
            -17.400456
          ],
          [
            -66.141849,
            -17.400498
          ],
          [
            -66.142183,
            -17.400558
          ],
          [
            -66.142855,
            -17.400673
          ],
          [
            -66.14293,
            -17.400687
          ],
          [
            -66.143552,
            -17.400798
          ],
          [
            -66.14359,
            -17.400805
          ],
          [
            -66.144551,
            -17.400985
          ],
          [
            -66.145287,
            -17.401114
          ],
          [
            -66.14592,
            -17.401235
          ],
          [
            -66.146213,
            -17.401296
          ],
          [
            -66.146312,
            -17.401323
          ],
          [
            -66.146427,
            -17.401363
          ],
          [
            -66.146525,
            -17.401409
          ],
          [
            -66.146611,
            -17.401453
          ],
          [
            -66.146865,
            -17.401596
          ],
          [
            -66.147286,
            -17.401833
          ],
          [
            -66.14734,
            -17.401862
          ],
          [
            -66.147394,
            -17.401892
          ],
          [
            -66.147433,
            -17.401913
          ],
          [
            -66.147466,
            -17.401929
          ],
          [
            -66.14751,
            -17.40196
          ],
          [
            -66.147563,
            -17.402016
          ],
          [
            -66.147582,
            -17.402071
          ],
          [
            -66.147591,
            -17.402137
          ],
          [
            -66.147456,
            -17.402429
          ],
          [
            -66.147364,
            -17.402601
          ],
          [
            -66.147278,
            -17.402738
          ],
          [
            -66.147007,
            -17.403065
          ],
          [
            -66.146861,
            -17.40321
          ],
          [
            -66.146778,
            -17.403311
          ],
          [
            -66.146697,
            -17.403404
          ],
          [
            -66.146366,
            -17.403785
          ],
          [
            -66.14615,
            -17.404056
          ],
          [
            -66.145992,
            -17.40427
          ],
          [
            -66.145888,
            -17.404455
          ],
          [
            -66.145736,
            -17.404743
          ],
          [
            -66.145686,
            -17.404852
          ],
          [
            -66.145466,
            -17.40542
          ],
          [
            -66.145428,
            -17.405555
          ],
          [
            -66.145404,
            -17.405652
          ],
          [
            -66.145374,
            -17.405757
          ],
          [
            -66.145352,
            -17.405879
          ],
          [
            -66.145337,
            -17.406043
          ],
          [
            -66.14534,
            -17.406149
          ],
          [
            -66.145363,
            -17.406284
          ],
          [
            -66.145369,
            -17.40633
          ],
          [
            -66.145378,
            -17.406403
          ],
          [
            -66.145391,
            -17.406458
          ],
          [
            -66.145409,
            -17.406515
          ],
          [
            -66.145437,
            -17.406578
          ],
          [
            -66.145488,
            -17.406671
          ],
          [
            -66.145555,
            -17.406755
          ],
          [
            -66.145637,
            -17.406831
          ],
          [
            -66.146328,
            -17.407321
          ],
          [
            -66.146488,
            -17.40744
          ],
          [
            -66.146674,
            -17.407548
          ],
          [
            -66.147031,
            -17.407716
          ],
          [
            -66.147273,
            -17.407854
          ],
          [
            -66.147464,
            -17.407994
          ],
          [
            -66.147736,
            -17.408212
          ],
          [
            -66.147871,
            -17.408323
          ],
          [
            -66.147972,
            -17.408407
          ],
          [
            -66.149635,
            -17.409502
          ],
          [
            -66.149855,
            -17.409645
          ],
          [
            -66.150019,
            -17.409748
          ],
          [
            -66.150648,
            -17.409725
          ],
          [
            -66.150695,
            -17.409717
          ],
          [
            -66.15072,
            -17.409685
          ],
          [
            -66.150763,
            -17.409683
          ],
          [
            -66.150857,
            -17.409685
          ],
          [
            -66.150919,
            -17.410017
          ],
          [
            -66.150965,
            -17.410245
          ],
          [
            -66.150979,
            -17.410314
          ],
          [
            -66.151028,
            -17.410396
          ],
          [
            -66.151799,
            -17.410919
          ],
          [
            -66.152629,
            -17.411454
          ],
          [
            -66.153291,
            -17.411875
          ],
          [
            -66.153365,
            -17.411899
          ],
          [
            -66.153431,
            -17.411905
          ],
          [
            -66.153471,
            -17.411895
          ],
          [
            -66.1535,
            -17.411849
          ],
          [
            -66.153561,
            -17.411786
          ],
          [
            -66.153604,
            -17.411771
          ],
          [
            -66.153639,
            -17.411785
          ],
          [
            -66.153653,
            -17.411827
          ],
          [
            -66.153664,
            -17.411966
          ],
          [
            -66.153688,
            -17.412037
          ],
          [
            -66.153745,
            -17.412092
          ],
          [
            -66.153869,
            -17.412158
          ],
          [
            -66.153899,
            -17.412175
          ],
          [
            -66.154605,
            -17.412548
          ],
          [
            -66.154925,
            -17.412748
          ],
          [
            -66.15524,
            -17.412919
          ],
          [
            -66.155336,
            -17.41299
          ],
          [
            -66.155595,
            -17.413077
          ],
          [
            -66.155655,
            -17.413095
          ],
          [
            -66.155687,
            -17.412961
          ],
          [
            -66.155779,
            -17.412296
          ],
          [
            -66.15582,
            -17.412159
          ],
          [
            -66.155828,
            -17.412033
          ],
          [
            -66.155875,
            -17.411548
          ],
          [
            -66.155925,
            -17.411204
          ],
          [
            -66.155961,
            -17.411004
          ],
          [
            -66.155973,
            -17.410807
          ],
          [
            -66.155994,
            -17.410651
          ],
          [
            -66.156059,
            -17.410112
          ],
          [
            -66.156188,
            -17.40929
          ],
          [
            -66.156209,
            -17.409158
          ],
          [
            -66.156324,
            -17.408398
          ],
          [
            -66.156391,
            -17.407897
          ],
          [
            -66.156402,
            -17.407758
          ],
          [
            -66.156408,
            -17.407674
          ],
          [
            -66.156417,
            -17.407578
          ],
          [
            -66.156419,
            -17.407471
          ],
          [
            -66.156451,
            -17.407307
          ],
          [
            -66.156568,
            -17.406875
          ],
          [
            -66.156627,
            -17.406555
          ],
          [
            -66.156675,
            -17.406292
          ],
          [
            -66.15688,
            -17.405149
          ],
          [
            -66.156981,
            -17.404592
          ],
          [
            -66.157069,
            -17.404069
          ],
          [
            -66.157077,
            -17.404014
          ],
          [
            -66.157252,
            -17.40291
          ],
          [
            -66.15734,
            -17.402237
          ],
          [
            -66.157356,
            -17.402108
          ],
          [
            -66.157459,
            -17.401163
          ],
          [
            -66.157479,
            -17.40097
          ],
          [
            -66.157628,
            -17.399698
          ],
          [
            -66.157634,
            -17.399554
          ],
          [
            -66.157636,
            -17.399482
          ],
          [
            -66.157636,
            -17.399359
          ],
          [
            -66.157728,
            -17.399353
          ],
          [
            -66.157813,
            -17.399341
          ],
          [
            -66.158533,
            -17.399231
          ],
          [
            -66.158712,
            -17.399233
          ],
          [
            -66.159174,
            -17.399272
          ],
          [
            -66.159997,
            -17.399303
          ],
          [
            -66.160064,
            -17.399315
          ],
          [
            -66.160243,
            -17.399366
          ],
          [
            -66.160307,
            -17.399387
          ],
          [
            -66.160433,
            -17.399427
          ],
          [
            -66.161091,
            -17.399618
          ],
          [
            -66.161271,
            -17.39838
          ],
          [
            -66.161432,
            -17.397301
          ],
          [
            -66.16158,
            -17.396255
          ],
          [
            -66.161745,
            -17.395202
          ],
          [
            -66.161898,
            -17.394106
          ],
          [
            -66.162003,
            -17.393517
          ],
          [
            -66.162053,
            -17.39318
          ],
          [
            -66.162063,
            -17.393107
          ],
          [
            -66.163928,
            -17.393418
          ],
          [
            -66.164921,
            -17.393602
          ],
          [
            -66.165917,
            -17.393779
          ],
          [
            -66.166231,
            -17.39383
          ],
          [
            -66.166439,
            -17.393829
          ],
          [
            -66.16661,
            -17.393841
          ],
          [
            -66.166791,
            -17.393901
          ],
          [
            -66.166842,
            -17.393916
          ],
          [
            -66.166937,
            -17.393937
          ],
          [
            -66.167351,
            -17.393978
          ],
          [
            -66.167446,
            -17.393974
          ],
          [
            -66.167566,
            -17.393955
          ],
          [
            -66.167642,
            -17.393945
          ],
          [
            -66.167797,
            -17.393916
          ],
          [
            -66.167983,
            -17.393884
          ],
          [
            -66.168452,
            -17.39386
          ],
          [
            -66.168603,
            -17.393852
          ],
          [
            -66.168686,
            -17.393847
          ],
          [
            -66.16904,
            -17.393829
          ],
          [
            -66.170294,
            -17.393778
          ],
          [
            -66.170407,
            -17.393766
          ],
          [
            -66.170544,
            -17.393744
          ],
          [
            -66.170598,
            -17.393719
          ],
          [
            -66.170657,
            -17.393711
          ],
          [
            -66.170715,
            -17.393721
          ],
          [
            -66.170768,
            -17.393749
          ],
          [
            -66.170889,
            -17.393784
          ],
          [
            -66.17108,
            -17.393821
          ],
          [
            -66.171181,
            -17.393835
          ],
          [
            -66.17129,
            -17.393838
          ],
          [
            -66.173912,
            -17.39372
          ],
          [
            -66.174359,
            -17.393702
          ],
          [
            -66.174412,
            -17.3937
          ],
          [
            -66.176206,
            -17.39362
          ],
          [
            -66.176443,
            -17.39361
          ],
          [
            -66.176576,
            -17.393604
          ],
          [
            -66.176802,
            -17.393594
          ],
          [
            -66.177511,
            -17.393564
          ],
          [
            -66.178586,
            -17.393512
          ],
          [
            -66.179906,
            -17.393454
          ],
          [
            -66.179978,
            -17.393452
          ],
          [
            -66.180952,
            -17.393404
          ],
          [
            -66.181751,
            -17.393373
          ],
          [
            -66.182345,
            -17.393344
          ],
          [
            -66.1841,
            -17.393278
          ],
          [
            -66.184452,
            -17.39326
          ],
          [
            -66.186412,
            -17.393171
          ],
          [
            -66.186639,
            -17.393159
          ],
          [
            -66.187412,
            -17.393127
          ],
          [
            -66.188857,
            -17.393063
          ],
          [
            -66.189274,
            -17.393044
          ],
          [
            -66.191125,
            -17.392965
          ],
          [
            -66.192135,
            -17.39292
          ],
          [
            -66.193899,
            -17.392841
          ],
          [
            -66.194723,
            -17.392809
          ],
          [
            -66.19693,
            -17.392708
          ],
          [
            -66.197091,
            -17.392701
          ],
          [
            -66.198926,
            -17.392621
          ],
          [
            -66.199474,
            -17.392591
          ],
          [
            -66.199594,
            -17.392585
          ],
          [
            -66.199678,
            -17.39258
          ],
          [
            -66.199816,
            -17.392573
          ],
          [
            -66.200191,
            -17.392555
          ],
          [
            -66.203618,
            -17.392406
          ],
          [
            -66.205091,
            -17.392353
          ],
          [
            -66.207361,
            -17.39225
          ],
          [
            -66.208005,
            -17.392221
          ],
          [
            -66.208092,
            -17.392218
          ],
          [
            -66.208185,
            -17.392214
          ],
          [
            -66.208289,
            -17.39221
          ],
          [
            -66.208511,
            -17.392202
          ],
          [
            -66.208973,
            -17.392185
          ],
          [
            -66.209108,
            -17.392179
          ],
          [
            -66.210314,
            -17.392126
          ],
          [
            -66.210329,
            -17.392125
          ],
          [
            -66.210341,
            -17.392125
          ],
          [
            -66.210368,
            -17.392123
          ],
          [
            -66.210384,
            -17.392122
          ],
          [
            -66.210398,
            -17.392121
          ],
          [
            -66.211104,
            -17.392078
          ],
          [
            -66.212989,
            -17.392003
          ],
          [
            -66.214348,
            -17.391944
          ],
          [
            -66.215415,
            -17.391895
          ],
          [
            -66.21587,
            -17.391882
          ],
          [
            -66.216889,
            -17.391831
          ],
          [
            -66.218267,
            -17.391761
          ],
          [
            -66.218575,
            -17.391749
          ],
          [
            -66.219394,
            -17.391716
          ],
          [
            -66.221345,
            -17.391639
          ],
          [
            -66.221595,
            -17.391626
          ],
          [
            -66.222062,
            -17.391614
          ],
          [
            -66.223319,
            -17.391553
          ],
          [
            -66.224129,
            -17.391521
          ],
          [
            -66.224602,
            -17.391506
          ],
          [
            -66.224928,
            -17.391489
          ],
          [
            -66.226518,
            -17.391424
          ],
          [
            -66.226655,
            -17.391417
          ],
          [
            -66.227421,
            -17.39138
          ],
          [
            -66.228451,
            -17.391331
          ],
          [
            -66.228799,
            -17.391312
          ],
          [
            -66.229166,
            -17.391297
          ],
          [
            -66.229839,
            -17.391269
          ],
          [
            -66.230566,
            -17.391239
          ],
          [
            -66.232025,
            -17.391178
          ],
          [
            -66.232415,
            -17.39116
          ],
          [
            -66.234597,
            -17.391075
          ],
          [
            -66.236359,
            -17.391005
          ],
          [
            -66.236582,
            -17.390992
          ],
          [
            -66.237921,
            -17.390943
          ],
          [
            -66.238213,
            -17.390907
          ],
          [
            -66.23833,
            -17.390888
          ],
          [
            -66.238507,
            -17.39085
          ],
          [
            -66.238539,
            -17.390845
          ],
          [
            -66.238654,
            -17.390821
          ],
          [
            -66.238697,
            -17.3908
          ],
          [
            -66.238765,
            -17.390799
          ],
          [
            -66.238814,
            -17.390818
          ],
          [
            -66.238949,
            -17.39085
          ],
          [
            -66.238976,
            -17.390856
          ],
          [
            -66.239132,
            -17.39087
          ],
          [
            -66.239908,
            -17.390841
          ],
          [
            -66.240923,
            -17.390812
          ],
          [
            -66.241138,
            -17.390808
          ],
          [
            -66.242099,
            -17.390802
          ],
          [
            -66.242785,
            -17.390799
          ],
          [
            -66.243568,
            -17.390795
          ],
          [
            -66.243652,
            -17.390786
          ],
          [
            -66.243745,
            -17.39077
          ],
          [
            -66.243763,
            -17.390766
          ],
          [
            -66.243774,
            -17.390764
          ],
          [
            -66.243957,
            -17.390724
          ],
          [
            -66.244467,
            -17.390736
          ],
          [
            -66.244622,
            -17.390762
          ],
          [
            -66.244707,
            -17.390785
          ],
          [
            -66.244751,
            -17.3908
          ],
          [
            -66.244853,
            -17.390818
          ],
          [
            -66.244949,
            -17.390826
          ],
          [
            -66.246153,
            -17.390867
          ],
          [
            -66.24629,
            -17.390876
          ],
          [
            -66.248007,
            -17.390957
          ],
          [
            -66.248464,
            -17.39098
          ],
          [
            -66.249156,
            -17.391013
          ],
          [
            -66.249458,
            -17.391026
          ],
          [
            -66.249616,
            -17.391036
          ],
          [
            -66.249963,
            -17.391058
          ],
          [
            -66.250197,
            -17.391072
          ],
          [
            -66.250244,
            -17.391076
          ],
          [
            -66.250291,
            -17.391079
          ],
          [
            -66.250442,
            -17.391089
          ],
          [
            -66.250642,
            -17.391051
          ],
          [
            -66.250801,
            -17.391064
          ],
          [
            -66.250897,
            -17.391076
          ],
          [
            -66.250934,
            -17.391085
          ],
          [
            -66.250978,
            -17.391096
          ],
          [
            -66.251216,
            -17.391154
          ],
          [
            -66.251381,
            -17.391186
          ],
          [
            -66.251469,
            -17.391195
          ],
          [
            -66.252793,
            -17.391325
          ],
          [
            -66.254249,
            -17.391472
          ],
          [
            -66.25675,
            -17.391716
          ],
          [
            -66.257746,
            -17.391826
          ],
          [
            -66.258276,
            -17.391876
          ],
          [
            -66.259014,
            -17.391939
          ],
          [
            -66.259558,
            -17.391986
          ],
          [
            -66.259608,
            -17.391991
          ],
          [
            -66.260008,
            -17.392032
          ],
          [
            -66.26033,
            -17.392065
          ],
          [
            -66.262008,
            -17.392239
          ],
          [
            -66.264255,
            -17.392475
          ],
          [
            -66.264972,
            -17.39254
          ],
          [
            -66.266291,
            -17.392669
          ],
          [
            -66.267825,
            -17.39282
          ],
          [
            -66.268096,
            -17.392852
          ],
          [
            -66.268173,
            -17.392859
          ],
          [
            -66.268205,
            -17.392862
          ],
          [
            -66.268362,
            -17.392878
          ],
          [
            -66.268815,
            -17.392923
          ],
          [
            -66.269951,
            -17.39304
          ],
          [
            -66.270113,
            -17.393049
          ],
          [
            -66.271218,
            -17.393158
          ],
          [
            -66.27224,
            -17.393252
          ],
          [
            -66.27239,
            -17.393252
          ],
          [
            -66.272549,
            -17.393244
          ],
          [
            -66.272666,
            -17.393234
          ],
          [
            -66.272686,
            -17.393221
          ],
          [
            -66.272713,
            -17.393207
          ],
          [
            -66.272737,
            -17.393201
          ],
          [
            -66.272773,
            -17.393196
          ],
          [
            -66.272809,
            -17.393199
          ],
          [
            -66.272845,
            -17.393208
          ],
          [
            -66.272877,
            -17.393224
          ],
          [
            -66.272887,
            -17.393231
          ],
          [
            -66.272907,
            -17.393244
          ],
          [
            -66.273171,
            -17.393289
          ],
          [
            -66.274277,
            -17.393387
          ],
          [
            -66.274412,
            -17.393401
          ],
          [
            -66.274966,
            -17.393461
          ],
          [
            -66.275662,
            -17.393532
          ],
          [
            -66.27617,
            -17.39358
          ],
          [
            -66.276919,
            -17.39365
          ],
          [
            -66.276929,
            -17.393651
          ],
          [
            -66.277008,
            -17.393658
          ],
          [
            -66.277906,
            -17.393746
          ],
          [
            -66.278035,
            -17.393759
          ],
          [
            -66.278103,
            -17.393765
          ],
          [
            -66.278162,
            -17.393771
          ],
          [
            -66.278319,
            -17.393786
          ],
          [
            -66.279369,
            -17.393884
          ],
          [
            -66.279509,
            -17.393898
          ],
          [
            -66.280533,
            -17.393996
          ],
          [
            -66.280641,
            -17.394005
          ],
          [
            -66.280749,
            -17.394012
          ],
          [
            -66.281502,
            -17.39406
          ],
          [
            -66.2816,
            -17.394067
          ],
          [
            -66.281571,
            -17.394342
          ],
          [
            -66.281512,
            -17.395125
          ],
          [
            -66.281508,
            -17.395182
          ],
          [
            -66.281499,
            -17.395271
          ],
          [
            -66.281375,
            -17.396766
          ],
          [
            -66.28042,
            -17.396482
          ],
          [
            -66.280315,
            -17.396444
          ],
          [
            -66.279057,
            -17.395913
          ],
          [
            -66.279158,
            -17.396678
          ],
          [
            -66.279336,
            -17.397814
          ],
          [
            -66.279519,
            -17.398982
          ],
          [
            -66.279696,
            -17.400165
          ],
          [
            -66.279876,
            -17.401356
          ],
          [
            -66.281069,
            -17.401193
          ],
          [
            -66.281206,
            -17.402068
          ],
          [
            -66.281212,
            -17.40211
          ],
          [
            -66.281216,
            -17.402149
          ],
          [
            -66.281279,
            -17.402331
          ],
          [
            -66.28133,
            -17.402721
          ],
          [
            -66.281406,
            -17.403244
          ],
          [
            -66.281477,
            -17.403786
          ],
          [
            -66.281553,
            -17.404304
          ],
          [
            -66.281641,
            -17.404846
          ],
          [
            -66.281714,
            -17.40539
          ],
          [
            -66.281776,
            -17.405931
          ],
          [
            -66.281789,
            -17.406008
          ],
          [
            -66.281858,
            -17.406469
          ],
          [
            -66.281938,
            -17.406993
          ],
          [
            -66.28201,
            -17.40751
          ],
          [
            -66.282018,
            -17.40758
          ],
          [
            -66.282073,
            -17.407959
          ],
          [
            -66.282131,
            -17.408437
          ],
          [
            -66.282248,
            -17.409188
          ],
          [
            -66.282339,
            -17.409803
          ],
          [
            -66.282819,
            -17.413108
          ],
          [
            -66.283344,
            -17.416909
          ],
          [
            -66.283576,
            -17.41858
          ],
          [
            -66.283687,
            -17.419352
          ],
          [
            -66.283671,
            -17.419436
          ],
          [
            -66.283729,
            -17.419818
          ],
          [
            -66.283769,
            -17.420169
          ],
          [
            -66.283901,
            -17.420149
          ],
          [
            -66.284017,
            -17.420098
          ],
          [
            -66.284155,
            -17.419994
          ],
          [
            -66.284244,
            -17.419912
          ],
          [
            -66.284264,
            -17.419898
          ],
          [
            -66.284419,
            -17.419792
          ],
          [
            -66.284546,
            -17.419746
          ],
          [
            -66.284609,
            -17.419781
          ],
          [
            -66.286426,
            -17.420448
          ],
          [
            -66.286496,
            -17.42048
          ],
          [
            -66.288292,
            -17.421135
          ],
          [
            -66.289234,
            -17.421532
          ],
          [
            -66.28838,
            -17.422153
          ],
          [
            -66.289399,
            -17.422542
          ]
        ]
      }
    }
  ]
}