{
  "type": "FeatureCollection",
  "features": [
    {
      "type": "Feature",
      "properties": {
        "route_id": "9123985",
        "route_short_name": "R",
        "route_long_name": "Trufi R: Avenida Arqu\u00edmedes \u2192 Bello Horizonte"
      },
      "geometry": {
        "type": "LineString",
        "coordinates": [
          [
            -66.21449,
            -17.39969
          ],
          [
            -66.214345,
            -17.398448
          ],
          [
            -66.214319,
            -17.398147
          ],
          [
            -66.214217,
            -17.397208
          ],
          [
            -66.213247,
            -17.39723
          ],
          [
            -66.212309,
            -17.397246
          ],
          [
            -66.211591,
            -17.397236
          ],
          [
            -66.210348,
            -17.397213
          ],
          [
            -66.209695,
            -17.397197
          ],
          [
            -66.208736,
            -17.397179
          ],
          [
            -66.208477,
            -17.397175
          ],
          [
            -66.208358,
            -17.397172
          ],
          [
            -66.208316,
            -17.397172
          ],
          [
            -66.208124,
            -17.397168
          ],
          [
            -66.207133,
            -17.39715
          ],
          [
            -66.206822,
            -17.39715
          ],
          [
            -66.206373,
            -17.397149
          ],
          [
            -66.205776,
            -17.397138
          ],
          [
            -66.205593,
            -17.397135
          ],
          [
            -66.205052,
            -17.397121
          ],
          [
            -66.204921,
            -17.397126
          ],
          [
            -66.204694,
            -17.397134
          ],
          [
            -66.203345,
            -17.397182
          ],
          [
            -66.20275,
            -17.397221
          ],
          [
            -66.201855,
            -17.397292
          ],
          [
            -66.201598,
            -17.397312
          ],
          [
            -66.201135,
            -17.397341
          ],
          [
            -66.200153,
            -17.397307
          ],
          [
            -66.199991,
            -17.3973
          ],
          [
            -66.199906,
            -17.397293
          ],
          [
            -66.199169,
            -17.397267
          ],
          [
            -66.199071,
            -17.397265
          ],
          [
            -66.198063,
            -17.397219
          ],
          [
            -66.197896,
            -17.397211
          ],
          [
            -66.197735,
            -17.397207
          ],
          [
            -66.197561,
            -17.397195
          ],
          [
            -66.195831,
            -17.397101
          ],
          [
            -66.195378,
            -17.397079
          ],
          [
            -66.195134,
            -17.397066
          ],
          [
            -66.194525,
            -17.397025
          ],
          [
            -66.194302,
            -17.397012
          ],
          [
            -66.193884,
            -17.39696
          ],
          [
            -66.193798,
            -17.396955
          ],
          [
            -66.193726,
            -17.396951
          ],
          [
            -66.192062,
            -17.396859
          ],
          [
            -66.191198,
            -17.396819
          ],
          [
            -66.190089,
            -17.396771
          ],
          [
            -66.189795,
            -17.396757
          ],
          [
            -66.189423,
            -17.396741
          ],
          [
            -66.189262,
            -17.396723
          ],
          [
            -66.188182,
            -17.396589
          ],
          [
            -66.18755,
            -17.396542
          ],
          [
            -66.186963,
            -17.396459
          ],
          [
            -66.185848,
            -17.396308
          ],
          [
            -66.185566,
            -17.396272
          ],
          [
            -66.185432,
            -17.396272
          ],
          [
            -66.185341,
            -17.396269
          ],
          [
            -66.185333,
            -17.396288
          ],
          [
            -66.185297,
            -17.396334
          ],
          [
            -66.185247,
            -17.396366
          ],
          [
            -66.185189,
            -17.396381
          ],
          [
            -66.185129,
            -17.396375
          ],
          [
            -66.185074,
            -17.396351
          ],
          [
            -66.185047,
            -17.396329
          ],
          [
            -66.184961,
            -17.396282
          ],
          [
            -66.184943,
            -17.396276
          ],
          [
            -66.184883,
            -17.396259
          ],
          [
            -66.184823,
            -17.396249
          ],
          [
            -66.184791,
            -17.396244
          ],
          [
            -66.183947,
            -17.396258
          ],
          [
            -66.183275,
            -17.396284
          ],
          [
            -66.182555,
            -17.396304
          ],
          [
            -66.181867,
            -17.396314
          ],
          [
            -66.181664,
            -17.396311
          ],
          [
            -66.181579,
            -17.396316
          ],
          [
            -66.181511,
            -17.39632
          ],
          [
            -66.180676,
            -17.39634
          ],
          [
            -66.179823,
            -17.396365
          ],
          [
            -66.179196,
            -17.396377
          ],
          [
            -66.178723,
            -17.396379
          ],
          [
            -66.178593,
            -17.396381
          ],
          [
            -66.177774,
            -17.396404
          ],
          [
            -66.177299,
            -17.396407
          ],
          [
            -66.17693,
            -17.39641
          ],
          [
            -66.176161,
            -17.396422
          ],
          [
            -66.175449,
            -17.396438
          ],
          [
            -66.175245,
            -17.396442
          ],
          [
            -66.174226,
            -17.396468
          ],
          [
            -66.174125,
            -17.39647
          ],
          [
            -66.174021,
            -17.396473
          ],
          [
            -66.173946,
            -17.396475
          ],
          [
            -66.171064,
            -17.396551
          ],
          [
            -66.170789,
            -17.396555
          ],
          [
            -66.170719,
            -17.396556
          ],
          [
            -66.169428,
            -17.396586
          ],
          [
            -66.16938,
            -17.396586
          ],
          [
            -66.169272,
            -17.396595
          ],
          [
            -66.169227,
            -17.396599
          ],
          [
            -66.169061,
            -17.396621
          ],
          [
            -66.168957,
            -17.396643
          ],
          [
            -66.168445,
            -17.396814
          ],
          [
            -66.16835,
            -17.396845
          ],
          [
            -66.168232,
            -17.396884
          ],
          [
            -66.168033,
            -17.39695
          ],
          [
            -66.167938,
            -17.39697
          ],
          [
            -66.16756,
            -17.397039
          ],
          [
            -66.167535,
            -17.397049
          ],
          [
            -66.167471,
            -17.397078
          ],
          [
            -66.167423,
            -17.397124
          ],
          [
            -66.167397,
            -17.397153
          ],
          [
            -66.167364,
            -17.397173
          ],
          [
            -66.167325,
            -17.397182
          ],
          [
            -66.167292,
            -17.397185
          ],
          [
            -66.167244,
            -17.39716
          ],
          [
            -66.167223,
            -17.397141
          ],
          [
            -66.167202,
            -17.397111
          ],
          [
            -66.167194,
            -17.397087
          ],
          [
            -66.167186,
            -17.39706
          ],
          [
            -66.167183,
            -17.397026
          ],
          [
            -66.167156,
            -17.396917
          ],
          [
            -66.167151,
            -17.396871
          ],
          [
            -66.167131,
            -17.39671
          ],
          [
            -66.165875,
            -17.396759
          ],
          [
            -66.165783,
            -17.396792
          ],
          [
            -66.165741,
            -17.396811
          ],
          [
            -66.165702,
            -17.396838
          ],
          [
            -66.165685,
            -17.396861
          ],
          [
            -66.165661,
            -17.396878
          ],
          [
            -66.165634,
            -17.396887
          ],
          [
            -66.165605,
            -17.396887
          ],
          [
            -66.165578,
            -17.396878
          ],
          [
            -66.165555,
            -17.396861
          ],
          [
            -66.165543,
            -17.396847
          ],
          [
            -66.165503,
            -17.396834
          ],
          [
            -66.165461,
            -17.396828
          ],
          [
            -66.165402,
            -17.396832
          ],
          [
            -66.165041,
            -17.396938
          ],
          [
            -66.164656,
            -17.397105
          ],
          [
            -66.164536,
            -17.397152
          ],
          [
            -66.164339,
            -17.397229
          ],
          [
            -66.163056,
            -17.397304
          ],
          [
            -66.163016,
            -17.397317
          ],
          [
            -66.162979,
            -17.397337
          ],
          [
            -66.162877,
            -17.397418
          ],
          [
            -66.16286,
            -17.39746
          ],
          [
            -66.162816,
            -17.397506
          ],
          [
            -66.162777,
            -17.397522
          ],
          [
            -66.162717,
            -17.397532
          ],
          [
            -66.162606,
            -17.397508
          ],
          [
            -66.162272,
            -17.397446
          ],
          [
            -66.162122,
            -17.397418
          ],
          [
            -66.161432,
            -17.397301
          ],
          [
            -66.160232,
            -17.397084
          ],
          [
            -66.159147,
            -17.396898
          ],
          [
            -66.158183,
            -17.396723
          ],
          [
            -66.15813,
            -17.396715
          ],
          [
            -66.158039,
            -17.396701
          ],
          [
            -66.157998,
            -17.396694
          ],
          [
            -66.156972,
            -17.396526
          ],
          [
            -66.156627,
            -17.396464
          ],
          [
            -66.156456,
            -17.396435
          ],
          [
            -66.155882,
            -17.39633
          ],
          [
            -66.154794,
            -17.396134
          ],
          [
            -66.153732,
            -17.395947
          ],
          [
            -66.152617,
            -17.395754
          ],
          [
            -66.152423,
            -17.396818
          ],
          [
            -66.152249,
            -17.397788
          ],
          [
            -66.152243,
            -17.397898
          ],
          [
            -66.152249,
            -17.398145
          ],
          [
            -66.152228,
            -17.398381
          ],
          [
            -66.152219,
            -17.398466
          ],
          [
            -66.152219,
            -17.398546
          ],
          [
            -66.152191,
            -17.398799
          ],
          [
            -66.152165,
            -17.399158
          ],
          [
            -66.152148,
            -17.399257
          ],
          [
            -66.152152,
            -17.399909
          ],
          [
            -66.152196,
            -17.401461
          ],
          [
            -66.151274,
            -17.40147
          ],
          [
            -66.151186,
            -17.401446
          ],
          [
            -66.15122,
            -17.401284
          ],
          [
            -66.151222,
            -17.401146
          ],
          [
            -66.151208,
            -17.401011
          ],
          [
            -66.151194,
            -17.400919
          ],
          [
            -66.15116,
            -17.400784
          ],
          [
            -66.151108,
            -17.400672
          ],
          [
            -66.151067,
            -17.400598
          ],
          [
            -66.151,
            -17.400493
          ],
          [
            -66.150916,
            -17.400394
          ],
          [
            -66.150843,
            -17.400317
          ],
          [
            -66.150702,
            -17.400191
          ],
          [
            -66.150598,
            -17.40012
          ],
          [
            -66.150511,
            -17.400071
          ],
          [
            -66.150393,
            -17.400027
          ],
          [
            -66.150272,
            -17.399991
          ],
          [
            -66.150116,
            -17.399965
          ],
          [
            -66.149822,
            -17.399953
          ],
          [
            -66.149783,
            -17.400029
          ],
          [
            -66.149705,
            -17.400127
          ],
          [
            -66.149054,
            -17.400803
          ],
          [
            -66.148986,
            -17.400932
          ],
          [
            -66.148957,
            -17.401046
          ],
          [
            -66.148953,
            -17.401143
          ],
          [
            -66.14892,
            -17.401287
          ],
          [
            -66.14884,
            -17.401536
          ],
          [
            -66.14875,
            -17.401754
          ],
          [
            -66.148693,
            -17.401854
          ],
          [
            -66.148609,
            -17.40198
          ],
          [
            -66.148496,
            -17.402124
          ],
          [
            -66.148378,
            -17.402247
          ],
          [
            -66.148261,
            -17.402353
          ],
          [
            -66.148143,
            -17.402439
          ],
          [
            -66.147952,
            -17.402574
          ],
          [
            -66.147787,
            -17.402674
          ],
          [
            -66.147318,
            -17.402906
          ],
          [
            -66.147007,
            -17.403065
          ],
          [
            -66.146861,
            -17.40321
          ],
          [
            -66.146778,
            -17.403311
          ],
          [
            -66.146697,
            -17.403404
          ],
          [
            -66.146366,
            -17.403785
          ],
          [
            -66.14615,
            -17.404056
          ],
          [
            -66.145992,
            -17.40427
          ],
          [
            -66.145888,
            -17.404455
          ],
          [
            -66.145736,
            -17.404743
          ],
          [
            -66.145686,
            -17.404852
          ],
          [
            -66.145466,
            -17.40542
          ],
          [
            -66.145428,
            -17.405555
          ],
          [
            -66.145404,
            -17.405652
          ],
          [
            -66.145374,
            -17.405757
          ],
          [
            -66.145352,
            -17.405879
          ],
          [
            -66.145337,
            -17.406043
          ],
          [
            -66.14534,
            -17.406149
          ],
          [
            -66.145363,
            -17.406284
          ],
          [
            -66.145369,
            -17.40633
          ],
          [
            -66.14536,
            -17.406384
          ],
          [
            -66.145339,
            -17.406428
          ],
          [
            -66.1453,
            -17.40647
          ],
          [
            -66.145258,
            -17.406499
          ],
          [
            -66.1452,
            -17.406511
          ],
          [
            -66.145141,
            -17.406506
          ],
          [
            -66.145083,
            -17.4065
          ],
          [
            -66.145005,
            -17.40649
          ],
          [
            -66.144932,
            -17.406485
          ],
          [
            -66.144863,
            -17.406492
          ],
          [
            -66.144794,
            -17.40652
          ],
          [
            -66.144749,
            -17.40655
          ],
          [
            -66.1447,
            -17.406612
          ],
          [
            -66.144642,
            -17.406684
          ],
          [
            -66.144355,
            -17.407061
          ],
          [
            -66.144162,
            -17.407307
          ],
          [
            -66.143995,
            -17.407518
          ],
          [
            -66.143601,
            -17.408013
          ],
          [
            -66.143212,
            -17.40857
          ],
          [
            -66.143057,
            -17.408806
          ],
          [
            -66.142909,
            -17.409074
          ],
          [
            -66.142813,
            -17.409286
          ],
          [
            -66.1427,
            -17.4096
          ],
          [
            -66.142628,
            -17.40982
          ],
          [
            -66.142588,
            -17.410001
          ],
          [
            -66.142564,
            -17.410113
          ],
          [
            -66.142549,
            -17.410187
          ],
          [
            -66.142541,
            -17.410224
          ],
          [
            -66.142513,
            -17.410421
          ],
          [
            -66.14251,
            -17.410504
          ],
          [
            -66.142506,
            -17.410622
          ],
          [
            -66.142503,
            -17.410708
          ],
          [
            -66.14249,
            -17.411554
          ],
          [
            -66.142475,
            -17.412072
          ],
          [
            -66.142462,
            -17.412292
          ],
          [
            -66.1424,
            -17.413348
          ],
          [
            -66.142393,
            -17.413521
          ],
          [
            -66.142378,
            -17.413799
          ],
          [
            -66.142351,
            -17.414019
          ],
          [
            -66.142314,
            -17.414188
          ],
          [
            -66.142238,
            -17.414433
          ],
          [
            -66.142116,
            -17.414731
          ],
          [
            -66.141984,
            -17.414977
          ],
          [
            -66.14183,
            -17.415198
          ],
          [
            -66.141638,
            -17.415436
          ],
          [
            -66.141492,
            -17.415581
          ],
          [
            -66.141248,
            -17.4158
          ],
          [
            -66.14116,
            -17.415922
          ],
          [
            -66.140979,
            -17.416201
          ],
          [
            -66.140714,
            -17.416631
          ],
          [
            -66.140618,
            -17.416808
          ],
          [
            -66.140546,
            -17.416971
          ],
          [
            -66.140241,
            -17.417891
          ],
          [
            -66.140059,
            -17.418492
          ],
          [
            -66.139926,
            -17.4189
          ],
          [
            -66.139834,
            -17.419193
          ],
          [
            -66.139828,
            -17.419257
          ],
          [
            -66.139834,
            -17.419313
          ],
          [
            -66.139851,
            -17.41937
          ],
          [
            -66.139871,
            -17.419412
          ],
          [
            -66.139918,
            -17.419494
          ],
          [
            -66.139955,
            -17.419559
          ],
          [
            -66.139978,
            -17.419596
          ],
          [
            -66.139995,
            -17.419635
          ],
          [
            -66.140005,
            -17.419677
          ],
          [
            -66.140009,
            -17.419714
          ],
          [
            -66.140006,
            -17.419763
          ],
          [
            -66.139996,
            -17.419804
          ],
          [
            -66.139979,
            -17.419844
          ],
          [
            -66.139957,
            -17.419881
          ],
          [
            -66.139928,
            -17.419914
          ],
          [
            -66.139895,
            -17.419943
          ],
          [
            -66.139858,
            -17.419967
          ],
          [
            -66.139817,
            -17.419985
          ],
          [
            -66.139774,
            -17.419996
          ],
          [
            -66.139729,
            -17.420002
          ],
          [
            -66.139684,
            -17.420001
          ],
          [
            -66.13964,
            -17.419993
          ],
          [
            -66.139598,
            -17.419979
          ],
          [
            -66.139558,
            -17.419959
          ],
          [
            -66.139522,
            -17.419933
          ],
          [
            -66.13949,
            -17.419903
          ],
          [
            -66.139397,
            -17.419831
          ],
          [
            -66.139366,
            -17.419818
          ],
          [
            -66.139331,
            -17.419813
          ],
          [
            -66.139304,
            -17.419815
          ],
          [
            -66.139269,
            -17.419826
          ],
          [
            -66.139244,
            -17.419841
          ],
          [
            -66.138494,
            -17.420627
          ],
          [
            -66.138093,
            -17.421026
          ],
          [
            -66.137776,
            -17.421357
          ],
          [
            -66.137185,
            -17.421958
          ],
          [
            -66.136865,
            -17.422289
          ],
          [
            -66.136308,
            -17.422853
          ],
          [
            -66.136095,
            -17.423068
          ],
          [
            -66.135499,
            -17.423698
          ],
          [
            -66.135465,
            -17.42372
          ],
          [
            -66.135407,
            -17.423741
          ],
          [
            -66.135347,
            -17.423754
          ],
          [
            -66.134855,
            -17.423721
          ],
          [
            -66.134732,
            -17.423721
          ],
          [
            -66.134635,
            -17.423736
          ],
          [
            -66.134541,
            -17.423785
          ],
          [
            -66.134462,
            -17.423839
          ],
          [
            -66.133796,
            -17.424387
          ],
          [
            -66.133387,
            -17.42473
          ],
          [
            -66.132634,
            -17.42537
          ],
          [
            -66.131893,
            -17.425999
          ],
          [
            -66.131323,
            -17.426483
          ],
          [
            -66.130769,
            -17.426965
          ],
          [
            -66.130666,
            -17.427065
          ],
          [
            -66.130557,
            -17.427173
          ],
          [
            -66.130454,
            -17.42729
          ],
          [
            -66.130392,
            -17.427364
          ],
          [
            -66.129794,
            -17.428083
          ],
          [
            -66.129097,
            -17.428901
          ],
          [
            -66.128948,
            -17.429095
          ],
          [
            -66.128845,
            -17.429223
          ],
          [
            -66.12873,
            -17.429396
          ],
          [
            -66.128531,
            -17.429737
          ],
          [
            -66.128043,
            -17.430633
          ],
          [
            -66.127602,
            -17.431475
          ],
          [
            -66.126981,
            -17.432661
          ],
          [
            -66.126895,
            -17.432829
          ],
          [
            -66.126802,
            -17.432823
          ],
          [
            -66.125588,
            -17.432767
          ],
          [
            -66.124969,
            -17.432722
          ],
          [
            -66.124735,
            -17.432711
          ],
          [
            -66.124174,
            -17.432685
          ],
          [
            -66.123689,
            -17.432667
          ],
          [
            -66.122859,
            -17.43261
          ],
          [
            -66.122797,
            -17.432607
          ],
          [
            -66.122138,
            -17.432578
          ],
          [
            -66.121633,
            -17.432539
          ],
          [
            -66.121377,
            -17.432524
          ],
          [
            -66.120844,
            -17.432492
          ],
          [
            -66.120216,
            -17.432485
          ],
          [
            -66.119911,
            -17.432482
          ],
          [
            -66.118905,
            -17.43243
          ],
          [
            -66.118474,
            -17.432395
          ],
          [
            -66.117964,
            -17.432363
          ],
          [
            -66.117956,
            -17.432974
          ],
          [
            -66.117938,
            -17.433515
          ],
          [
            -66.117919,
            -17.433871
          ],
          [
            -66.117511,
            -17.433726
          ],
          [
            -66.117468,
            -17.433894
          ],
          [
            -66.117494,
            -17.433968
          ],
          [
            -66.117502,
            -17.434048
          ],
          [
            -66.117487,
            -17.4342
          ],
          [
            -66.117464,
            -17.434338
          ],
          [
            -66.117406,
            -17.434556
          ],
          [
            -66.117299,
            -17.434725
          ],
          [
            -66.117117,
            -17.435025
          ],
          [
            -66.117026,
            -17.435226
          ],
          [
            -66.116953,
            -17.435537
          ],
          [
            -66.11692,
            -17.435608
          ],
          [
            -66.116883,
            -17.435701
          ],
          [
            -66.116824,
            -17.435788
          ],
          [
            -66.116727,
            -17.435914
          ],
          [
            -66.116376,
            -17.436397
          ],
          [
            -66.116403,
            -17.436971
          ],
          [
            -66.116448,
            -17.437769
          ],
          [
            -66.116472,
            -17.438413
          ],
          [
            -66.116503,
            -17.438941
          ],
          [
            -66.11652,
            -17.439354
          ],
          [
            -66.116548,
            -17.439854
          ],
          [
            -66.116551,
            -17.439965
          ],
          [
            -66.116563,
            -17.440135
          ],
          [
            -66.116409,
            -17.440155
          ],
          [
            -66.115403,
            -17.4402
          ],
          [
            -66.114357,
            -17.440116
          ],
          [
            -66.114357,
            -17.440159
          ],
          [
            -66.114377,
            -17.440781
          ],
          [
            -66.114375,
            -17.440893
          ],
          [
            -66.114378,
            -17.441403
          ],
          [
            -66.114405,
            -17.442296
          ],
          [
            -66.114471,
            -17.442497
          ],
          [
            -66.11447,
            -17.443121
          ],
          [
            -66.114457,
            -17.443354
          ],
          [
            -66.114414,
            -17.443554
          ],
          [
            -66.114349,
            -17.443787
          ],
          [
            -66.114303,
            -17.443913
          ],
          [
            -66.114286,
            -17.444
          ],
          [
            -66.114262,
            -17.444952
          ],
          [
            -66.114273,
            -17.445096
          ],
          [
            -66.114302,
            -17.445299
          ],
          [
            -66.114336,
            -17.445538
          ],
          [
            -66.114416,
            -17.4461
          ],
          [
            -66.114467,
            -17.44649
          ],
          [
            -66.114491,
            -17.446614
          ],
          [
            -66.114522,
            -17.446837
          ],
          [
            -66.11453,
            -17.446907
          ],
          [
            -66.114527,
            -17.446996
          ],
          [
            -66.114503,
            -17.447096
          ],
          [
            -66.114451,
            -17.447285
          ],
          [
            -66.114317,
            -17.44778
          ],
          [
            -66.114194,
            -17.448289
          ],
          [
            -66.114212,
            -17.448721
          ],
          [
            -66.114205,
            -17.448937
          ],
          [
            -66.114116,
            -17.449454
          ],
          [
            -66.11334,
            -17.449323
          ],
          [
            -66.113023,
            -17.449294
          ],
          [
            -66.113046,
            -17.449772
          ],
          [
            -66.112277,
            -17.449891
          ],
          [
            -66.111932,
            -17.449918
          ],
          [
            -66.11185,
            -17.449905
          ],
          [
            -66.111782,
            -17.449878
          ],
          [
            -66.111725,
            -17.449883
          ],
          [
            -66.111653,
            -17.449884
          ],
          [
            -66.111587,
            -17.449905
          ],
          [
            -66.111523,
            -17.449932
          ],
          [
            -66.111513,
            -17.449981
          ],
          [
            -66.111534,
            -17.450029
          ],
          [
            -66.111559,
            -17.450067
          ],
          [
            -66.111649,
            -17.450114
          ],
          [
            -66.111716,
            -17.450158
          ],
          [
            -66.111736,
            -17.450675
          ],
          [
            -66.111752,
            -17.451098
          ],
          [
            -66.110783,
            -17.45113
          ],
          [
            -66.11017,
            -17.451157
          ],
          [
            -66.11021,
            -17.451571
          ],
          [
            -66.110239,
            -17.452064
          ],
          [
            -66.110241,
            -17.452477
          ],
          [
            -66.108596,
            -17.452509
          ]
        ]
      }
    }
  ]
}