{
  "type": "FeatureCollection",
  "features": [
    {
      "type": "Feature",
      "properties": {
        "route_id": "10677513",
        "route_short_name": "S",
        "route_long_name": "MicroBus S: Avenida Blanco Galindo \u2192 Calle Mendoza"
      },
      "geometry": {
        "type": "LineString",
        "coordinates": [
          [
            -66.230806,
            -17.395425
          ],
          [
            -66.230939,
            -17.394428
          ],
          [
            -66.23091,
            -17.394203
          ],
          [
            -66.230819,
            -17.393732
          ],
          [
            -66.230846,
            -17.393657
          ],
          [
            -66.229812,
            -17.393931
          ],
          [
            -66.229306,
            -17.394061
          ],
          [
            -66.229084,
            -17.394138
          ],
          [
            -66.227841,
            -17.394623
          ],
          [
            -66.227371,
            -17.394778
          ],
          [
            -66.227035,
            -17.39487
          ],
          [
            -66.226681,
            -17.39494
          ],
          [
            -66.226462,
            -17.394996
          ],
          [
            -66.226354,
            -17.395025
          ],
          [
            -66.224742,
            -17.395582
          ],
          [
            -66.224739,
            -17.395482
          ],
          [
            -66.224769,
            -17.39497
          ],
          [
            -66.224796,
            -17.394334
          ],
          [
            -66.224808,
            -17.394152
          ],
          [
            -66.224836,
            -17.393733
          ],
          [
            -66.224844,
            -17.39365
          ],
          [
            -66.224848,
            -17.393587
          ],
          [
            -66.224884,
            -17.392643
          ],
          [
            -66.224886,
            -17.392613
          ],
          [
            -66.224897,
            -17.392441
          ],
          [
            -66.224912,
            -17.391755
          ],
          [
            -66.224919,
            -17.391617
          ],
          [
            -66.22209,
            -17.391747
          ],
          [
            -66.221875,
            -17.391755
          ],
          [
            -66.221596,
            -17.391756
          ],
          [
            -66.221335,
            -17.391773
          ],
          [
            -66.219409,
            -17.391852
          ],
          [
            -66.219347,
            -17.391851
          ],
          [
            -66.218927,
            -17.391871
          ],
          [
            -66.218255,
            -17.391897
          ],
          [
            -66.2154,
            -17.392046
          ],
          [
            -66.213513,
            -17.392121
          ],
          [
            -66.212594,
            -17.392155
          ],
          [
            -66.21253,
            -17.392157
          ],
          [
            -66.211318,
            -17.392197
          ],
          [
            -66.211112,
            -17.392208
          ],
          [
            -66.210411,
            -17.392246
          ],
          [
            -66.210397,
            -17.392246
          ],
          [
            -66.210359,
            -17.392246
          ],
          [
            -66.210346,
            -17.392246
          ],
          [
            -66.210337,
            -17.392246
          ],
          [
            -66.21032,
            -17.392246
          ],
          [
            -66.208973,
            -17.392304
          ],
          [
            -66.208295,
            -17.392338
          ],
          [
            -66.20819,
            -17.392343
          ],
          [
            -66.208096,
            -17.392347
          ],
          [
            -66.20801,
            -17.39235
          ],
          [
            -66.20777,
            -17.39236
          ],
          [
            -66.205628,
            -17.392448
          ],
          [
            -66.204708,
            -17.392489
          ],
          [
            -66.204309,
            -17.392508
          ],
          [
            -66.20362,
            -17.392535
          ],
          [
            -66.203108,
            -17.392554
          ],
          [
            -66.200207,
            -17.392688
          ],
          [
            -66.199822,
            -17.392705
          ],
          [
            -66.199683,
            -17.39271
          ],
          [
            -66.199603,
            -17.392714
          ],
          [
            -66.199482,
            -17.392719
          ],
          [
            -66.199275,
            -17.392728
          ],
          [
            -66.198936,
            -17.392742
          ],
          [
            -66.197099,
            -17.39282
          ],
          [
            -66.196961,
            -17.392827
          ],
          [
            -66.194171,
            -17.392952
          ],
          [
            -66.193903,
            -17.392963
          ],
          [
            -66.19186,
            -17.39305
          ],
          [
            -66.189268,
            -17.393168
          ],
          [
            -66.187582,
            -17.393243
          ],
          [
            -66.186416,
            -17.393294
          ],
          [
            -66.186154,
            -17.393305
          ],
          [
            -66.184462,
            -17.393374
          ],
          [
            -66.184103,
            -17.393391
          ],
          [
            -66.181838,
            -17.393498
          ],
          [
            -66.18106,
            -17.39353
          ],
          [
            -66.180149,
            -17.393568
          ],
          [
            -66.179566,
            -17.393593
          ],
          [
            -66.177922,
            -17.393671
          ],
          [
            -66.177602,
            -17.393686
          ],
          [
            -66.177279,
            -17.393699
          ],
          [
            -66.176819,
            -17.393719
          ],
          [
            -66.176685,
            -17.393724
          ],
          [
            -66.176607,
            -17.393728
          ],
          [
            -66.176473,
            -17.393734
          ],
          [
            -66.174747,
            -17.393808
          ],
          [
            -66.174015,
            -17.393839
          ],
          [
            -66.17391,
            -17.393844
          ],
          [
            -66.171329,
            -17.393958
          ],
          [
            -66.171173,
            -17.393975
          ],
          [
            -66.171037,
            -17.394003
          ],
          [
            -66.170902,
            -17.394036
          ],
          [
            -66.170765,
            -17.394068
          ],
          [
            -66.170705,
            -17.394095
          ],
          [
            -66.170658,
            -17.394102
          ],
          [
            -66.170608,
            -17.394098
          ],
          [
            -66.170567,
            -17.394089
          ],
          [
            -66.170425,
            -17.394073
          ],
          [
            -66.17029,
            -17.394067
          ],
          [
            -66.169213,
            -17.394123
          ],
          [
            -66.168848,
            -17.394136
          ],
          [
            -66.168749,
            -17.39414
          ],
          [
            -66.168475,
            -17.39415
          ],
          [
            -66.168352,
            -17.394154
          ],
          [
            -66.167998,
            -17.394167
          ],
          [
            -66.167899,
            -17.394168
          ],
          [
            -66.167805,
            -17.394157
          ],
          [
            -66.16771,
            -17.394146
          ],
          [
            -66.167603,
            -17.394136
          ],
          [
            -66.167473,
            -17.394122
          ],
          [
            -66.167376,
            -17.394114
          ],
          [
            -66.166963,
            -17.394065
          ],
          [
            -66.166698,
            -17.394038
          ],
          [
            -66.166609,
            -17.394026
          ],
          [
            -66.166515,
            -17.394005
          ],
          [
            -66.166338,
            -17.393931
          ],
          [
            -66.166273,
            -17.393911
          ],
          [
            -66.166192,
            -17.393894
          ],
          [
            -66.165909,
            -17.393848
          ],
          [
            -66.164906,
            -17.39367
          ],
          [
            -66.163915,
            -17.393489
          ],
          [
            -66.162053,
            -17.39318
          ],
          [
            -66.161979,
            -17.393167
          ],
          [
            -66.161115,
            -17.393017
          ],
          [
            -66.161047,
            -17.393009
          ],
          [
            -66.160979,
            -17.393
          ],
          [
            -66.159961,
            -17.392837
          ],
          [
            -66.159906,
            -17.392828
          ],
          [
            -66.159866,
            -17.392822
          ],
          [
            -66.159825,
            -17.392815
          ],
          [
            -66.159037,
            -17.392679
          ],
          [
            -66.158924,
            -17.392658
          ],
          [
            -66.158862,
            -17.392647
          ],
          [
            -66.15877,
            -17.392632
          ],
          [
            -66.15869,
            -17.392617
          ],
          [
            -66.158366,
            -17.392559
          ],
          [
            -66.15829,
            -17.392545
          ],
          [
            -66.157782,
            -17.39246
          ],
          [
            -66.157737,
            -17.392451
          ],
          [
            -66.157684,
            -17.392442
          ],
          [
            -66.157305,
            -17.392376
          ],
          [
            -66.156712,
            -17.392274
          ],
          [
            -66.156656,
            -17.392263
          ],
          [
            -66.156614,
            -17.392256
          ],
          [
            -66.156188,
            -17.392183
          ],
          [
            -66.156156,
            -17.392177
          ],
          [
            -66.155647,
            -17.392082
          ],
          [
            -66.155571,
            -17.392067
          ],
          [
            -66.15552,
            -17.392057
          ],
          [
            -66.154582,
            -17.391891
          ],
          [
            -66.1545,
            -17.391876
          ],
          [
            -66.154438,
            -17.391864
          ],
          [
            -66.154032,
            -17.391794
          ],
          [
            -66.15365,
            -17.391724
          ],
          [
            -66.153404,
            -17.39168
          ],
          [
            -66.153354,
            -17.391672
          ],
          [
            -66.153306,
            -17.391662
          ],
          [
            -66.152362,
            -17.391484
          ],
          [
            -66.152286,
            -17.391471
          ],
          [
            -66.152228,
            -17.39146
          ],
          [
            -66.151264,
            -17.391283
          ],
          [
            -66.151208,
            -17.391273
          ],
          [
            -66.151198,
            -17.391337
          ],
          [
            -66.151126,
            -17.391729
          ],
          [
            -66.15104,
            -17.392193
          ],
          [
            -66.151028,
            -17.392245
          ],
          [
            -66.151021,
            -17.392284
          ],
          [
            -66.150842,
            -17.393227
          ],
          [
            -66.150832,
            -17.393279
          ],
          [
            -66.150822,
            -17.393334
          ],
          [
            -66.15064,
            -17.394328
          ],
          [
            -66.150442,
            -17.395355
          ],
          [
            -66.150386,
            -17.395644
          ],
          [
            -66.150236,
            -17.396417
          ],
          [
            -66.150023,
            -17.397561
          ],
          [
            -66.150017,
            -17.397637
          ],
          [
            -66.150014,
            -17.397688
          ],
          [
            -66.149949,
            -17.398476
          ],
          [
            -66.149941,
            -17.398553
          ],
          [
            -66.149907,
            -17.399003
          ],
          [
            -66.149849,
            -17.399867
          ],
          [
            -66.150022,
            -17.399873
          ],
          [
            -66.150125,
            -17.399876
          ],
          [
            -66.150221,
            -17.399889
          ],
          [
            -66.15035,
            -17.399919
          ],
          [
            -66.150359,
            -17.399922
          ],
          [
            -66.150441,
            -17.399951
          ],
          [
            -66.150566,
            -17.400006
          ],
          [
            -66.15073,
            -17.400113
          ],
          [
            -66.150872,
            -17.400238
          ],
          [
            -66.150974,
            -17.400334
          ],
          [
            -66.151083,
            -17.400467
          ],
          [
            -66.151158,
            -17.400587
          ],
          [
            -66.15124,
            -17.400754
          ],
          [
            -66.15129,
            -17.400901
          ],
          [
            -66.151311,
            -17.401041
          ],
          [
            -66.151318,
            -17.401207
          ],
          [
            -66.151304,
            -17.401331
          ],
          [
            -66.151274,
            -17.40147
          ],
          [
            -66.151186,
            -17.401446
          ],
          [
            -66.15122,
            -17.401284
          ],
          [
            -66.151222,
            -17.401146
          ],
          [
            -66.151208,
            -17.401011
          ],
          [
            -66.151194,
            -17.400919
          ],
          [
            -66.15116,
            -17.400784
          ],
          [
            -66.151108,
            -17.400672
          ],
          [
            -66.151067,
            -17.400598
          ],
          [
            -66.151,
            -17.400493
          ],
          [
            -66.150916,
            -17.400394
          ],
          [
            -66.150843,
            -17.400317
          ],
          [
            -66.150702,
            -17.400191
          ],
          [
            -66.150598,
            -17.40012
          ],
          [
            -66.150511,
            -17.400071
          ],
          [
            -66.150393,
            -17.400027
          ],
          [
            -66.150272,
            -17.399991
          ],
          [
            -66.150116,
            -17.399965
          ],
          [
            -66.149822,
            -17.399953
          ],
          [
            -66.148299,
            -17.399918
          ],
          [
            -66.148205,
            -17.399907
          ],
          [
            -66.148074,
            -17.39986
          ],
          [
            -66.147193,
            -17.399734
          ],
          [
            -66.147129,
            -17.399727
          ],
          [
            -66.14708,
            -17.39972
          ],
          [
            -66.14678,
            -17.399681
          ],
          [
            -66.146342,
            -17.399625
          ],
          [
            -66.146322,
            -17.399622
          ],
          [
            -66.146259,
            -17.399614
          ],
          [
            -66.146137,
            -17.399597
          ],
          [
            -66.14609,
            -17.39959
          ],
          [
            -66.145795,
            -17.399548
          ],
          [
            -66.145575,
            -17.399516
          ],
          [
            -66.144511,
            -17.399374
          ],
          [
            -66.143966,
            -17.399299
          ],
          [
            -66.143166,
            -17.39919
          ],
          [
            -66.142426,
            -17.399085
          ],
          [
            -66.141921,
            -17.399019
          ],
          [
            -66.141164,
            -17.398916
          ],
          [
            -66.140552,
            -17.39883
          ],
          [
            -66.139626,
            -17.398694
          ],
          [
            -66.138526,
            -17.398544
          ],
          [
            -66.137717,
            -17.398426
          ],
          [
            -66.137561,
            -17.398403
          ],
          [
            -66.137429,
            -17.398384
          ],
          [
            -66.136615,
            -17.398266
          ],
          [
            -66.136483,
            -17.398271
          ],
          [
            -66.136405,
            -17.398277
          ],
          [
            -66.136309,
            -17.398296
          ],
          [
            -66.136235,
            -17.398323
          ],
          [
            -66.136172,
            -17.39836
          ],
          [
            -66.136018,
            -17.398466
          ],
          [
            -66.13597,
            -17.398498
          ],
          [
            -66.1359,
            -17.398541
          ],
          [
            -66.135857,
            -17.398573
          ],
          [
            -66.135597,
            -17.398753
          ],
          [
            -66.135157,
            -17.399079
          ],
          [
            -66.134927,
            -17.399239
          ],
          [
            -66.134835,
            -17.399287
          ],
          [
            -66.134713,
            -17.399361
          ],
          [
            -66.134558,
            -17.39949
          ],
          [
            -66.134389,
            -17.399664
          ],
          [
            -66.134218,
            -17.399853
          ],
          [
            -66.134051,
            -17.400084
          ],
          [
            -66.133814,
            -17.400451
          ],
          [
            -66.133081,
            -17.401762
          ],
          [
            -66.133017,
            -17.401868
          ],
          [
            -66.132908,
            -17.402
          ],
          [
            -66.132812,
            -17.402104
          ],
          [
            -66.132672,
            -17.402231
          ],
          [
            -66.132496,
            -17.402371
          ],
          [
            -66.130851,
            -17.403662
          ],
          [
            -66.129424,
            -17.404789
          ],
          [
            -66.129345,
            -17.404864
          ],
          [
            -66.129089,
            -17.405136
          ],
          [
            -66.128835,
            -17.405476
          ],
          [
            -66.128537,
            -17.405931
          ],
          [
            -66.12838,
            -17.406177
          ],
          [
            -66.128242,
            -17.406394
          ],
          [
            -66.128145,
            -17.406653
          ],
          [
            -66.128103,
            -17.406725
          ],
          [
            -66.128057,
            -17.406804
          ],
          [
            -66.12801,
            -17.406883
          ],
          [
            -66.127977,
            -17.406938
          ],
          [
            -66.127666,
            -17.407334
          ],
          [
            -66.127481,
            -17.407698
          ],
          [
            -66.127343,
            -17.408018
          ],
          [
            -66.127252,
            -17.408259
          ],
          [
            -66.127209,
            -17.4084
          ],
          [
            -66.127189,
            -17.408452
          ],
          [
            -66.127084,
            -17.40896
          ],
          [
            -66.126968,
            -17.409568
          ],
          [
            -66.126855,
            -17.410181
          ],
          [
            -66.126824,
            -17.41035
          ],
          [
            -66.126803,
            -17.410505
          ],
          [
            -66.126774,
            -17.410809
          ],
          [
            -66.126582,
            -17.411848
          ],
          [
            -66.126522,
            -17.412201
          ],
          [
            -66.126432,
            -17.412523
          ],
          [
            -66.12642,
            -17.412607
          ],
          [
            -66.126323,
            -17.413244
          ],
          [
            -66.126287,
            -17.413482
          ],
          [
            -66.126233,
            -17.413883
          ],
          [
            -66.126147,
            -17.414527
          ],
          [
            -66.126135,
            -17.414616
          ],
          [
            -66.126064,
            -17.415175
          ],
          [
            -66.126053,
            -17.415302
          ],
          [
            -66.126053,
            -17.415435
          ],
          [
            -66.126058,
            -17.41554
          ],
          [
            -66.126071,
            -17.415645
          ],
          [
            -66.126096,
            -17.415768
          ],
          [
            -66.126123,
            -17.415886
          ],
          [
            -66.126191,
            -17.416086
          ],
          [
            -66.126295,
            -17.416281
          ],
          [
            -66.126407,
            -17.416456
          ],
          [
            -66.126462,
            -17.416536
          ],
          [
            -66.126523,
            -17.416593
          ],
          [
            -66.126603,
            -17.416666
          ],
          [
            -66.126674,
            -17.416728
          ],
          [
            -66.126756,
            -17.416789
          ],
          [
            -66.126933,
            -17.416902
          ],
          [
            -66.127196,
            -17.417022
          ],
          [
            -66.127397,
            -17.417096
          ],
          [
            -66.12762,
            -17.41716
          ],
          [
            -66.127793,
            -17.417197
          ],
          [
            -66.12792,
            -17.417225
          ],
          [
            -66.1279,
            -17.417307
          ],
          [
            -66.127889,
            -17.417399
          ],
          [
            -66.127877,
            -17.417503
          ],
          [
            -66.127858,
            -17.417848
          ],
          [
            -66.127826,
            -17.418415
          ],
          [
            -66.127799,
            -17.41878
          ],
          [
            -66.127796,
            -17.418859
          ],
          [
            -66.127769,
            -17.41937
          ],
          [
            -66.127728,
            -17.420146
          ],
          [
            -66.127723,
            -17.420229
          ],
          [
            -66.126617,
            -17.420046
          ],
          [
            -66.125476,
            -17.419851
          ],
          [
            -66.125383,
            -17.419836
          ],
          [
            -66.125145,
            -17.41978
          ],
          [
            -66.125076,
            -17.419748
          ],
          [
            -66.125012,
            -17.4197
          ],
          [
            -66.124965,
            -17.419659
          ],
          [
            -66.124893,
            -17.419583
          ],
          [
            -66.124659,
            -17.419304
          ],
          [
            -66.12429,
            -17.419493
          ],
          [
            -66.123319,
            -17.420019
          ],
          [
            -66.123242,
            -17.420067
          ],
          [
            -66.123044,
            -17.419504
          ],
          [
            -66.122966,
            -17.419561
          ],
          [
            -66.122221,
            -17.42049
          ],
          [
            -66.121869,
            -17.420943
          ],
          [
            -66.12183,
            -17.420982
          ],
          [
            -66.121745,
            -17.421036
          ],
          [
            -66.121496,
            -17.421102
          ],
          [
            -66.121934,
            -17.421432
          ],
          [
            -66.121971,
            -17.421496
          ],
          [
            -66.122079,
            -17.421614
          ],
          [
            -66.122372,
            -17.42182
          ],
          [
            -66.122248,
            -17.421948
          ],
          [
            -66.121898,
            -17.422376
          ],
          [
            -66.121448,
            -17.422928
          ],
          [
            -66.121444,
            -17.423041
          ],
          [
            -66.120731,
            -17.423012
          ],
          [
            -66.120012,
            -17.422963
          ],
          [
            -66.118782,
            -17.422849
          ],
          [
            -66.118698,
            -17.422832
          ],
          [
            -66.118631,
            -17.422807
          ],
          [
            -66.118568,
            -17.422772
          ],
          [
            -66.118489,
            -17.422705
          ],
          [
            -66.11834,
            -17.422576
          ],
          [
            -66.118305,
            -17.422537
          ],
          [
            -66.118142,
            -17.422356
          ],
          [
            -66.117974,
            -17.42218
          ],
          [
            -66.117537,
            -17.421746
          ],
          [
            -66.116942,
            -17.421258
          ],
          [
            -66.116659,
            -17.420895
          ],
          [
            -66.116555,
            -17.420802
          ],
          [
            -66.11642,
            -17.420921
          ],
          [
            -66.116635,
            -17.421544
          ],
          [
            -66.116716,
            -17.421809
          ],
          [
            -66.116738,
            -17.421954
          ],
          [
            -66.116745,
            -17.422059
          ],
          [
            -66.116649,
            -17.422364
          ],
          [
            -66.116973,
            -17.422406
          ],
          [
            -66.117059,
            -17.422952
          ],
          [
            -66.117095,
            -17.423029
          ],
          [
            -66.117139,
            -17.423083
          ],
          [
            -66.117325,
            -17.423237
          ],
          [
            -66.117399,
            -17.42329
          ],
          [
            -66.117364,
            -17.423434
          ],
          [
            -66.117335,
            -17.423913
          ],
          [
            -66.11731,
            -17.424248
          ],
          [
            -66.117314,
            -17.424378
          ],
          [
            -66.117354,
            -17.424457
          ],
          [
            -66.117454,
            -17.424564
          ],
          [
            -66.117696,
            -17.424778
          ],
          [
            -66.117883,
            -17.424971
          ],
          [
            -66.118041,
            -17.425063
          ],
          [
            -66.118583,
            -17.425502
          ],
          [
            -66.118625,
            -17.425542
          ],
          [
            -66.118659,
            -17.425602
          ],
          [
            -66.118743,
            -17.425849
          ],
          [
            -66.118865,
            -17.426189
          ],
          [
            -66.118913,
            -17.426365
          ],
          [
            -66.118832,
            -17.426404
          ],
          [
            -66.118758,
            -17.426409
          ],
          [
            -66.118481,
            -17.426396
          ],
          [
            -66.118353,
            -17.426401
          ],
          [
            -66.118218,
            -17.426427
          ],
          [
            -66.118078,
            -17.426472
          ],
          [
            -66.117865,
            -17.426552
          ],
          [
            -66.117699,
            -17.426633
          ],
          [
            -66.117627,
            -17.426644
          ],
          [
            -66.11732,
            -17.42665
          ],
          [
            -66.116748,
            -17.426781
          ],
          [
            -66.116623,
            -17.426815
          ],
          [
            -66.1164,
            -17.426889
          ],
          [
            -66.116297,
            -17.426936
          ],
          [
            -66.116199,
            -17.426979
          ],
          [
            -66.115929,
            -17.427399
          ],
          [
            -66.115789,
            -17.42765
          ]
        ]
      }
    }
  ]
}