{
  "type": "FeatureCollection",
  "features": [
    {
      "type": "Feature",
      "properties": {
        "route_id": "10807446",
        "route_short_name": "T",
        "route_long_name": "MicroBus T: Calle Sacaca \u2192 Villa Co\u00f1a Co\u00f1a"
      },
      "geometry": {
        "type": "LineString",
        "coordinates": [
          [
            -66.112638,
            -17.458962
          ],
          [
            -66.112202,
            -17.458437
          ],
          [
            -66.112066,
            -17.458267
          ],
          [
            -66.112018,
            -17.457354
          ],
          [
            -66.111991,
            -17.456665
          ],
          [
            -66.111981,
            -17.456336
          ],
          [
            -66.111992,
            -17.456231
          ],
          [
            -66.111992,
            -17.456153
          ],
          [
            -66.111951,
            -17.455716
          ],
          [
            -66.111943,
            -17.455531
          ],
          [
            -66.111927,
            -17.455266
          ],
          [
            -66.11192,
            -17.455118
          ],
          [
            -66.111907,
            -17.4547
          ],
          [
            -66.111893,
            -17.454254
          ],
          [
            -66.11187,
            -17.453876
          ],
          [
            -66.111843,
            -17.453402
          ],
          [
            -66.11183,
            -17.452857
          ],
          [
            -66.11181,
            -17.452431
          ],
          [
            -66.111806,
            -17.452341
          ],
          [
            -66.111817,
            -17.452235
          ],
          [
            -66.111943,
            -17.452089
          ],
          [
            -66.112023,
            -17.45203
          ],
          [
            -66.112193,
            -17.451789
          ],
          [
            -66.112334,
            -17.451725
          ],
          [
            -66.11295,
            -17.451709
          ],
          [
            -66.113738,
            -17.451686
          ],
          [
            -66.113744,
            -17.451598
          ],
          [
            -66.113702,
            -17.451282
          ],
          [
            -66.113696,
            -17.451136
          ],
          [
            -66.113684,
            -17.450854
          ],
          [
            -66.113681,
            -17.450714
          ],
          [
            -66.114148,
            -17.450695
          ],
          [
            -66.114288,
            -17.450694
          ],
          [
            -66.115136,
            -17.45085
          ],
          [
            -66.115195,
            -17.450652
          ],
          [
            -66.115254,
            -17.450587
          ],
          [
            -66.115607,
            -17.450632
          ],
          [
            -66.116485,
            -17.450643
          ],
          [
            -66.11657,
            -17.450623
          ],
          [
            -66.116617,
            -17.450597
          ],
          [
            -66.116658,
            -17.450423
          ],
          [
            -66.116838,
            -17.449964
          ],
          [
            -66.11702,
            -17.449686
          ],
          [
            -66.116855,
            -17.449445
          ],
          [
            -66.116802,
            -17.449369
          ],
          [
            -66.116789,
            -17.448956
          ],
          [
            -66.116739,
            -17.447611
          ],
          [
            -66.116714,
            -17.447171
          ],
          [
            -66.11668,
            -17.446382
          ],
          [
            -66.116664,
            -17.446189
          ],
          [
            -66.11666,
            -17.446039
          ],
          [
            -66.11665,
            -17.445859
          ],
          [
            -66.116646,
            -17.445768
          ],
          [
            -66.116629,
            -17.445472
          ],
          [
            -66.116619,
            -17.445224
          ],
          [
            -66.116605,
            -17.444671
          ],
          [
            -66.116569,
            -17.443857
          ],
          [
            -66.116563,
            -17.443832
          ],
          [
            -66.116567,
            -17.443807
          ],
          [
            -66.116566,
            -17.443726
          ],
          [
            -66.116551,
            -17.443428
          ],
          [
            -66.116515,
            -17.442691
          ],
          [
            -66.116492,
            -17.442164
          ],
          [
            -66.11647,
            -17.441542
          ],
          [
            -66.11647,
            -17.441453
          ],
          [
            -66.116466,
            -17.44143
          ],
          [
            -66.116468,
            -17.441409
          ],
          [
            -66.116458,
            -17.441305
          ],
          [
            -66.116428,
            -17.440799
          ],
          [
            -66.116409,
            -17.440155
          ],
          [
            -66.116396,
            -17.43995
          ],
          [
            -66.116551,
            -17.439965
          ],
          [
            -66.11831,
            -17.439889
          ],
          [
            -66.118319,
            -17.439824
          ],
          [
            -66.118328,
            -17.439337
          ],
          [
            -66.118332,
            -17.438847
          ],
          [
            -66.118406,
            -17.438108
          ],
          [
            -66.11843,
            -17.437634
          ],
          [
            -66.118416,
            -17.436997
          ],
          [
            -66.118886,
            -17.436972
          ],
          [
            -66.119452,
            -17.436953
          ],
          [
            -66.119618,
            -17.436949
          ],
          [
            -66.119815,
            -17.436927
          ],
          [
            -66.121046,
            -17.43713
          ],
          [
            -66.122021,
            -17.437278
          ],
          [
            -66.122091,
            -17.437287
          ],
          [
            -66.123084,
            -17.437448
          ],
          [
            -66.124131,
            -17.437614
          ],
          [
            -66.124477,
            -17.437652
          ],
          [
            -66.124681,
            -17.43767
          ],
          [
            -66.124901,
            -17.437652
          ],
          [
            -66.125295,
            -17.437596
          ],
          [
            -66.125442,
            -17.437566
          ],
          [
            -66.125563,
            -17.43753
          ],
          [
            -66.125387,
            -17.436652
          ],
          [
            -66.125373,
            -17.436575
          ],
          [
            -66.125349,
            -17.436466
          ],
          [
            -66.125321,
            -17.436358
          ],
          [
            -66.125226,
            -17.436088
          ],
          [
            -66.125193,
            -17.436002
          ],
          [
            -66.125164,
            -17.43585
          ],
          [
            -66.125151,
            -17.43575
          ],
          [
            -66.125149,
            -17.435639
          ],
          [
            -66.125158,
            -17.435545
          ],
          [
            -66.125173,
            -17.43547
          ],
          [
            -66.125194,
            -17.435394
          ],
          [
            -66.125217,
            -17.43533
          ],
          [
            -66.125254,
            -17.435251
          ],
          [
            -66.125292,
            -17.435184
          ],
          [
            -66.125327,
            -17.435132
          ],
          [
            -66.125684,
            -17.434585
          ],
          [
            -66.125922,
            -17.434204
          ],
          [
            -66.126617,
            -17.433095
          ],
          [
            -66.126802,
            -17.432823
          ],
          [
            -66.127242,
            -17.432002
          ],
          [
            -66.127518,
            -17.43146
          ],
          [
            -66.127773,
            -17.430971
          ],
          [
            -66.12796,
            -17.430596
          ],
          [
            -66.128413,
            -17.429762
          ],
          [
            -66.128568,
            -17.429495
          ],
          [
            -66.128695,
            -17.429295
          ],
          [
            -66.128802,
            -17.429144
          ],
          [
            -66.128873,
            -17.429046
          ],
          [
            -66.129029,
            -17.428849
          ],
          [
            -66.130333,
            -17.427315
          ],
          [
            -66.13056,
            -17.427064
          ],
          [
            -66.130651,
            -17.426976
          ],
          [
            -66.13126,
            -17.426424
          ],
          [
            -66.132574,
            -17.425306
          ],
          [
            -66.134371,
            -17.423799
          ],
          [
            -66.134469,
            -17.423722
          ],
          [
            -66.134637,
            -17.423644
          ],
          [
            -66.134742,
            -17.423638
          ],
          [
            -66.134883,
            -17.423643
          ],
          [
            -66.135337,
            -17.42368
          ],
          [
            -66.135385,
            -17.423672
          ],
          [
            -66.135437,
            -17.423657
          ],
          [
            -66.136817,
            -17.422246
          ],
          [
            -66.138048,
            -17.420984
          ],
          [
            -66.138717,
            -17.420301
          ],
          [
            -66.13927,
            -17.419722
          ],
          [
            -66.139333,
            -17.419662
          ],
          [
            -66.139364,
            -17.419632
          ],
          [
            -66.139469,
            -17.419512
          ],
          [
            -66.139515,
            -17.419459
          ],
          [
            -66.139582,
            -17.419379
          ],
          [
            -66.139633,
            -17.419311
          ],
          [
            -66.139687,
            -17.419231
          ],
          [
            -66.13974,
            -17.419135
          ],
          [
            -66.139799,
            -17.418986
          ],
          [
            -66.139833,
            -17.418882
          ],
          [
            -66.140163,
            -17.417856
          ],
          [
            -66.140363,
            -17.417232
          ],
          [
            -66.140469,
            -17.416909
          ],
          [
            -66.140512,
            -17.416807
          ],
          [
            -66.140525,
            -17.416775
          ],
          [
            -66.140607,
            -17.416621
          ],
          [
            -66.14074,
            -17.416409
          ],
          [
            -66.140939,
            -17.416093
          ],
          [
            -66.141045,
            -17.415943
          ],
          [
            -66.141204,
            -17.415752
          ],
          [
            -66.141306,
            -17.415668
          ],
          [
            -66.141452,
            -17.415532
          ],
          [
            -66.141674,
            -17.415296
          ],
          [
            -66.141768,
            -17.415175
          ],
          [
            -66.14198,
            -17.414854
          ],
          [
            -66.142108,
            -17.414584
          ],
          [
            -66.142203,
            -17.414348
          ],
          [
            -66.142286,
            -17.414041
          ],
          [
            -66.142313,
            -17.413874
          ],
          [
            -66.14232,
            -17.413794
          ],
          [
            -66.142333,
            -17.413647
          ],
          [
            -66.14234,
            -17.413335
          ],
          [
            -66.142409,
            -17.412272
          ],
          [
            -66.142417,
            -17.412066
          ],
          [
            -66.142434,
            -17.411546
          ],
          [
            -66.142443,
            -17.410741
          ],
          [
            -66.142447,
            -17.410619
          ],
          [
            -66.142452,
            -17.410498
          ],
          [
            -66.142484,
            -17.41021
          ],
          [
            -66.142491,
            -17.410176
          ],
          [
            -66.14254,
            -17.409936
          ],
          [
            -66.142598,
            -17.409711
          ],
          [
            -66.142661,
            -17.409523
          ],
          [
            -66.142795,
            -17.409173
          ],
          [
            -66.142938,
            -17.408877
          ],
          [
            -66.143122,
            -17.40857
          ],
          [
            -66.143443,
            -17.408124
          ],
          [
            -66.143954,
            -17.407468
          ],
          [
            -66.144111,
            -17.407266
          ],
          [
            -66.144596,
            -17.406655
          ],
          [
            -66.144738,
            -17.406483
          ],
          [
            -66.144886,
            -17.406284
          ],
          [
            -66.145003,
            -17.406108
          ],
          [
            -66.145406,
            -17.405307
          ],
          [
            -66.145499,
            -17.405111
          ],
          [
            -66.145628,
            -17.404833
          ],
          [
            -66.145697,
            -17.404681
          ],
          [
            -66.1458,
            -17.404468
          ],
          [
            -66.145896,
            -17.404296
          ],
          [
            -66.146019,
            -17.404104
          ],
          [
            -66.146146,
            -17.403945
          ],
          [
            -66.146345,
            -17.403702
          ],
          [
            -66.146644,
            -17.403361
          ],
          [
            -66.146745,
            -17.403239
          ],
          [
            -66.146878,
            -17.40307
          ],
          [
            -66.146924,
            -17.402999
          ],
          [
            -66.146987,
            -17.40285
          ],
          [
            -66.147037,
            -17.402718
          ],
          [
            -66.147062,
            -17.402652
          ],
          [
            -66.147093,
            -17.402539
          ],
          [
            -66.147125,
            -17.402367
          ],
          [
            -66.147126,
            -17.402221
          ],
          [
            -66.147153,
            -17.402068
          ],
          [
            -66.147172,
            -17.402016
          ],
          [
            -66.147196,
            -17.401979
          ],
          [
            -66.147234,
            -17.401951
          ],
          [
            -66.147281,
            -17.401924
          ],
          [
            -66.147342,
            -17.401908
          ],
          [
            -66.147394,
            -17.401892
          ],
          [
            -66.147549,
            -17.401845
          ],
          [
            -66.147628,
            -17.401799
          ],
          [
            -66.147675,
            -17.401758
          ],
          [
            -66.147714,
            -17.401707
          ],
          [
            -66.147745,
            -17.401646
          ],
          [
            -66.147873,
            -17.401247
          ],
          [
            -66.14796,
            -17.400947
          ],
          [
            -66.147974,
            -17.400892
          ],
          [
            -66.148018,
            -17.400831
          ],
          [
            -66.148196,
            -17.399952
          ],
          [
            -66.148205,
            -17.399907
          ],
          [
            -66.148212,
            -17.399874
          ],
          [
            -66.148219,
            -17.399838
          ],
          [
            -66.149849,
            -17.399867
          ],
          [
            -66.150022,
            -17.399873
          ],
          [
            -66.150125,
            -17.399876
          ],
          [
            -66.150221,
            -17.399889
          ],
          [
            -66.15035,
            -17.399919
          ],
          [
            -66.150359,
            -17.399922
          ],
          [
            -66.150441,
            -17.399951
          ],
          [
            -66.150566,
            -17.400006
          ],
          [
            -66.15073,
            -17.400113
          ],
          [
            -66.150872,
            -17.400238
          ],
          [
            -66.150904,
            -17.400106
          ],
          [
            -66.150921,
            -17.399952
          ],
          [
            -66.150986,
            -17.399285
          ],
          [
            -66.151085,
            -17.39854
          ],
          [
            -66.15109,
            -17.398457
          ],
          [
            -66.151156,
            -17.397775
          ],
          [
            -66.15131,
            -17.396615
          ],
          [
            -66.151505,
            -17.395543
          ],
          [
            -66.151571,
            -17.395216
          ],
          [
            -66.151709,
            -17.394524
          ],
          [
            -66.151906,
            -17.393465
          ],
          [
            -66.152094,
            -17.392431
          ],
          [
            -66.152271,
            -17.391539
          ],
          [
            -66.152286,
            -17.391471
          ],
          [
            -66.152305,
            -17.391382
          ],
          [
            -66.152382,
            -17.391394
          ],
          [
            -66.152895,
            -17.391491
          ],
          [
            -66.153323,
            -17.391576
          ],
          [
            -66.153374,
            -17.391585
          ],
          [
            -66.153422,
            -17.391594
          ],
          [
            -66.154042,
            -17.391704
          ],
          [
            -66.154453,
            -17.391776
          ],
          [
            -66.154518,
            -17.391787
          ],
          [
            -66.154597,
            -17.3918
          ],
          [
            -66.155536,
            -17.391967
          ],
          [
            -66.155601,
            -17.391978
          ],
          [
            -66.155662,
            -17.391988
          ],
          [
            -66.156629,
            -17.39217
          ],
          [
            -66.156673,
            -17.392178
          ],
          [
            -66.156727,
            -17.392187
          ],
          [
            -66.157322,
            -17.392289
          ],
          [
            -66.157699,
            -17.392354
          ],
          [
            -66.157753,
            -17.392363
          ],
          [
            -66.157797,
            -17.392371
          ],
          [
            -66.158706,
            -17.392529
          ],
          [
            -66.158786,
            -17.392542
          ],
          [
            -66.158879,
            -17.392559
          ],
          [
            -66.15894,
            -17.39257
          ],
          [
            -66.159876,
            -17.392724
          ],
          [
            -66.15992,
            -17.392731
          ],
          [
            -66.159972,
            -17.39274
          ],
          [
            -66.161004,
            -17.392913
          ],
          [
            -66.161061,
            -17.392926
          ],
          [
            -66.161129,
            -17.392944
          ],
          [
            -66.161993,
            -17.393095
          ],
          [
            -66.162063,
            -17.393107
          ],
          [
            -66.163928,
            -17.393418
          ],
          [
            -66.164921,
            -17.393602
          ],
          [
            -66.165917,
            -17.393779
          ],
          [
            -66.166231,
            -17.39383
          ],
          [
            -66.166439,
            -17.393829
          ],
          [
            -66.16661,
            -17.393841
          ],
          [
            -66.166791,
            -17.393901
          ],
          [
            -66.166842,
            -17.393916
          ],
          [
            -66.166937,
            -17.393937
          ],
          [
            -66.167351,
            -17.393978
          ],
          [
            -66.167446,
            -17.393974
          ],
          [
            -66.167566,
            -17.393955
          ],
          [
            -66.167642,
            -17.393945
          ],
          [
            -66.167797,
            -17.393916
          ],
          [
            -66.167983,
            -17.393884
          ],
          [
            -66.168452,
            -17.39386
          ],
          [
            -66.168603,
            -17.393852
          ],
          [
            -66.168686,
            -17.393847
          ],
          [
            -66.16904,
            -17.393829
          ],
          [
            -66.170294,
            -17.393778
          ],
          [
            -66.170407,
            -17.393766
          ],
          [
            -66.170544,
            -17.393744
          ],
          [
            -66.170598,
            -17.393719
          ],
          [
            -66.170657,
            -17.393711
          ],
          [
            -66.170715,
            -17.393721
          ],
          [
            -66.170768,
            -17.393749
          ],
          [
            -66.170889,
            -17.393784
          ],
          [
            -66.17108,
            -17.393821
          ],
          [
            -66.171181,
            -17.393835
          ],
          [
            -66.17129,
            -17.393838
          ],
          [
            -66.173912,
            -17.39372
          ],
          [
            -66.174359,
            -17.393702
          ],
          [
            -66.174412,
            -17.3937
          ],
          [
            -66.176206,
            -17.39362
          ],
          [
            -66.176443,
            -17.39361
          ],
          [
            -66.176576,
            -17.393604
          ],
          [
            -66.176802,
            -17.393594
          ],
          [
            -66.177511,
            -17.393564
          ],
          [
            -66.178586,
            -17.393512
          ],
          [
            -66.179906,
            -17.393454
          ],
          [
            -66.179978,
            -17.393452
          ],
          [
            -66.180952,
            -17.393404
          ],
          [
            -66.181751,
            -17.393373
          ],
          [
            -66.182345,
            -17.393344
          ],
          [
            -66.1841,
            -17.393278
          ],
          [
            -66.184452,
            -17.39326
          ],
          [
            -66.186412,
            -17.393171
          ],
          [
            -66.186639,
            -17.393159
          ],
          [
            -66.186634,
            -17.393049
          ],
          [
            -66.186631,
            -17.393005
          ],
          [
            -66.186612,
            -17.392955
          ],
          [
            -66.186402,
            -17.392322
          ],
          [
            -66.185976,
            -17.391072
          ],
          [
            -66.186701,
            -17.390984
          ],
          [
            -66.1874,
            -17.390902
          ],
          [
            -66.188121,
            -17.390811
          ],
          [
            -66.188854,
            -17.390726
          ],
          [
            -66.188474,
            -17.389606
          ],
          [
            -66.188328,
            -17.389171
          ],
          [
            -66.188062,
            -17.388436
          ],
          [
            -66.188038,
            -17.388358
          ],
          [
            -66.18783,
            -17.387747
          ],
          [
            -66.187776,
            -17.387585
          ],
          [
            -66.187661,
            -17.387242
          ],
          [
            -66.187638,
            -17.387174
          ],
          [
            -66.187593,
            -17.387037
          ],
          [
            -66.187499,
            -17.386769
          ],
          [
            -66.187463,
            -17.386675
          ],
          [
            -66.187335,
            -17.386313
          ],
          [
            -66.187271,
            -17.386134
          ],
          [
            -66.186864,
            -17.386084
          ],
          [
            -66.186724,
            -17.386076
          ],
          [
            -66.186571,
            -17.386078
          ],
          [
            -66.186434,
            -17.386085
          ],
          [
            -66.185908,
            -17.386122
          ],
          [
            -66.185723,
            -17.386144
          ],
          [
            -66.185693,
            -17.386147
          ],
          [
            -66.185657,
            -17.386129
          ],
          [
            -66.185623,
            -17.386093
          ],
          [
            -66.185612,
            -17.386062
          ],
          [
            -66.185613,
            -17.386036
          ],
          [
            -66.185618,
            -17.386007
          ],
          [
            -66.185669,
            -17.385942
          ],
          [
            -66.185696,
            -17.385906
          ],
          [
            -66.18576,
            -17.38582
          ],
          [
            -66.185777,
            -17.385782
          ],
          [
            -66.185791,
            -17.385749
          ],
          [
            -66.185791,
            -17.385697
          ],
          [
            -66.185721,
            -17.385365
          ],
          [
            -66.185665,
            -17.385095
          ],
          [
            -66.185637,
            -17.38494
          ],
          [
            -66.185628,
            -17.384769
          ],
          [
            -66.185637,
            -17.384553
          ],
          [
            -66.185656,
            -17.384387
          ],
          [
            -66.185691,
            -17.384204
          ],
          [
            -66.185755,
            -17.383859
          ],
          [
            -66.185839,
            -17.383438
          ],
          [
            -66.185923,
            -17.383014
          ],
          [
            -66.185934,
            -17.382898
          ],
          [
            -66.18594,
            -17.382823
          ],
          [
            -66.185946,
            -17.382745
          ],
          [
            -66.185943,
            -17.382714
          ],
          [
            -66.185952,
            -17.382684
          ],
          [
            -66.18597,
            -17.382657
          ],
          [
            -66.185997,
            -17.382637
          ],
          [
            -66.186029,
            -17.382627
          ],
          [
            -66.186063,
            -17.382627
          ],
          [
            -66.186146,
            -17.382625
          ],
          [
            -66.186209,
            -17.382624
          ],
          [
            -66.186288,
            -17.382622
          ],
          [
            -66.186351,
            -17.38262
          ],
          [
            -66.187473,
            -17.382585
          ],
          [
            -66.187516,
            -17.382581
          ],
          [
            -66.188863,
            -17.382537
          ],
          [
            -66.189004,
            -17.382532
          ],
          [
            -66.189134,
            -17.382529
          ],
          [
            -66.189562,
            -17.382517
          ],
          [
            -66.189811,
            -17.382508
          ],
          [
            -66.189985,
            -17.382491
          ],
          [
            -66.190234,
            -17.382453
          ],
          [
            -66.190909,
            -17.3823
          ],
          [
            -66.190951,
            -17.38229
          ],
          [
            -66.191915,
            -17.382076
          ],
          [
            -66.191956,
            -17.38207
          ],
          [
            -66.192782,
            -17.382005
          ],
          [
            -66.193212,
            -17.381971
          ],
          [
            -66.19327,
            -17.381966
          ],
          [
            -66.193832,
            -17.381916
          ],
          [
            -66.194117,
            -17.381896
          ],
          [
            -66.194166,
            -17.381888
          ],
          [
            -66.194232,
            -17.381865
          ],
          [
            -66.194296,
            -17.381834
          ],
          [
            -66.194335,
            -17.381813
          ],
          [
            -66.194447,
            -17.381751
          ],
          [
            -66.194512,
            -17.381715
          ],
          [
            -66.194683,
            -17.381668
          ],
          [
            -66.194812,
            -17.381649
          ],
          [
            -66.195122,
            -17.381627
          ],
          [
            -66.195153,
            -17.381626
          ],
          [
            -66.195435,
            -17.381607
          ],
          [
            -66.19598,
            -17.381571
          ],
          [
            -66.196092,
            -17.381559
          ],
          [
            -66.19615,
            -17.381553
          ],
          [
            -66.196181,
            -17.381546
          ],
          [
            -66.196211,
            -17.381549
          ],
          [
            -66.196272,
            -17.381551
          ],
          [
            -66.19634,
            -17.381554
          ],
          [
            -66.196864,
            -17.3815
          ],
          [
            -66.198882,
            -17.381265
          ],
          [
            -66.198998,
            -17.381249
          ],
          [
            -66.199978,
            -17.381136
          ],
          [
            -66.200297,
            -17.3811
          ],
          [
            -66.200779,
            -17.381049
          ],
          [
            -66.201125,
            -17.381026
          ],
          [
            -66.20189,
            -17.380941
          ],
          [
            -66.20204,
            -17.380941
          ],
          [
            -66.202166,
            -17.380965
          ],
          [
            -66.202284,
            -17.381012
          ],
          [
            -66.202474,
            -17.381091
          ],
          [
            -66.202554,
            -17.38112
          ],
          [
            -66.204224,
            -17.382068
          ],
          [
            -66.205142,
            -17.382584
          ],
          [
            -66.205207,
            -17.382017
          ],
          [
            -66.205018,
            -17.381852
          ],
          [
            -66.204986,
            -17.381767
          ],
          [
            -66.204875,
            -17.380069
          ],
          [
            -66.20482,
            -17.38005
          ],
          [
            -66.204291,
            -17.38014
          ],
          [
            -66.204204,
            -17.380151
          ],
          [
            -66.204167,
            -17.379223
          ],
          [
            -66.204578,
            -17.379179
          ],
          [
            -66.20478,
            -17.37914
          ],
          [
            -66.204781,
            -17.378967
          ],
          [
            -66.204749,
            -17.378584
          ],
          [
            -66.204805,
            -17.378526
          ],
          [
            -66.204855,
            -17.378473
          ],
          [
            -66.205688,
            -17.378393
          ]
        ]
      }
    }
  ]
}