{
  "type": "FeatureCollection",
  "features": [
    {
      "type": "Feature",
      "properties": {
        "route_id": "10789860",
        "route_short_name": "Taqui\u00f1a",
        "route_long_name": "Trufi Taqui\u00f1a: Planta Taqui\u00f1a \u2192 Cruce Taqui\u00f1a"
      },
      "geometry": {
        "type": "LineString",
        "coordinates": [
          [
            -66.185049,
            -17.328624
          ],
          [
            -66.185133,
            -17.328693
          ],
          [
            -66.185192,
            -17.328812
          ],
          [
            -66.185228,
            -17.328951
          ],
          [
            -66.185235,
            -17.329037
          ],
          [
            -66.185192,
            -17.329224
          ],
          [
            -66.185058,
            -17.329611
          ],
          [
            -66.185043,
            -17.329664
          ],
          [
            -66.184987,
            -17.329707
          ],
          [
            -66.184946,
            -17.329745
          ],
          [
            -66.18474,
            -17.329974
          ],
          [
            -66.184596,
            -17.330218
          ],
          [
            -66.184499,
            -17.330281
          ],
          [
            -66.184403,
            -17.330357
          ],
          [
            -66.183169,
            -17.330947
          ],
          [
            -66.183088,
            -17.331002
          ],
          [
            -66.182975,
            -17.331087
          ],
          [
            -66.182929,
            -17.331236
          ],
          [
            -66.182922,
            -17.33132
          ],
          [
            -66.182925,
            -17.331398
          ],
          [
            -66.182939,
            -17.331464
          ],
          [
            -66.182967,
            -17.331554
          ],
          [
            -66.182999,
            -17.331624
          ],
          [
            -66.18304,
            -17.331702
          ],
          [
            -66.183076,
            -17.331782
          ],
          [
            -66.183104,
            -17.331877
          ],
          [
            -66.18312,
            -17.331928
          ],
          [
            -66.183106,
            -17.332097
          ],
          [
            -66.183108,
            -17.332178
          ],
          [
            -66.183129,
            -17.332272
          ],
          [
            -66.183163,
            -17.332334
          ],
          [
            -66.183209,
            -17.332385
          ],
          [
            -66.183287,
            -17.332438
          ],
          [
            -66.183367,
            -17.332479
          ],
          [
            -66.183474,
            -17.332554
          ],
          [
            -66.183539,
            -17.332627
          ],
          [
            -66.183593,
            -17.332711
          ],
          [
            -66.183619,
            -17.332796
          ],
          [
            -66.183623,
            -17.332952
          ],
          [
            -66.183612,
            -17.333107
          ],
          [
            -66.183596,
            -17.333268
          ],
          [
            -66.183589,
            -17.333483
          ],
          [
            -66.183564,
            -17.333573
          ],
          [
            -66.183556,
            -17.333657
          ],
          [
            -66.183554,
            -17.333689
          ],
          [
            -66.183533,
            -17.333855
          ],
          [
            -66.183517,
            -17.333937
          ],
          [
            -66.183509,
            -17.334088
          ],
          [
            -66.183523,
            -17.33419
          ],
          [
            -66.183528,
            -17.334224
          ],
          [
            -66.183553,
            -17.334335
          ],
          [
            -66.18361,
            -17.334489
          ],
          [
            -66.183636,
            -17.334597
          ],
          [
            -66.183641,
            -17.334723
          ],
          [
            -66.183628,
            -17.334821
          ],
          [
            -66.183501,
            -17.335272
          ],
          [
            -66.183466,
            -17.335388
          ],
          [
            -66.183413,
            -17.335658
          ],
          [
            -66.183459,
            -17.336581
          ],
          [
            -66.183451,
            -17.336645
          ],
          [
            -66.183422,
            -17.336735
          ],
          [
            -66.183413,
            -17.336773
          ],
          [
            -66.183337,
            -17.337009
          ],
          [
            -66.183312,
            -17.337153
          ],
          [
            -66.183299,
            -17.337223
          ],
          [
            -66.183205,
            -17.338158
          ],
          [
            -66.183195,
            -17.338279
          ],
          [
            -66.183206,
            -17.3385
          ],
          [
            -66.183285,
            -17.339312
          ],
          [
            -66.183458,
            -17.340403
          ],
          [
            -66.183468,
            -17.34046
          ],
          [
            -66.18353,
            -17.340959
          ],
          [
            -66.183518,
            -17.341121
          ],
          [
            -66.183472,
            -17.34135
          ],
          [
            -66.18343,
            -17.341497
          ],
          [
            -66.18334,
            -17.341803
          ],
          [
            -66.18331,
            -17.34198
          ],
          [
            -66.183288,
            -17.342335
          ],
          [
            -66.183265,
            -17.342807
          ],
          [
            -66.18327,
            -17.343008
          ],
          [
            -66.183303,
            -17.343212
          ],
          [
            -66.183328,
            -17.343337
          ],
          [
            -66.183328,
            -17.343595
          ],
          [
            -66.183316,
            -17.343814
          ],
          [
            -66.183314,
            -17.344062
          ],
          [
            -66.183339,
            -17.344341
          ],
          [
            -66.183333,
            -17.344496
          ],
          [
            -66.183322,
            -17.344634
          ],
          [
            -66.183266,
            -17.34507
          ],
          [
            -66.183255,
            -17.345172
          ],
          [
            -66.183155,
            -17.345867
          ],
          [
            -66.183031,
            -17.34669
          ],
          [
            -66.183026,
            -17.346728
          ],
          [
            -66.183003,
            -17.346903
          ],
          [
            -66.182946,
            -17.347379
          ],
          [
            -66.182911,
            -17.347663
          ],
          [
            -66.182909,
            -17.347826
          ],
          [
            -66.182928,
            -17.347949
          ],
          [
            -66.182968,
            -17.348053
          ],
          [
            -66.183057,
            -17.348226
          ],
          [
            -66.183614,
            -17.349189
          ],
          [
            -66.184007,
            -17.349839
          ],
          [
            -66.184086,
            -17.349941
          ],
          [
            -66.184136,
            -17.350006
          ],
          [
            -66.184216,
            -17.350104
          ],
          [
            -66.184286,
            -17.350149
          ],
          [
            -66.184334,
            -17.350182
          ],
          [
            -66.184389,
            -17.350212
          ],
          [
            -66.184497,
            -17.35026
          ],
          [
            -66.184529,
            -17.350275
          ],
          [
            -66.184572,
            -17.350291
          ],
          [
            -66.184606,
            -17.35032
          ],
          [
            -66.184625,
            -17.350352
          ],
          [
            -66.184634,
            -17.350387
          ],
          [
            -66.184633,
            -17.350424
          ],
          [
            -66.184641,
            -17.350449
          ],
          [
            -66.184656,
            -17.350496
          ],
          [
            -66.184682,
            -17.350537
          ],
          [
            -66.184766,
            -17.350618
          ],
          [
            -66.184794,
            -17.350673
          ],
          [
            -66.185157,
            -17.351006
          ],
          [
            -66.185759,
            -17.351569
          ],
          [
            -66.185852,
            -17.351673
          ],
          [
            -66.186083,
            -17.352019
          ],
          [
            -66.186135,
            -17.352092
          ],
          [
            -66.18695,
            -17.353345
          ],
          [
            -66.187145,
            -17.353652
          ],
          [
            -66.187415,
            -17.354077
          ],
          [
            -66.18755,
            -17.354302
          ]
        ]
      }
    }
  ]
}