{
  "type": "FeatureCollection",
  "features": [
    {
      "type": "Feature",
      "properties": {
        "route_id": "10712279",
        "route_short_name": "U",
        "route_long_name": "MicroBus U: Avenida Circuncalaci\u00f3n II \u2192 Calle Manuel Virreira"
      },
      "geometry": {
        "type": "LineString",
        "coordinates": [
          [
            -66.116407,
            -17.366051
          ],
          [
            -66.116458,
            -17.366151
          ],
          [
            -66.116706,
            -17.366631
          ],
          [
            -66.117662,
            -17.366308
          ],
          [
            -66.118253,
            -17.366117
          ],
          [
            -66.118374,
            -17.366079
          ],
          [
            -66.118463,
            -17.366011
          ],
          [
            -66.118509,
            -17.365948
          ],
          [
            -66.118574,
            -17.365862
          ],
          [
            -66.118612,
            -17.365835
          ],
          [
            -66.118662,
            -17.365829
          ],
          [
            -66.118701,
            -17.365841
          ],
          [
            -66.11874,
            -17.365873
          ],
          [
            -66.118751,
            -17.365921
          ],
          [
            -66.118744,
            -17.366006
          ],
          [
            -66.118752,
            -17.366207
          ],
          [
            -66.11877,
            -17.366292
          ],
          [
            -66.118853,
            -17.366429
          ],
          [
            -66.118953,
            -17.366591
          ],
          [
            -66.119101,
            -17.366796
          ],
          [
            -66.119176,
            -17.366859
          ],
          [
            -66.119412,
            -17.366915
          ],
          [
            -66.119643,
            -17.366943
          ],
          [
            -66.119872,
            -17.366866
          ],
          [
            -66.120649,
            -17.366626
          ],
          [
            -66.120894,
            -17.36712
          ],
          [
            -66.121127,
            -17.367567
          ],
          [
            -66.121367,
            -17.368031
          ],
          [
            -66.122369,
            -17.367724
          ],
          [
            -66.122482,
            -17.367707
          ],
          [
            -66.122657,
            -17.368266
          ],
          [
            -66.12268,
            -17.368332
          ],
          [
            -66.122691,
            -17.368844
          ],
          [
            -66.122757,
            -17.368911
          ],
          [
            -66.12293,
            -17.369048
          ],
          [
            -66.123016,
            -17.369113
          ],
          [
            -66.123176,
            -17.369252
          ],
          [
            -66.123285,
            -17.36933
          ],
          [
            -66.123525,
            -17.369506
          ],
          [
            -66.123601,
            -17.36957
          ],
          [
            -66.123639,
            -17.369626
          ],
          [
            -66.125313,
            -17.369676
          ],
          [
            -66.125368,
            -17.369678
          ],
          [
            -66.125702,
            -17.369128
          ],
          [
            -66.12577,
            -17.369064
          ],
          [
            -66.126126,
            -17.368468
          ],
          [
            -66.126119,
            -17.368384
          ],
          [
            -66.126298,
            -17.367801
          ],
          [
            -66.126973,
            -17.367838
          ],
          [
            -66.127308,
            -17.36777
          ],
          [
            -66.127698,
            -17.367672
          ],
          [
            -66.128418,
            -17.367498
          ],
          [
            -66.128539,
            -17.368056
          ],
          [
            -66.128561,
            -17.368142
          ],
          [
            -66.128703,
            -17.368658
          ],
          [
            -66.129378,
            -17.368504
          ],
          [
            -66.129534,
            -17.368432
          ],
          [
            -66.129761,
            -17.368372
          ],
          [
            -66.130141,
            -17.368287
          ],
          [
            -66.131467,
            -17.367984
          ],
          [
            -66.131688,
            -17.367931
          ],
          [
            -66.132438,
            -17.367753
          ],
          [
            -66.132475,
            -17.367886
          ],
          [
            -66.132624,
            -17.367829
          ],
          [
            -66.132767,
            -17.367739
          ],
          [
            -66.133727,
            -17.367186
          ],
          [
            -66.13383,
            -17.367128
          ],
          [
            -66.134004,
            -17.36702
          ],
          [
            -66.134214,
            -17.367085
          ],
          [
            -66.134323,
            -17.367199
          ],
          [
            -66.134387,
            -17.367304
          ],
          [
            -66.134411,
            -17.367396
          ],
          [
            -66.134408,
            -17.367501
          ],
          [
            -66.134388,
            -17.367633
          ],
          [
            -66.134336,
            -17.367741
          ],
          [
            -66.134259,
            -17.367792
          ],
          [
            -66.134531,
            -17.368276
          ],
          [
            -66.134569,
            -17.368332
          ],
          [
            -66.134656,
            -17.368279
          ],
          [
            -66.135199,
            -17.367967
          ],
          [
            -66.135508,
            -17.367791
          ],
          [
            -66.135666,
            -17.367706
          ],
          [
            -66.135827,
            -17.36762
          ],
          [
            -66.135931,
            -17.367745
          ],
          [
            -66.136432,
            -17.368403
          ],
          [
            -66.136483,
            -17.368489
          ],
          [
            -66.136712,
            -17.369331
          ],
          [
            -66.136765,
            -17.369485
          ],
          [
            -66.136881,
            -17.369868
          ],
          [
            -66.136961,
            -17.370135
          ],
          [
            -66.136985,
            -17.370232
          ],
          [
            -66.137076,
            -17.37057
          ],
          [
            -66.137113,
            -17.370688
          ],
          [
            -66.13719,
            -17.370968
          ],
          [
            -66.137206,
            -17.371034
          ],
          [
            -66.137221,
            -17.371096
          ],
          [
            -66.137254,
            -17.371279
          ],
          [
            -66.137303,
            -17.371477
          ],
          [
            -66.137323,
            -17.371528
          ],
          [
            -66.13741,
            -17.37175
          ],
          [
            -66.13746,
            -17.371891
          ],
          [
            -66.137516,
            -17.372026
          ],
          [
            -66.137557,
            -17.372081
          ],
          [
            -66.137608,
            -17.372046
          ],
          [
            -66.138001,
            -17.371777
          ],
          [
            -66.138091,
            -17.371726
          ],
          [
            -66.138173,
            -17.371696
          ],
          [
            -66.138288,
            -17.371664
          ],
          [
            -66.138424,
            -17.371641
          ],
          [
            -66.139131,
            -17.371551
          ],
          [
            -66.139954,
            -17.371441
          ],
          [
            -66.140056,
            -17.371417
          ],
          [
            -66.140147,
            -17.37139
          ],
          [
            -66.140292,
            -17.371331
          ],
          [
            -66.140818,
            -17.371033
          ],
          [
            -66.140921,
            -17.370974
          ],
          [
            -66.141637,
            -17.3705
          ],
          [
            -66.14211,
            -17.370178
          ],
          [
            -66.142206,
            -17.370119
          ],
          [
            -66.142255,
            -17.370115
          ],
          [
            -66.142305,
            -17.370126
          ],
          [
            -66.142329,
            -17.370143
          ],
          [
            -66.142345,
            -17.370166
          ],
          [
            -66.142374,
            -17.370205
          ],
          [
            -66.142382,
            -17.370258
          ],
          [
            -66.142376,
            -17.370319
          ],
          [
            -66.142366,
            -17.370434
          ],
          [
            -66.142361,
            -17.370468
          ],
          [
            -66.142351,
            -17.370561
          ],
          [
            -66.142344,
            -17.370693
          ],
          [
            -66.142348,
            -17.37079
          ],
          [
            -66.142578,
            -17.371781
          ],
          [
            -66.142608,
            -17.371923
          ],
          [
            -66.142636,
            -17.37205
          ],
          [
            -66.142748,
            -17.372561
          ],
          [
            -66.142895,
            -17.373188
          ],
          [
            -66.142944,
            -17.373306
          ],
          [
            -66.142993,
            -17.373378
          ],
          [
            -66.143066,
            -17.37344
          ],
          [
            -66.143124,
            -17.373468
          ],
          [
            -66.143211,
            -17.373542
          ],
          [
            -66.143255,
            -17.373608
          ],
          [
            -66.143281,
            -17.373681
          ],
          [
            -66.143288,
            -17.373721
          ],
          [
            -66.143289,
            -17.373761
          ],
          [
            -66.143285,
            -17.373845
          ],
          [
            -66.143259,
            -17.373917
          ],
          [
            -66.143203,
            -17.373994
          ],
          [
            -66.14312,
            -17.374053
          ],
          [
            -66.143019,
            -17.37409
          ],
          [
            -66.142987,
            -17.37412
          ],
          [
            -66.142946,
            -17.374187
          ],
          [
            -66.142923,
            -17.374249
          ],
          [
            -66.142826,
            -17.374871
          ],
          [
            -66.142813,
            -17.374963
          ],
          [
            -66.142801,
            -17.375036
          ],
          [
            -66.142753,
            -17.375341
          ],
          [
            -66.142684,
            -17.375775
          ],
          [
            -66.142674,
            -17.37584
          ],
          [
            -66.142619,
            -17.376235
          ],
          [
            -66.142601,
            -17.376365
          ],
          [
            -66.142581,
            -17.376479
          ],
          [
            -66.142549,
            -17.376778
          ],
          [
            -66.142543,
            -17.376843
          ],
          [
            -66.142538,
            -17.376885
          ],
          [
            -66.142529,
            -17.376945
          ],
          [
            -66.142525,
            -17.37696
          ],
          [
            -66.142428,
            -17.377327
          ],
          [
            -66.142404,
            -17.377419
          ],
          [
            -66.142409,
            -17.377445
          ],
          [
            -66.142422,
            -17.377476
          ],
          [
            -66.142438,
            -17.377495
          ],
          [
            -66.142452,
            -17.377523
          ],
          [
            -66.142461,
            -17.377552
          ],
          [
            -66.142464,
            -17.377583
          ],
          [
            -66.142462,
            -17.377619
          ],
          [
            -66.142468,
            -17.377648
          ],
          [
            -66.142455,
            -17.377792
          ],
          [
            -66.142456,
            -17.377945
          ],
          [
            -66.142401,
            -17.378448
          ],
          [
            -66.142377,
            -17.37875
          ],
          [
            -66.142386,
            -17.37879
          ],
          [
            -66.142412,
            -17.378833
          ],
          [
            -66.14246,
            -17.378878
          ],
          [
            -66.142527,
            -17.378917
          ],
          [
            -66.142681,
            -17.378969
          ],
          [
            -66.142997,
            -17.379067
          ],
          [
            -66.143049,
            -17.379083
          ],
          [
            -66.143076,
            -17.379123
          ],
          [
            -66.143097,
            -17.379166
          ],
          [
            -66.143101,
            -17.379191
          ],
          [
            -66.143103,
            -17.379215
          ],
          [
            -66.1431,
            -17.379237
          ],
          [
            -66.143068,
            -17.379373
          ],
          [
            -66.143069,
            -17.379414
          ],
          [
            -66.143094,
            -17.379472
          ],
          [
            -66.143204,
            -17.379635
          ],
          [
            -66.144141,
            -17.380997
          ],
          [
            -66.144226,
            -17.381125
          ],
          [
            -66.144334,
            -17.381281
          ],
          [
            -66.14509,
            -17.382375
          ],
          [
            -66.145167,
            -17.38248
          ],
          [
            -66.145264,
            -17.382624
          ],
          [
            -66.146291,
            -17.384133
          ],
          [
            -66.146304,
            -17.384151
          ],
          [
            -66.146311,
            -17.38416
          ],
          [
            -66.146332,
            -17.384194
          ],
          [
            -66.146398,
            -17.38429
          ],
          [
            -66.147463,
            -17.385856
          ],
          [
            -66.147514,
            -17.385931
          ],
          [
            -66.147567,
            -17.386007
          ],
          [
            -66.147716,
            -17.386223
          ],
          [
            -66.148064,
            -17.386723
          ],
          [
            -66.148365,
            -17.387155
          ],
          [
            -66.148409,
            -17.38722
          ],
          [
            -66.148501,
            -17.387349
          ],
          [
            -66.148519,
            -17.387374
          ],
          [
            -66.148643,
            -17.387551
          ],
          [
            -66.148842,
            -17.387832
          ],
          [
            -66.14901,
            -17.38807
          ],
          [
            -66.149326,
            -17.388518
          ],
          [
            -66.149551,
            -17.388829
          ],
          [
            -66.149579,
            -17.388861
          ],
          [
            -66.149612,
            -17.38888
          ],
          [
            -66.149664,
            -17.388894
          ],
          [
            -66.149734,
            -17.38891
          ],
          [
            -66.149893,
            -17.388916
          ],
          [
            -66.150008,
            -17.388916
          ],
          [
            -66.150081,
            -17.388907
          ],
          [
            -66.150194,
            -17.388881
          ],
          [
            -66.150314,
            -17.388842
          ],
          [
            -66.150432,
            -17.388802
          ],
          [
            -66.150527,
            -17.38877
          ],
          [
            -66.150549,
            -17.388774
          ],
          [
            -66.151547,
            -17.388953
          ],
          [
            -66.151604,
            -17.388963
          ],
          [
            -66.15166,
            -17.388974
          ],
          [
            -66.152761,
            -17.389193
          ],
          [
            -66.153418,
            -17.389349
          ],
          [
            -66.153844,
            -17.389446
          ],
          [
            -66.154021,
            -17.389488
          ],
          [
            -66.154921,
            -17.389693
          ],
          [
            -66.155904,
            -17.389855
          ],
          [
            -66.155965,
            -17.389864
          ],
          [
            -66.155961,
            -17.389889
          ],
          [
            -66.155958,
            -17.389908
          ],
          [
            -66.155796,
            -17.390905
          ],
          [
            -66.155613,
            -17.391912
          ],
          [
            -66.155601,
            -17.391978
          ],
          [
            -66.155571,
            -17.392067
          ],
          [
            -66.15555,
            -17.392135
          ],
          [
            -66.15538,
            -17.393009
          ],
          [
            -66.155185,
            -17.394046
          ],
          [
            -66.15519,
            -17.394103
          ],
          [
            -66.155102,
            -17.394555
          ],
          [
            -66.155099,
            -17.394569
          ],
          [
            -66.155095,
            -17.394591
          ],
          [
            -66.155047,
            -17.394856
          ],
          [
            -66.155014,
            -17.395035
          ],
          [
            -66.155006,
            -17.395076
          ],
          [
            -66.154837,
            -17.39592
          ],
          [
            -66.15481,
            -17.396053
          ],
          [
            -66.154794,
            -17.396134
          ],
          [
            -66.15467,
            -17.396758
          ],
          [
            -66.15458,
            -17.397192
          ],
          [
            -66.154382,
            -17.398223
          ],
          [
            -66.154227,
            -17.399006
          ],
          [
            -66.154206,
            -17.399084
          ],
          [
            -66.154045,
            -17.399999
          ],
          [
            -66.15393,
            -17.400709
          ],
          [
            -66.153977,
            -17.401365
          ],
          [
            -66.154027,
            -17.402254
          ],
          [
            -66.154504,
            -17.402243
          ],
          [
            -66.154967,
            -17.402208
          ],
          [
            -66.155316,
            -17.402192
          ],
          [
            -66.155307,
            -17.401651
          ],
          [
            -66.155285,
            -17.401299
          ],
          [
            -66.155201,
            -17.400649
          ],
          [
            -66.155177,
            -17.40015
          ],
          [
            -66.155175,
            -17.400035
          ],
          [
            -66.155179,
            -17.39997
          ],
          [
            -66.155189,
            -17.399895
          ],
          [
            -66.155283,
            -17.399341
          ],
          [
            -66.155304,
            -17.399247
          ],
          [
            -66.155347,
            -17.39926
          ],
          [
            -66.156322,
            -17.399465
          ],
          [
            -66.156424,
            -17.399487
          ],
          [
            -66.156591,
            -17.399495
          ],
          [
            -66.156693,
            -17.399496
          ],
          [
            -66.156793,
            -17.39949
          ],
          [
            -66.157154,
            -17.39944
          ],
          [
            -66.157566,
            -17.399369
          ],
          [
            -66.157636,
            -17.399359
          ],
          [
            -66.157728,
            -17.399353
          ],
          [
            -66.157813,
            -17.399341
          ],
          [
            -66.158533,
            -17.399231
          ],
          [
            -66.158712,
            -17.399233
          ],
          [
            -66.159174,
            -17.399272
          ],
          [
            -66.159997,
            -17.399303
          ],
          [
            -66.160064,
            -17.399315
          ],
          [
            -66.160243,
            -17.399366
          ],
          [
            -66.160307,
            -17.399387
          ],
          [
            -66.160433,
            -17.399427
          ],
          [
            -66.161091,
            -17.399618
          ],
          [
            -66.161588,
            -17.399756
          ],
          [
            -66.161837,
            -17.399843
          ],
          [
            -66.161982,
            -17.399913
          ],
          [
            -66.162133,
            -17.400006
          ],
          [
            -66.162284,
            -17.400116
          ],
          [
            -66.162359,
            -17.400158
          ],
          [
            -66.162462,
            -17.400201
          ],
          [
            -66.162503,
            -17.400219
          ],
          [
            -66.162545,
            -17.400232
          ],
          [
            -66.162583,
            -17.400261
          ],
          [
            -66.162618,
            -17.400305
          ],
          [
            -66.162634,
            -17.40035
          ],
          [
            -66.162645,
            -17.400381
          ],
          [
            -66.162652,
            -17.400485
          ],
          [
            -66.162675,
            -17.40058
          ],
          [
            -66.162735,
            -17.40071
          ],
          [
            -66.162745,
            -17.400732
          ],
          [
            -66.162854,
            -17.401003
          ],
          [
            -66.162888,
            -17.401171
          ],
          [
            -66.162912,
            -17.401448
          ],
          [
            -66.162956,
            -17.402142
          ],
          [
            -66.162997,
            -17.402712
          ],
          [
            -66.163025,
            -17.403071
          ],
          [
            -66.163066,
            -17.403316
          ],
          [
            -66.163122,
            -17.403534
          ],
          [
            -66.163307,
            -17.404058
          ],
          [
            -66.163426,
            -17.404477
          ],
          [
            -66.163546,
            -17.405057
          ],
          [
            -66.16372,
            -17.406063
          ],
          [
            -66.16393,
            -17.407075
          ],
          [
            -66.163943,
            -17.407141
          ],
          [
            -66.163953,
            -17.407194
          ],
          [
            -66.163978,
            -17.407314
          ],
          [
            -66.164232,
            -17.408618
          ],
          [
            -66.164372,
            -17.409262
          ],
          [
            -66.164383,
            -17.409334
          ],
          [
            -66.164415,
            -17.409504
          ],
          [
            -66.164423,
            -17.409544
          ],
          [
            -66.164432,
            -17.40959
          ],
          [
            -66.164553,
            -17.410182
          ],
          [
            -66.164581,
            -17.410279
          ],
          [
            -66.164608,
            -17.410341
          ],
          [
            -66.164642,
            -17.410423
          ],
          [
            -66.164704,
            -17.410503
          ],
          [
            -66.16474,
            -17.410552
          ],
          [
            -66.164798,
            -17.410631
          ],
          [
            -66.164829,
            -17.410653
          ],
          [
            -66.164894,
            -17.410705
          ],
          [
            -66.164954,
            -17.410793
          ],
          [
            -66.16498,
            -17.410895
          ],
          [
            -66.164969,
            -17.410999
          ],
          [
            -66.164924,
            -17.411094
          ],
          [
            -66.164857,
            -17.411163
          ],
          [
            -66.164839,
            -17.411234
          ],
          [
            -66.164809,
            -17.411377
          ],
          [
            -66.164796,
            -17.411502
          ],
          [
            -66.164896,
            -17.412044
          ],
          [
            -66.164918,
            -17.412176
          ],
          [
            -66.16495,
            -17.412357
          ],
          [
            -66.165065,
            -17.412935
          ],
          [
            -66.165263,
            -17.41396
          ],
          [
            -66.165456,
            -17.414982
          ],
          [
            -66.165651,
            -17.415983
          ],
          [
            -66.165776,
            -17.416651
          ],
          [
            -66.165813,
            -17.416743
          ],
          [
            -66.165834,
            -17.416765
          ],
          [
            -66.165845,
            -17.416792
          ],
          [
            -66.165844,
            -17.416832
          ],
          [
            -66.165965,
            -17.417449
          ],
          [
            -66.166042,
            -17.417869
          ],
          [
            -66.166088,
            -17.418107
          ],
          [
            -66.166101,
            -17.418207
          ],
          [
            -66.166135,
            -17.418412
          ],
          [
            -66.166225,
            -17.418934
          ],
          [
            -66.166361,
            -17.419661
          ],
          [
            -66.166485,
            -17.420365
          ],
          [
            -66.166611,
            -17.421063
          ],
          [
            -66.166673,
            -17.421409
          ],
          [
            -66.166617,
            -17.422061
          ],
          [
            -66.166598,
            -17.422224
          ],
          [
            -66.166573,
            -17.422404
          ],
          [
            -66.166499,
            -17.422935
          ],
          [
            -66.166462,
            -17.422933
          ],
          [
            -66.166416,
            -17.422927
          ],
          [
            -66.165965,
            -17.422917
          ],
          [
            -66.165879,
            -17.422913
          ],
          [
            -66.165458,
            -17.422897
          ],
          [
            -66.165406,
            -17.423864
          ],
          [
            -66.165392,
            -17.424314
          ],
          [
            -66.165395,
            -17.424793
          ],
          [
            -66.16537,
            -17.425205
          ],
          [
            -66.165345,
            -17.425576
          ],
          [
            -66.165324,
            -17.42598
          ],
          [
            -66.16533,
            -17.426036
          ],
          [
            -66.165288,
            -17.426713
          ],
          [
            -66.165261,
            -17.427199
          ]
        ]
      }
    }
  ]
}