{
  "type": "FeatureCollection",
  "features": [
    {
      "type": "Feature",
      "properties": {
        "route_id": "9417539",
        "route_short_name": "V",
        "route_long_name": "MicroBus V: Calle T\u00f3mas Gamboa \u2192 R\u00edo Taqui\u00f1a"
      },
      "geometry": {
        "type": "LineString",
        "coordinates": [
          [
            -66.157383,
            -17.44117
          ],
          [
            -66.157428,
            -17.440105
          ],
          [
            -66.157482,
            -17.439028
          ],
          [
            -66.157534,
            -17.437922
          ],
          [
            -66.157573,
            -17.437327
          ],
          [
            -66.157587,
            -17.436841
          ],
          [
            -66.158143,
            -17.436862
          ],
          [
            -66.158166,
            -17.436324
          ],
          [
            -66.15819,
            -17.435782
          ],
          [
            -66.15822,
            -17.435467
          ],
          [
            -66.158238,
            -17.435282
          ],
          [
            -66.158762,
            -17.435313
          ],
          [
            -66.158774,
            -17.434736
          ],
          [
            -66.158845,
            -17.433661
          ],
          [
            -66.158907,
            -17.432565
          ],
          [
            -66.15892,
            -17.431961
          ],
          [
            -66.158966,
            -17.431376
          ],
          [
            -66.158995,
            -17.431192
          ],
          [
            -66.158956,
            -17.430934
          ],
          [
            -66.158844,
            -17.430398
          ],
          [
            -66.158837,
            -17.430289
          ],
          [
            -66.158831,
            -17.429853
          ],
          [
            -66.158843,
            -17.429263
          ],
          [
            -66.15887,
            -17.428665
          ],
          [
            -66.158905,
            -17.428366
          ],
          [
            -66.158918,
            -17.428264
          ],
          [
            -66.158935,
            -17.428192
          ],
          [
            -66.158957,
            -17.428133
          ],
          [
            -66.158988,
            -17.428071
          ],
          [
            -66.159046,
            -17.427989
          ],
          [
            -66.159079,
            -17.427952
          ],
          [
            -66.159129,
            -17.427889
          ],
          [
            -66.159163,
            -17.427844
          ],
          [
            -66.159187,
            -17.427761
          ],
          [
            -66.159138,
            -17.427568
          ],
          [
            -66.159098,
            -17.427598
          ],
          [
            -66.158987,
            -17.427678
          ],
          [
            -66.158741,
            -17.427872
          ],
          [
            -66.158658,
            -17.42794
          ],
          [
            -66.158563,
            -17.428009
          ],
          [
            -66.158496,
            -17.428029
          ],
          [
            -66.158412,
            -17.428038
          ],
          [
            -66.158349,
            -17.428035
          ],
          [
            -66.158268,
            -17.428016
          ],
          [
            -66.158044,
            -17.427954
          ],
          [
            -66.157867,
            -17.427897
          ],
          [
            -66.157818,
            -17.427888
          ],
          [
            -66.15777,
            -17.427878
          ],
          [
            -66.157689,
            -17.427868
          ],
          [
            -66.157622,
            -17.427864
          ],
          [
            -66.157594,
            -17.427863
          ],
          [
            -66.157499,
            -17.427864
          ],
          [
            -66.157425,
            -17.427871
          ],
          [
            -66.157359,
            -17.427878
          ],
          [
            -66.157158,
            -17.427918
          ],
          [
            -66.1572,
            -17.426914
          ],
          [
            -66.157249,
            -17.425744
          ],
          [
            -66.157247,
            -17.425667
          ],
          [
            -66.157286,
            -17.424992
          ],
          [
            -66.157301,
            -17.424497
          ],
          [
            -66.157347,
            -17.423554
          ],
          [
            -66.157381,
            -17.422871
          ],
          [
            -66.157374,
            -17.422772
          ],
          [
            -66.157355,
            -17.422646
          ],
          [
            -66.157376,
            -17.421789
          ],
          [
            -66.157376,
            -17.421759
          ],
          [
            -66.157402,
            -17.421362
          ],
          [
            -66.157425,
            -17.421009
          ],
          [
            -66.15744,
            -17.42053
          ],
          [
            -66.157449,
            -17.42023
          ],
          [
            -66.157478,
            -17.419751
          ],
          [
            -66.157488,
            -17.419059
          ],
          [
            -66.157435,
            -17.41871
          ],
          [
            -66.157271,
            -17.417674
          ],
          [
            -66.157128,
            -17.416726
          ],
          [
            -66.157113,
            -17.416642
          ],
          [
            -66.157105,
            -17.416589
          ],
          [
            -66.156932,
            -17.41571
          ],
          [
            -66.156919,
            -17.415629
          ],
          [
            -66.156899,
            -17.415554
          ],
          [
            -66.156739,
            -17.414603
          ],
          [
            -66.156704,
            -17.414347
          ],
          [
            -66.156622,
            -17.413838
          ],
          [
            -66.156485,
            -17.413078
          ],
          [
            -66.156361,
            -17.412436
          ],
          [
            -66.156305,
            -17.412263
          ],
          [
            -66.15627,
            -17.412098
          ],
          [
            -66.156171,
            -17.411738
          ],
          [
            -66.156007,
            -17.411224
          ],
          [
            -66.155972,
            -17.411091
          ],
          [
            -66.155961,
            -17.411004
          ],
          [
            -66.155973,
            -17.410807
          ],
          [
            -66.155994,
            -17.410651
          ],
          [
            -66.156059,
            -17.410112
          ],
          [
            -66.156188,
            -17.40929
          ],
          [
            -66.156209,
            -17.409158
          ],
          [
            -66.156324,
            -17.408398
          ],
          [
            -66.156391,
            -17.407897
          ],
          [
            -66.156402,
            -17.407758
          ],
          [
            -66.156408,
            -17.407674
          ],
          [
            -66.156417,
            -17.407578
          ],
          [
            -66.156419,
            -17.407471
          ],
          [
            -66.156393,
            -17.407327
          ],
          [
            -66.156186,
            -17.406089
          ],
          [
            -66.155968,
            -17.40497
          ],
          [
            -66.155783,
            -17.404114
          ],
          [
            -66.155649,
            -17.403486
          ],
          [
            -66.155537,
            -17.402966
          ],
          [
            -66.155537,
            -17.402826
          ],
          [
            -66.155513,
            -17.402717
          ],
          [
            -66.155497,
            -17.402642
          ],
          [
            -66.155476,
            -17.402549
          ],
          [
            -66.155468,
            -17.402503
          ],
          [
            -66.155452,
            -17.402434
          ],
          [
            -66.155439,
            -17.402374
          ],
          [
            -66.15542,
            -17.402301
          ],
          [
            -66.155316,
            -17.402192
          ],
          [
            -66.155307,
            -17.401651
          ],
          [
            -66.155285,
            -17.401299
          ],
          [
            -66.155201,
            -17.400649
          ],
          [
            -66.155177,
            -17.40015
          ],
          [
            -66.155175,
            -17.400035
          ],
          [
            -66.155179,
            -17.39997
          ],
          [
            -66.155189,
            -17.399895
          ],
          [
            -66.155283,
            -17.399341
          ],
          [
            -66.155304,
            -17.399247
          ],
          [
            -66.15547,
            -17.39841
          ],
          [
            -66.154382,
            -17.398223
          ],
          [
            -66.153322,
            -17.398064
          ],
          [
            -66.153532,
            -17.397006
          ],
          [
            -66.153732,
            -17.395947
          ],
          [
            -66.153922,
            -17.394892
          ],
          [
            -66.154001,
            -17.394466
          ],
          [
            -66.154011,
            -17.394412
          ],
          [
            -66.154112,
            -17.393861
          ],
          [
            -66.154297,
            -17.392943
          ],
          [
            -66.154313,
            -17.392865
          ],
          [
            -66.154321,
            -17.392824
          ],
          [
            -66.154328,
            -17.392791
          ],
          [
            -66.154493,
            -17.391925
          ],
          [
            -66.1545,
            -17.391876
          ],
          [
            -66.154518,
            -17.391787
          ],
          [
            -66.154529,
            -17.391726
          ],
          [
            -66.154722,
            -17.39071
          ],
          [
            -66.154916,
            -17.38972
          ],
          [
            -66.154921,
            -17.389693
          ],
          [
            -66.155119,
            -17.388731
          ],
          [
            -66.155132,
            -17.388666
          ],
          [
            -66.155149,
            -17.388571
          ],
          [
            -66.155222,
            -17.388161
          ],
          [
            -66.155316,
            -17.387676
          ],
          [
            -66.155337,
            -17.387584
          ],
          [
            -66.155523,
            -17.387616
          ],
          [
            -66.155582,
            -17.387609
          ],
          [
            -66.155628,
            -17.387594
          ],
          [
            -66.155683,
            -17.387569
          ],
          [
            -66.155811,
            -17.38741
          ],
          [
            -66.156447,
            -17.386541
          ],
          [
            -66.156503,
            -17.386465
          ],
          [
            -66.156608,
            -17.386333
          ],
          [
            -66.157584,
            -17.385016
          ],
          [
            -66.157653,
            -17.384924
          ],
          [
            -66.157692,
            -17.38487
          ],
          [
            -66.157773,
            -17.384766
          ],
          [
            -66.158485,
            -17.383789
          ],
          [
            -66.158529,
            -17.383729
          ],
          [
            -66.158565,
            -17.383682
          ],
          [
            -66.159147,
            -17.382915
          ],
          [
            -66.159366,
            -17.382617
          ],
          [
            -66.159389,
            -17.382586
          ],
          [
            -66.159408,
            -17.382554
          ],
          [
            -66.159444,
            -17.382482
          ],
          [
            -66.159455,
            -17.382366
          ],
          [
            -66.159451,
            -17.382231
          ],
          [
            -66.159457,
            -17.382162
          ],
          [
            -66.159487,
            -17.382101
          ],
          [
            -66.159538,
            -17.382038
          ],
          [
            -66.159627,
            -17.381971
          ],
          [
            -66.159723,
            -17.381927
          ],
          [
            -66.159806,
            -17.38188
          ],
          [
            -66.159864,
            -17.381847
          ],
          [
            -66.159926,
            -17.381785
          ],
          [
            -66.159974,
            -17.381712
          ],
          [
            -66.159998,
            -17.381654
          ],
          [
            -66.160007,
            -17.381625
          ],
          [
            -66.160104,
            -17.381266
          ],
          [
            -66.160113,
            -17.381231
          ],
          [
            -66.160118,
            -17.381162
          ],
          [
            -66.160104,
            -17.381052
          ],
          [
            -66.160081,
            -17.380973
          ],
          [
            -66.160052,
            -17.380923
          ],
          [
            -66.160035,
            -17.380896
          ],
          [
            -66.160023,
            -17.380862
          ],
          [
            -66.160015,
            -17.380781
          ],
          [
            -66.160025,
            -17.380729
          ],
          [
            -66.160048,
            -17.38068
          ],
          [
            -66.160084,
            -17.38064
          ],
          [
            -66.160117,
            -17.380616
          ],
          [
            -66.160157,
            -17.380586
          ],
          [
            -66.160216,
            -17.380543
          ],
          [
            -66.160249,
            -17.380499
          ],
          [
            -66.160273,
            -17.380442
          ],
          [
            -66.160915,
            -17.378227
          ],
          [
            -66.160967,
            -17.378046
          ],
          [
            -66.160991,
            -17.377965
          ],
          [
            -66.161051,
            -17.377775
          ],
          [
            -66.161244,
            -17.377126
          ],
          [
            -66.161454,
            -17.376395
          ],
          [
            -66.1616,
            -17.375896
          ],
          [
            -66.161744,
            -17.375403
          ],
          [
            -66.161782,
            -17.375272
          ],
          [
            -66.161874,
            -17.374972
          ],
          [
            -66.162213,
            -17.373859
          ],
          [
            -66.162557,
            -17.372644
          ],
          [
            -66.162589,
            -17.372554
          ],
          [
            -66.162617,
            -17.372462
          ],
          [
            -66.162644,
            -17.37237
          ],
          [
            -66.162862,
            -17.371602
          ],
          [
            -66.162892,
            -17.371488
          ],
          [
            -66.163178,
            -17.370513
          ],
          [
            -66.163209,
            -17.370401
          ],
          [
            -66.163643,
            -17.368907
          ],
          [
            -66.163656,
            -17.368839
          ],
          [
            -66.163652,
            -17.36877
          ],
          [
            -66.163641,
            -17.368715
          ],
          [
            -66.16361,
            -17.368654
          ],
          [
            -66.163599,
            -17.368603
          ],
          [
            -66.163597,
            -17.368544
          ],
          [
            -66.163609,
            -17.368453
          ],
          [
            -66.163635,
            -17.368365
          ],
          [
            -66.163688,
            -17.36826
          ],
          [
            -66.163736,
            -17.36821
          ],
          [
            -66.163775,
            -17.36818
          ],
          [
            -66.163812,
            -17.368165
          ],
          [
            -66.163843,
            -17.36816
          ],
          [
            -66.163881,
            -17.368155
          ],
          [
            -66.163994,
            -17.368121
          ],
          [
            -66.164094,
            -17.368062
          ],
          [
            -66.164202,
            -17.367973
          ],
          [
            -66.165083,
            -17.36733
          ],
          [
            -66.166042,
            -17.366621
          ],
          [
            -66.166281,
            -17.366457
          ],
          [
            -66.166947,
            -17.366025
          ],
          [
            -66.167439,
            -17.365767
          ],
          [
            -66.167605,
            -17.365694
          ],
          [
            -66.167682,
            -17.365671
          ],
          [
            -66.167708,
            -17.365666
          ],
          [
            -66.16782,
            -17.365648
          ],
          [
            -66.168051,
            -17.365659
          ],
          [
            -66.168816,
            -17.365709
          ],
          [
            -66.168951,
            -17.365751
          ],
          [
            -66.169075,
            -17.365787
          ],
          [
            -66.169367,
            -17.365895
          ],
          [
            -66.169715,
            -17.365992
          ],
          [
            -66.16995,
            -17.366025
          ],
          [
            -66.170106,
            -17.366032
          ],
          [
            -66.1703,
            -17.366016
          ],
          [
            -66.170572,
            -17.365957
          ],
          [
            -66.17113,
            -17.365807
          ],
          [
            -66.17128,
            -17.365767
          ],
          [
            -66.171375,
            -17.365758
          ],
          [
            -66.171529,
            -17.365748
          ],
          [
            -66.171794,
            -17.365732
          ],
          [
            -66.173236,
            -17.365636
          ],
          [
            -66.173318,
            -17.365633
          ],
          [
            -66.173547,
            -17.365617
          ],
          [
            -66.17464,
            -17.365552
          ],
          [
            -66.174764,
            -17.365544
          ],
          [
            -66.174864,
            -17.365525
          ],
          [
            -66.174954,
            -17.365494
          ],
          [
            -66.175136,
            -17.365442
          ],
          [
            -66.175967,
            -17.365188
          ],
          [
            -66.176444,
            -17.365045
          ],
          [
            -66.176503,
            -17.365027
          ],
          [
            -66.176627,
            -17.36499
          ],
          [
            -66.176716,
            -17.36496
          ],
          [
            -66.17685,
            -17.364915
          ],
          [
            -66.177597,
            -17.364694
          ],
          [
            -66.177944,
            -17.364588
          ],
          [
            -66.178292,
            -17.364488
          ],
          [
            -66.178522,
            -17.364416
          ],
          [
            -66.178603,
            -17.364394
          ],
          [
            -66.178945,
            -17.364236
          ],
          [
            -66.179273,
            -17.364055
          ],
          [
            -66.179434,
            -17.363964
          ],
          [
            -66.179623,
            -17.363833
          ],
          [
            -66.179921,
            -17.363592
          ],
          [
            -66.180404,
            -17.363218
          ],
          [
            -66.180751,
            -17.362922
          ],
          [
            -66.18086,
            -17.362816
          ],
          [
            -66.180991,
            -17.362677
          ],
          [
            -66.18116,
            -17.362483
          ],
          [
            -66.181314,
            -17.36229
          ],
          [
            -66.181471,
            -17.36208
          ],
          [
            -66.181621,
            -17.361856
          ],
          [
            -66.18175,
            -17.36165
          ],
          [
            -66.181987,
            -17.361245
          ],
          [
            -66.182041,
            -17.361158
          ],
          [
            -66.18259,
            -17.36001
          ],
          [
            -66.182914,
            -17.359321
          ],
          [
            -66.182983,
            -17.359202
          ],
          [
            -66.183103,
            -17.359029
          ],
          [
            -66.183168,
            -17.358939
          ],
          [
            -66.183286,
            -17.358804
          ],
          [
            -66.183652,
            -17.358271
          ],
          [
            -66.183971,
            -17.3578
          ],
          [
            -66.184073,
            -17.357658
          ],
          [
            -66.184264,
            -17.357374
          ],
          [
            -66.18457,
            -17.356931
          ],
          [
            -66.184664,
            -17.356821
          ],
          [
            -66.184745,
            -17.356728
          ],
          [
            -66.184859,
            -17.35664
          ],
          [
            -66.185012,
            -17.356524
          ],
          [
            -66.185585,
            -17.356099
          ],
          [
            -66.186068,
            -17.355738
          ],
          [
            -66.186781,
            -17.355177
          ],
          [
            -66.187394,
            -17.354697
          ],
          [
            -66.187467,
            -17.354635
          ],
          [
            -66.187493,
            -17.354603
          ],
          [
            -66.187509,
            -17.354567
          ],
          [
            -66.187525,
            -17.354519
          ],
          [
            -66.18754,
            -17.354492
          ],
          [
            -66.187583,
            -17.354458
          ],
          [
            -66.187623,
            -17.354447
          ],
          [
            -66.187654,
            -17.354443
          ],
          [
            -66.187691,
            -17.354425
          ],
          [
            -66.187782,
            -17.35438
          ],
          [
            -66.187855,
            -17.354334
          ],
          [
            -66.188304,
            -17.353989
          ],
          [
            -66.188618,
            -17.353737
          ],
          [
            -66.188772,
            -17.353617
          ],
          [
            -66.188858,
            -17.35355
          ],
          [
            -66.189701,
            -17.352895
          ],
          [
            -66.1898,
            -17.352818
          ],
          [
            -66.189729,
            -17.352669
          ],
          [
            -66.189559,
            -17.352053
          ],
          [
            -66.189371,
            -17.351499
          ],
          [
            -66.189079,
            -17.350569
          ],
          [
            -66.188609,
            -17.349102
          ],
          [
            -66.188587,
            -17.349029
          ],
          [
            -66.188723,
            -17.348996
          ],
          [
            -66.188818,
            -17.348973
          ],
          [
            -66.189578,
            -17.348777
          ],
          [
            -66.190477,
            -17.348539
          ],
          [
            -66.190867,
            -17.348433
          ],
          [
            -66.191354,
            -17.348032
          ],
          [
            -66.191457,
            -17.347986
          ],
          [
            -66.192355,
            -17.347601
          ],
          [
            -66.193253,
            -17.347218
          ],
          [
            -66.194159,
            -17.346855
          ],
          [
            -66.194723,
            -17.346643
          ],
          [
            -66.195084,
            -17.34651
          ],
          [
            -66.195162,
            -17.346475
          ],
          [
            -66.195837,
            -17.346171
          ],
          [
            -66.196653,
            -17.345639
          ],
          [
            -66.196712,
            -17.345601
          ],
          [
            -66.19677,
            -17.345572
          ],
          [
            -66.197129,
            -17.345418
          ],
          [
            -66.197514,
            -17.345265
          ],
          [
            -66.19805,
            -17.345017
          ],
          [
            -66.198252,
            -17.344931
          ]
        ]
      }
    }
  ]
}