{
  "type": "FeatureCollection",
  "features": [
    {
      "type": "Feature",
      "properties": {
        "route_id": "11106983",
        "route_short_name": "W",
        "route_long_name": "Microbus W: Villa Marquina \u2192 Calle Poop\u00f3"
      },
      "geometry": {
        "type": "LineString",
        "coordinates": [
          [
            -66.289846,
            -17.338354
          ],
          [
            -66.289801,
            -17.338561
          ],
          [
            -66.28964,
            -17.33887
          ],
          [
            -66.28956,
            -17.339036
          ],
          [
            -66.28944,
            -17.339199
          ],
          [
            -66.289344,
            -17.339162
          ],
          [
            -66.28921,
            -17.339349
          ],
          [
            -66.289072,
            -17.33963
          ],
          [
            -66.288795,
            -17.340028
          ],
          [
            -66.288674,
            -17.340377
          ],
          [
            -66.288577,
            -17.340492
          ],
          [
            -66.288464,
            -17.34057
          ],
          [
            -66.288413,
            -17.340651
          ],
          [
            -66.288362,
            -17.340804
          ],
          [
            -66.288276,
            -17.341163
          ],
          [
            -66.288185,
            -17.341364
          ],
          [
            -66.288146,
            -17.341409
          ],
          [
            -66.288119,
            -17.341439
          ],
          [
            -66.288057,
            -17.341811
          ],
          [
            -66.288064,
            -17.341959
          ],
          [
            -66.288176,
            -17.342435
          ],
          [
            -66.288265,
            -17.342829
          ],
          [
            -66.287109,
            -17.342607
          ],
          [
            -66.286354,
            -17.342431
          ],
          [
            -66.285696,
            -17.342295
          ],
          [
            -66.285951,
            -17.343316
          ],
          [
            -66.286012,
            -17.343558
          ],
          [
            -66.28614,
            -17.344002
          ],
          [
            -66.286501,
            -17.34542
          ],
          [
            -66.286614,
            -17.345859
          ],
          [
            -66.286867,
            -17.346797
          ],
          [
            -66.287157,
            -17.347938
          ],
          [
            -66.28724,
            -17.348242
          ],
          [
            -66.287472,
            -17.349207
          ],
          [
            -66.287483,
            -17.349371
          ],
          [
            -66.28742,
            -17.349665
          ],
          [
            -66.287178,
            -17.350938
          ],
          [
            -66.286905,
            -17.352187
          ],
          [
            -66.286722,
            -17.353138
          ],
          [
            -66.286346,
            -17.356252
          ],
          [
            -66.286094,
            -17.358719
          ],
          [
            -66.285927,
            -17.36036
          ],
          [
            -66.285815,
            -17.361091
          ],
          [
            -66.285064,
            -17.362585
          ],
          [
            -66.284968,
            -17.362727
          ],
          [
            -66.28429,
            -17.363315
          ],
          [
            -66.284019,
            -17.363597
          ],
          [
            -66.283508,
            -17.364216
          ],
          [
            -66.283041,
            -17.364782
          ],
          [
            -66.28284,
            -17.365024
          ],
          [
            -66.282761,
            -17.365152
          ],
          [
            -66.282749,
            -17.365331
          ],
          [
            -66.282685,
            -17.365527
          ],
          [
            -66.282754,
            -17.365946
          ],
          [
            -66.282824,
            -17.366512
          ],
          [
            -66.28284,
            -17.366926
          ],
          [
            -66.282845,
            -17.367278
          ],
          [
            -66.282863,
            -17.368507
          ],
          [
            -66.282875,
            -17.368981
          ],
          [
            -66.282886,
            -17.369591
          ],
          [
            -66.282934,
            -17.370355
          ],
          [
            -66.28296,
            -17.371122
          ],
          [
            -66.283022,
            -17.372353
          ],
          [
            -66.283027,
            -17.372439
          ],
          [
            -66.283044,
            -17.372698
          ],
          [
            -66.283132,
            -17.373778
          ],
          [
            -66.283184,
            -17.374414
          ],
          [
            -66.283201,
            -17.374581
          ],
          [
            -66.283272,
            -17.375198
          ],
          [
            -66.283294,
            -17.375556
          ],
          [
            -66.283322,
            -17.375876
          ],
          [
            -66.283376,
            -17.376435
          ],
          [
            -66.283391,
            -17.376648
          ],
          [
            -66.283397,
            -17.376813
          ],
          [
            -66.283401,
            -17.377068
          ],
          [
            -66.283434,
            -17.377602
          ],
          [
            -66.283455,
            -17.378
          ],
          [
            -66.283534,
            -17.379505
          ],
          [
            -66.283553,
            -17.379914
          ],
          [
            -66.283594,
            -17.380893
          ],
          [
            -66.283628,
            -17.381705
          ],
          [
            -66.283654,
            -17.38191
          ],
          [
            -66.283708,
            -17.382117
          ],
          [
            -66.284011,
            -17.383441
          ],
          [
            -66.283866,
            -17.384312
          ],
          [
            -66.283835,
            -17.384649
          ],
          [
            -66.28381,
            -17.385997
          ],
          [
            -66.283821,
            -17.386739
          ],
          [
            -66.283752,
            -17.387061
          ],
          [
            -66.283644,
            -17.387467
          ],
          [
            -66.283624,
            -17.388266
          ],
          [
            -66.283636,
            -17.389434
          ],
          [
            -66.28364,
            -17.389696
          ],
          [
            -66.283607,
            -17.39
          ],
          [
            -66.283517,
            -17.390417
          ],
          [
            -66.283442,
            -17.390676
          ],
          [
            -66.283037,
            -17.391871
          ],
          [
            -66.282977,
            -17.39245
          ],
          [
            -66.282892,
            -17.393076
          ],
          [
            -66.282989,
            -17.394154
          ],
          [
            -66.282997,
            -17.394417
          ],
          [
            -66.281691,
            -17.394349
          ],
          [
            -66.281571,
            -17.394342
          ],
          [
            -66.281492,
            -17.394337
          ],
          [
            -66.280721,
            -17.394288
          ],
          [
            -66.280625,
            -17.394282
          ],
          [
            -66.280497,
            -17.394268
          ],
          [
            -66.279503,
            -17.394169
          ],
          [
            -66.278798,
            -17.394099
          ],
          [
            -66.278292,
            -17.394055
          ],
          [
            -66.278191,
            -17.394046
          ],
          [
            -66.278154,
            -17.394043
          ],
          [
            -66.278067,
            -17.394034
          ],
          [
            -66.277879,
            -17.394015
          ],
          [
            -66.277381,
            -17.393965
          ],
          [
            -66.276984,
            -17.393924
          ],
          [
            -66.276891,
            -17.393914
          ],
          [
            -66.276126,
            -17.393875
          ],
          [
            -66.274976,
            -17.393695
          ],
          [
            -66.274531,
            -17.393643
          ],
          [
            -66.274421,
            -17.393632
          ],
          [
            -66.273902,
            -17.393588
          ],
          [
            -66.273382,
            -17.393557
          ],
          [
            -66.272861,
            -17.393539
          ],
          [
            -66.27283,
            -17.393532
          ],
          [
            -66.272796,
            -17.393538
          ],
          [
            -66.272762,
            -17.393538
          ],
          [
            -66.272729,
            -17.393532
          ],
          [
            -66.272703,
            -17.393523
          ],
          [
            -66.272685,
            -17.393513
          ],
          [
            -66.272663,
            -17.393498
          ],
          [
            -66.272585,
            -17.393458
          ],
          [
            -66.272479,
            -17.393423
          ],
          [
            -66.272355,
            -17.393388
          ],
          [
            -66.272136,
            -17.393356
          ],
          [
            -66.271183,
            -17.393262
          ],
          [
            -66.270121,
            -17.393164
          ],
          [
            -66.269951,
            -17.393151
          ],
          [
            -66.268271,
            -17.392991
          ],
          [
            -66.268162,
            -17.392979
          ],
          [
            -66.268086,
            -17.39297
          ],
          [
            -66.268063,
            -17.392968
          ],
          [
            -66.266323,
            -17.392798
          ],
          [
            -66.264985,
            -17.392669
          ],
          [
            -66.262023,
            -17.392363
          ],
          [
            -66.261033,
            -17.392271
          ],
          [
            -66.260403,
            -17.39221
          ],
          [
            -66.260096,
            -17.39218
          ],
          [
            -66.259681,
            -17.39214
          ],
          [
            -66.259623,
            -17.392134
          ],
          [
            -66.258927,
            -17.392066
          ],
          [
            -66.257945,
            -17.391968
          ],
          [
            -66.257727,
            -17.39195
          ],
          [
            -66.256056,
            -17.391786
          ],
          [
            -66.25479,
            -17.391651
          ],
          [
            -66.253198,
            -17.391488
          ],
          [
            -66.252863,
            -17.391457
          ],
          [
            -66.251735,
            -17.391352
          ],
          [
            -66.25154,
            -17.391331
          ],
          [
            -66.251319,
            -17.391308
          ],
          [
            -66.251298,
            -17.391306
          ],
          [
            -66.250946,
            -17.391277
          ],
          [
            -66.250646,
            -17.391255
          ],
          [
            -66.25038,
            -17.391241
          ],
          [
            -66.249954,
            -17.391212
          ],
          [
            -66.249041,
            -17.391148
          ],
          [
            -66.24893,
            -17.391141
          ],
          [
            -66.248383,
            -17.391104
          ],
          [
            -66.247898,
            -17.39108
          ],
          [
            -66.247472,
            -17.391059
          ],
          [
            -66.246695,
            -17.39102
          ],
          [
            -66.246286,
            -17.391
          ],
          [
            -66.246144,
            -17.390994
          ],
          [
            -66.246096,
            -17.390993
          ],
          [
            -66.245954,
            -17.390988
          ],
          [
            -66.245373,
            -17.39097
          ],
          [
            -66.245078,
            -17.390961
          ],
          [
            -66.244929,
            -17.390974
          ],
          [
            -66.244746,
            -17.391002
          ],
          [
            -66.244704,
            -17.391009
          ],
          [
            -66.244471,
            -17.39105
          ],
          [
            -66.243976,
            -17.391043
          ],
          [
            -66.243676,
            -17.390988
          ],
          [
            -66.243552,
            -17.390966
          ],
          [
            -66.243464,
            -17.390957
          ],
          [
            -66.243358,
            -17.390953
          ],
          [
            -66.242782,
            -17.390955
          ],
          [
            -66.242109,
            -17.390953
          ],
          [
            -66.241138,
            -17.390966
          ],
          [
            -66.24094,
            -17.390969
          ],
          [
            -66.239893,
            -17.390992
          ],
          [
            -66.239374,
            -17.391011
          ],
          [
            -66.239117,
            -17.391033
          ],
          [
            -66.23896,
            -17.391053
          ],
          [
            -66.238829,
            -17.391075
          ],
          [
            -66.238773,
            -17.3911
          ],
          [
            -66.238694,
            -17.391097
          ],
          [
            -66.238521,
            -17.391072
          ],
          [
            -66.238345,
            -17.391047
          ],
          [
            -66.238186,
            -17.391049
          ],
          [
            -66.237831,
            -17.391066
          ],
          [
            -66.236362,
            -17.391126
          ],
          [
            -66.236359,
            -17.391126
          ],
          [
            -66.233865,
            -17.391226
          ],
          [
            -66.232439,
            -17.391292
          ],
          [
            -66.232029,
            -17.391311
          ],
          [
            -66.231983,
            -17.39131
          ],
          [
            -66.231303,
            -17.391333
          ],
          [
            -66.230938,
            -17.391352
          ],
          [
            -66.230502,
            -17.391373
          ],
          [
            -66.229895,
            -17.391402
          ],
          [
            -66.229167,
            -17.391432
          ],
          [
            -66.228361,
            -17.391464
          ],
          [
            -66.227429,
            -17.391507
          ],
          [
            -66.226624,
            -17.391544
          ],
          [
            -66.226496,
            -17.391547
          ],
          [
            -66.224919,
            -17.391617
          ],
          [
            -66.22209,
            -17.391747
          ],
          [
            -66.221875,
            -17.391755
          ],
          [
            -66.221596,
            -17.391756
          ],
          [
            -66.221335,
            -17.391773
          ],
          [
            -66.219409,
            -17.391852
          ],
          [
            -66.219347,
            -17.391851
          ],
          [
            -66.218927,
            -17.391871
          ],
          [
            -66.218255,
            -17.391897
          ],
          [
            -66.2154,
            -17.392046
          ],
          [
            -66.213513,
            -17.392121
          ],
          [
            -66.212594,
            -17.392155
          ],
          [
            -66.21253,
            -17.392157
          ],
          [
            -66.211318,
            -17.392197
          ],
          [
            -66.211112,
            -17.392208
          ],
          [
            -66.210411,
            -17.392246
          ],
          [
            -66.210397,
            -17.392246
          ],
          [
            -66.210359,
            -17.392246
          ],
          [
            -66.210346,
            -17.392246
          ],
          [
            -66.210337,
            -17.392246
          ],
          [
            -66.21032,
            -17.392246
          ],
          [
            -66.208973,
            -17.392304
          ],
          [
            -66.208295,
            -17.392338
          ],
          [
            -66.20819,
            -17.392343
          ],
          [
            -66.208096,
            -17.392347
          ],
          [
            -66.20801,
            -17.39235
          ],
          [
            -66.20777,
            -17.39236
          ],
          [
            -66.205628,
            -17.392448
          ],
          [
            -66.204708,
            -17.392489
          ],
          [
            -66.204309,
            -17.392508
          ],
          [
            -66.20362,
            -17.392535
          ],
          [
            -66.203108,
            -17.392554
          ],
          [
            -66.200207,
            -17.392688
          ],
          [
            -66.199822,
            -17.392705
          ],
          [
            -66.199683,
            -17.39271
          ],
          [
            -66.199603,
            -17.392714
          ],
          [
            -66.199482,
            -17.392719
          ],
          [
            -66.199275,
            -17.392728
          ],
          [
            -66.198936,
            -17.392742
          ],
          [
            -66.197099,
            -17.39282
          ],
          [
            -66.196961,
            -17.392827
          ],
          [
            -66.194171,
            -17.392952
          ],
          [
            -66.193903,
            -17.392963
          ],
          [
            -66.19186,
            -17.39305
          ],
          [
            -66.189268,
            -17.393168
          ],
          [
            -66.187582,
            -17.393243
          ],
          [
            -66.186416,
            -17.393294
          ],
          [
            -66.186154,
            -17.393305
          ],
          [
            -66.184462,
            -17.393374
          ],
          [
            -66.184103,
            -17.393391
          ],
          [
            -66.181838,
            -17.393498
          ],
          [
            -66.18106,
            -17.39353
          ],
          [
            -66.180149,
            -17.393568
          ],
          [
            -66.179566,
            -17.393593
          ],
          [
            -66.177922,
            -17.393671
          ],
          [
            -66.177602,
            -17.393686
          ],
          [
            -66.177279,
            -17.393699
          ],
          [
            -66.176819,
            -17.393719
          ],
          [
            -66.176685,
            -17.393724
          ],
          [
            -66.176607,
            -17.393728
          ],
          [
            -66.176473,
            -17.393734
          ],
          [
            -66.174747,
            -17.393808
          ],
          [
            -66.174015,
            -17.393839
          ],
          [
            -66.17391,
            -17.393844
          ],
          [
            -66.171329,
            -17.393958
          ],
          [
            -66.171173,
            -17.393975
          ],
          [
            -66.171037,
            -17.394003
          ],
          [
            -66.170902,
            -17.394036
          ],
          [
            -66.170765,
            -17.394068
          ],
          [
            -66.170705,
            -17.394095
          ],
          [
            -66.170658,
            -17.394102
          ],
          [
            -66.170608,
            -17.394098
          ],
          [
            -66.170567,
            -17.394089
          ],
          [
            -66.170425,
            -17.394073
          ],
          [
            -66.17029,
            -17.394067
          ],
          [
            -66.169213,
            -17.394123
          ],
          [
            -66.168848,
            -17.394136
          ],
          [
            -66.168749,
            -17.39414
          ],
          [
            -66.168475,
            -17.39415
          ],
          [
            -66.168352,
            -17.394154
          ],
          [
            -66.167998,
            -17.394167
          ],
          [
            -66.167899,
            -17.394168
          ],
          [
            -66.167805,
            -17.394157
          ],
          [
            -66.16771,
            -17.394146
          ],
          [
            -66.167603,
            -17.394136
          ],
          [
            -66.167473,
            -17.394122
          ],
          [
            -66.167376,
            -17.394114
          ],
          [
            -66.166963,
            -17.394065
          ],
          [
            -66.166698,
            -17.394038
          ],
          [
            -66.166609,
            -17.394026
          ],
          [
            -66.166515,
            -17.394005
          ],
          [
            -66.166338,
            -17.393931
          ],
          [
            -66.166273,
            -17.393911
          ],
          [
            -66.166192,
            -17.393894
          ],
          [
            -66.165909,
            -17.393848
          ],
          [
            -66.164906,
            -17.39367
          ],
          [
            -66.163915,
            -17.393489
          ],
          [
            -66.162053,
            -17.39318
          ],
          [
            -66.161979,
            -17.393167
          ],
          [
            -66.161115,
            -17.393017
          ],
          [
            -66.161047,
            -17.393009
          ],
          [
            -66.161038,
            -17.393062
          ],
          [
            -66.160992,
            -17.393344
          ],
          [
            -66.160862,
            -17.393944
          ],
          [
            -66.160635,
            -17.395006
          ],
          [
            -66.160432,
            -17.396064
          ],
          [
            -66.160232,
            -17.397084
          ],
          [
            -66.160069,
            -17.398173
          ],
          [
            -66.160322,
            -17.398222
          ],
          [
            -66.160321,
            -17.398393
          ],
          [
            -66.160315,
            -17.399319
          ],
          [
            -66.160307,
            -17.399387
          ],
          [
            -66.160299,
            -17.399444
          ],
          [
            -66.160295,
            -17.39948
          ],
          [
            -66.160284,
            -17.399505
          ],
          [
            -66.160262,
            -17.399524
          ],
          [
            -66.160224,
            -17.399539
          ],
          [
            -66.160128,
            -17.399539
          ],
          [
            -66.160063,
            -17.399539
          ],
          [
            -66.160006,
            -17.39954
          ],
          [
            -66.159251,
            -17.399522
          ],
          [
            -66.158666,
            -17.399515
          ],
          [
            -66.15781,
            -17.399491
          ],
          [
            -66.157729,
            -17.399487
          ],
          [
            -66.157725,
            -17.399553
          ],
          [
            -66.15771,
            -17.399806
          ],
          [
            -66.157674,
            -17.400165
          ],
          [
            -66.1576,
            -17.40091
          ],
          [
            -66.15759,
            -17.400982
          ],
          [
            -66.157572,
            -17.401163
          ],
          [
            -66.157533,
            -17.401542
          ],
          [
            -66.157493,
            -17.401979
          ],
          [
            -66.157476,
            -17.40212
          ],
          [
            -66.15746,
            -17.40225
          ],
          [
            -66.157367,
            -17.402927
          ],
          [
            -66.15729,
            -17.403424
          ],
          [
            -66.157198,
            -17.403985
          ],
          [
            -66.157174,
            -17.404029
          ],
          [
            -66.157149,
            -17.404081
          ],
          [
            -66.156975,
            -17.405144
          ],
          [
            -66.156929,
            -17.405396
          ],
          [
            -66.156715,
            -17.406568
          ],
          [
            -66.156675,
            -17.406831
          ],
          [
            -66.156608,
            -17.407373
          ],
          [
            -66.156579,
            -17.407596
          ],
          [
            -66.156564,
            -17.407672
          ],
          [
            -66.156552,
            -17.407749
          ],
          [
            -66.156392,
            -17.408892
          ],
          [
            -66.1563,
            -17.409309
          ],
          [
            -66.156253,
            -17.409537
          ],
          [
            -66.156149,
            -17.410116
          ],
          [
            -66.156103,
            -17.410409
          ],
          [
            -66.156079,
            -17.410653
          ],
          [
            -66.15606,
            -17.410819
          ],
          [
            -66.156047,
            -17.410917
          ],
          [
            -66.156056,
            -17.41103
          ],
          [
            -66.156067,
            -17.4111
          ],
          [
            -66.156098,
            -17.411222
          ],
          [
            -66.156306,
            -17.411877
          ],
          [
            -66.156356,
            -17.412078
          ],
          [
            -66.156398,
            -17.412262
          ],
          [
            -66.156401,
            -17.412427
          ],
          [
            -66.15652,
            -17.413072
          ],
          [
            -66.156659,
            -17.413832
          ],
          [
            -66.156789,
            -17.414592
          ],
          [
            -66.156829,
            -17.414708
          ],
          [
            -66.156992,
            -17.415539
          ],
          [
            -66.157009,
            -17.415627
          ],
          [
            -66.157023,
            -17.41571
          ],
          [
            -66.157197,
            -17.416571
          ],
          [
            -66.157207,
            -17.416628
          ],
          [
            -66.157223,
            -17.416711
          ],
          [
            -66.15737,
            -17.417621
          ],
          [
            -66.157533,
            -17.41871
          ],
          [
            -66.157607,
            -17.419193
          ],
          [
            -66.157692,
            -17.419748
          ],
          [
            -66.157757,
            -17.420172
          ],
          [
            -66.157766,
            -17.420231
          ],
          [
            -66.157808,
            -17.420502
          ],
          [
            -66.157878,
            -17.420959
          ],
          [
            -66.15791,
            -17.421167
          ],
          [
            -66.157981,
            -17.421644
          ],
          [
            -66.157997,
            -17.421777
          ],
          [
            -66.159772,
            -17.421865
          ],
          [
            -66.159753,
            -17.422721
          ],
          [
            -66.159725,
            -17.423634
          ],
          [
            -66.15971,
            -17.424555
          ],
          [
            -66.159641,
            -17.425754
          ],
          [
            -66.159636,
            -17.425812
          ],
          [
            -66.159587,
            -17.426766
          ],
          [
            -66.159585,
            -17.426904
          ],
          [
            -66.159555,
            -17.427004
          ],
          [
            -66.159508,
            -17.427142
          ],
          [
            -66.15943,
            -17.427281
          ],
          [
            -66.159377,
            -17.42736
          ],
          [
            -66.159315,
            -17.427435
          ],
          [
            -66.159217,
            -17.427518
          ],
          [
            -66.159138,
            -17.427568
          ],
          [
            -66.159098,
            -17.427598
          ],
          [
            -66.158987,
            -17.427678
          ],
          [
            -66.158741,
            -17.427872
          ],
          [
            -66.158658,
            -17.42794
          ],
          [
            -66.158563,
            -17.428009
          ],
          [
            -66.158496,
            -17.428029
          ],
          [
            -66.158412,
            -17.428038
          ],
          [
            -66.158349,
            -17.428035
          ],
          [
            -66.158268,
            -17.428016
          ],
          [
            -66.158044,
            -17.427954
          ],
          [
            -66.157867,
            -17.427897
          ],
          [
            -66.157818,
            -17.427888
          ],
          [
            -66.15777,
            -17.427878
          ],
          [
            -66.157689,
            -17.427868
          ],
          [
            -66.157622,
            -17.427864
          ],
          [
            -66.157594,
            -17.427863
          ],
          [
            -66.157499,
            -17.427864
          ],
          [
            -66.157425,
            -17.427871
          ],
          [
            -66.157359,
            -17.427878
          ],
          [
            -66.157158,
            -17.427918
          ],
          [
            -66.157027,
            -17.427961
          ],
          [
            -66.156934,
            -17.428013
          ],
          [
            -66.156846,
            -17.428074
          ],
          [
            -66.156766,
            -17.428138
          ],
          [
            -66.156699,
            -17.428194
          ],
          [
            -66.156301,
            -17.428609
          ],
          [
            -66.155837,
            -17.429132
          ],
          [
            -66.155773,
            -17.429204
          ],
          [
            -66.155712,
            -17.429276
          ],
          [
            -66.155505,
            -17.429522
          ],
          [
            -66.155429,
            -17.4296
          ],
          [
            -66.155351,
            -17.429665
          ],
          [
            -66.154668,
            -17.429923
          ],
          [
            -66.15444,
            -17.430056
          ],
          [
            -66.154196,
            -17.430262
          ],
          [
            -66.154013,
            -17.430437
          ],
          [
            -66.15382,
            -17.430647
          ],
          [
            -66.15364,
            -17.430833
          ],
          [
            -66.153301,
            -17.431245
          ],
          [
            -66.153233,
            -17.431356
          ],
          [
            -66.153178,
            -17.431447
          ],
          [
            -66.153134,
            -17.431533
          ],
          [
            -66.153097,
            -17.431613
          ],
          [
            -66.153068,
            -17.431658
          ],
          [
            -66.152829,
            -17.43239
          ],
          [
            -66.15249,
            -17.433709
          ],
          [
            -66.152475,
            -17.433765
          ],
          [
            -66.15247,
            -17.433809
          ],
          [
            -66.152479,
            -17.433889
          ],
          [
            -66.152514,
            -17.433964
          ],
          [
            -66.152581,
            -17.43404
          ],
          [
            -66.153007,
            -17.434414
          ],
          [
            -66.153039,
            -17.43444
          ],
          [
            -66.153113,
            -17.434496
          ],
          [
            -66.153175,
            -17.434552
          ],
          [
            -66.153218,
            -17.434611
          ],
          [
            -66.153247,
            -17.434677
          ],
          [
            -66.153258,
            -17.434756
          ],
          [
            -66.153249,
            -17.434816
          ],
          [
            -66.153234,
            -17.434871
          ],
          [
            -66.153142,
            -17.435015
          ],
          [
            -66.152714,
            -17.435617
          ],
          [
            -66.152167,
            -17.436386
          ],
          [
            -66.151825,
            -17.436868
          ],
          [
            -66.151636,
            -17.43713
          ],
          [
            -66.15176,
            -17.437271
          ],
          [
            -66.151803,
            -17.437324
          ],
          [
            -66.152601,
            -17.437871
          ],
          [
            -66.152187,
            -17.438439
          ],
          [
            -66.151866,
            -17.438912
          ],
          [
            -66.151329,
            -17.439669
          ],
          [
            -66.150746,
            -17.440604
          ],
          [
            -66.1507,
            -17.44068
          ],
          [
            -66.149746,
            -17.440122
          ],
          [
            -66.149122,
            -17.439818
          ],
          [
            -66.148995,
            -17.439751
          ],
          [
            -66.148523,
            -17.439483
          ],
          [
            -66.147862,
            -17.440458
          ],
          [
            -66.147235,
            -17.441329
          ],
          [
            -66.147145,
            -17.441424
          ],
          [
            -66.147056,
            -17.441495
          ],
          [
            -66.146961,
            -17.441551
          ],
          [
            -66.146841,
            -17.441602
          ],
          [
            -66.14673,
            -17.44164
          ],
          [
            -66.145902,
            -17.441826
          ]
        ]
      }
    }
  ]
}