{
  "type": "FeatureCollection",
  "features": [
    {
      "type": "Feature",
      "properties": {
        "route_id": "10667416",
        "route_short_name": "X",
        "route_long_name": "MicroBus X: Avenida Sexta \u2192 Mineros San Juan"
      },
      "geometry": {
        "type": "LineString",
        "coordinates": [
          [
            -66.207878,
            -17.384433
          ],
          [
            -66.20622,
            -17.38454
          ],
          [
            -66.206062,
            -17.384538
          ],
          [
            -66.205955,
            -17.384539
          ],
          [
            -66.205856,
            -17.38454
          ],
          [
            -66.205249,
            -17.384545
          ],
          [
            -66.204749,
            -17.384561
          ],
          [
            -66.204708,
            -17.384563
          ],
          [
            -66.204572,
            -17.384567
          ],
          [
            -66.204507,
            -17.384568
          ],
          [
            -66.204444,
            -17.384569
          ],
          [
            -66.203614,
            -17.384591
          ],
          [
            -66.203021,
            -17.384617
          ],
          [
            -66.202751,
            -17.384675
          ],
          [
            -66.2025,
            -17.38473
          ],
          [
            -66.202377,
            -17.384776
          ],
          [
            -66.201805,
            -17.38504
          ],
          [
            -66.201842,
            -17.385625
          ],
          [
            -66.20185,
            -17.385698
          ],
          [
            -66.20192,
            -17.386572
          ],
          [
            -66.20199,
            -17.387851
          ],
          [
            -66.202029,
            -17.388578
          ],
          [
            -66.202403,
            -17.388556
          ],
          [
            -66.203066,
            -17.388518
          ],
          [
            -66.203047,
            -17.388205
          ],
          [
            -66.20383,
            -17.388178
          ],
          [
            -66.203836,
            -17.388409
          ],
          [
            -66.203876,
            -17.389142
          ],
          [
            -66.203881,
            -17.389238
          ],
          [
            -66.203868,
            -17.389304
          ],
          [
            -66.203848,
            -17.389333
          ],
          [
            -66.203814,
            -17.38936
          ],
          [
            -66.203746,
            -17.389394
          ],
          [
            -66.203763,
            -17.389742
          ],
          [
            -66.203767,
            -17.389805
          ],
          [
            -66.203675,
            -17.389803
          ],
          [
            -66.203688,
            -17.389998
          ],
          [
            -66.203689,
            -17.39005
          ],
          [
            -66.203724,
            -17.390974
          ],
          [
            -66.204378,
            -17.39094
          ],
          [
            -66.205012,
            -17.390897
          ],
          [
            -66.205669,
            -17.390847
          ],
          [
            -66.206329,
            -17.39078
          ],
          [
            -66.207165,
            -17.390794
          ],
          [
            -66.208025,
            -17.390823
          ],
          [
            -66.208109,
            -17.390821
          ],
          [
            -66.208154,
            -17.391588
          ],
          [
            -66.208175,
            -17.39205
          ],
          [
            -66.208185,
            -17.392214
          ],
          [
            -66.20819,
            -17.392343
          ],
          [
            -66.208096,
            -17.392347
          ],
          [
            -66.20801,
            -17.39235
          ],
          [
            -66.20777,
            -17.39236
          ],
          [
            -66.205628,
            -17.392448
          ],
          [
            -66.204708,
            -17.392489
          ],
          [
            -66.204309,
            -17.392508
          ],
          [
            -66.20362,
            -17.392535
          ],
          [
            -66.203108,
            -17.392554
          ],
          [
            -66.200207,
            -17.392688
          ],
          [
            -66.199822,
            -17.392705
          ],
          [
            -66.199683,
            -17.39271
          ],
          [
            -66.199603,
            -17.392714
          ],
          [
            -66.199482,
            -17.392719
          ],
          [
            -66.199275,
            -17.392728
          ],
          [
            -66.198936,
            -17.392742
          ],
          [
            -66.197099,
            -17.39282
          ],
          [
            -66.196961,
            -17.392827
          ],
          [
            -66.194171,
            -17.392952
          ],
          [
            -66.193903,
            -17.392963
          ],
          [
            -66.19186,
            -17.39305
          ],
          [
            -66.189268,
            -17.393168
          ],
          [
            -66.187582,
            -17.393243
          ],
          [
            -66.186416,
            -17.393294
          ],
          [
            -66.186154,
            -17.393305
          ],
          [
            -66.184462,
            -17.393374
          ],
          [
            -66.184103,
            -17.393391
          ],
          [
            -66.181838,
            -17.393498
          ],
          [
            -66.18106,
            -17.39353
          ],
          [
            -66.180149,
            -17.393568
          ],
          [
            -66.179566,
            -17.393593
          ],
          [
            -66.177922,
            -17.393671
          ],
          [
            -66.177602,
            -17.393686
          ],
          [
            -66.177279,
            -17.393699
          ],
          [
            -66.176819,
            -17.393719
          ],
          [
            -66.176685,
            -17.393724
          ],
          [
            -66.176607,
            -17.393728
          ],
          [
            -66.176473,
            -17.393734
          ],
          [
            -66.174747,
            -17.393808
          ],
          [
            -66.174015,
            -17.393839
          ],
          [
            -66.17391,
            -17.393844
          ],
          [
            -66.171329,
            -17.393958
          ],
          [
            -66.171173,
            -17.393975
          ],
          [
            -66.171037,
            -17.394003
          ],
          [
            -66.170902,
            -17.394036
          ],
          [
            -66.170765,
            -17.394068
          ],
          [
            -66.170705,
            -17.394095
          ],
          [
            -66.170658,
            -17.394102
          ],
          [
            -66.170608,
            -17.394098
          ],
          [
            -66.170567,
            -17.394089
          ],
          [
            -66.170425,
            -17.394073
          ],
          [
            -66.17029,
            -17.394067
          ],
          [
            -66.169213,
            -17.394123
          ],
          [
            -66.168848,
            -17.394136
          ],
          [
            -66.168749,
            -17.39414
          ],
          [
            -66.168475,
            -17.39415
          ],
          [
            -66.168352,
            -17.394154
          ],
          [
            -66.167998,
            -17.394167
          ],
          [
            -66.167899,
            -17.394168
          ],
          [
            -66.167805,
            -17.394157
          ],
          [
            -66.16771,
            -17.394146
          ],
          [
            -66.167603,
            -17.394136
          ],
          [
            -66.167473,
            -17.394122
          ],
          [
            -66.167376,
            -17.394114
          ],
          [
            -66.166963,
            -17.394065
          ],
          [
            -66.166698,
            -17.394038
          ],
          [
            -66.166609,
            -17.394026
          ],
          [
            -66.166515,
            -17.394005
          ],
          [
            -66.166338,
            -17.393931
          ],
          [
            -66.166273,
            -17.393911
          ],
          [
            -66.166192,
            -17.393894
          ],
          [
            -66.165909,
            -17.393848
          ],
          [
            -66.164906,
            -17.39367
          ],
          [
            -66.163915,
            -17.393489
          ],
          [
            -66.162053,
            -17.39318
          ],
          [
            -66.161979,
            -17.393167
          ],
          [
            -66.161115,
            -17.393017
          ],
          [
            -66.161047,
            -17.393009
          ],
          [
            -66.160979,
            -17.393
          ],
          [
            -66.159961,
            -17.392837
          ],
          [
            -66.159906,
            -17.392828
          ],
          [
            -66.159866,
            -17.392822
          ],
          [
            -66.159825,
            -17.392815
          ],
          [
            -66.159037,
            -17.392679
          ],
          [
            -66.158924,
            -17.392658
          ],
          [
            -66.158862,
            -17.392647
          ],
          [
            -66.15877,
            -17.392632
          ],
          [
            -66.15869,
            -17.392617
          ],
          [
            -66.158366,
            -17.392559
          ],
          [
            -66.15829,
            -17.392545
          ],
          [
            -66.157782,
            -17.39246
          ],
          [
            -66.157737,
            -17.392451
          ],
          [
            -66.157684,
            -17.392442
          ],
          [
            -66.157305,
            -17.392376
          ],
          [
            -66.156712,
            -17.392274
          ],
          [
            -66.156656,
            -17.392263
          ],
          [
            -66.156614,
            -17.392256
          ],
          [
            -66.156188,
            -17.392183
          ],
          [
            -66.156156,
            -17.392177
          ],
          [
            -66.155647,
            -17.392082
          ],
          [
            -66.155571,
            -17.392067
          ],
          [
            -66.15555,
            -17.392135
          ],
          [
            -66.15538,
            -17.393009
          ],
          [
            -66.155185,
            -17.394046
          ],
          [
            -66.15519,
            -17.394103
          ],
          [
            -66.155102,
            -17.394555
          ],
          [
            -66.155099,
            -17.394569
          ],
          [
            -66.155095,
            -17.394591
          ],
          [
            -66.155047,
            -17.394856
          ],
          [
            -66.155014,
            -17.395035
          ],
          [
            -66.155006,
            -17.395076
          ],
          [
            -66.154837,
            -17.39592
          ],
          [
            -66.15481,
            -17.396053
          ],
          [
            -66.154794,
            -17.396134
          ],
          [
            -66.15467,
            -17.396758
          ],
          [
            -66.15458,
            -17.397192
          ],
          [
            -66.154382,
            -17.398223
          ],
          [
            -66.154227,
            -17.399006
          ],
          [
            -66.154206,
            -17.399084
          ],
          [
            -66.154045,
            -17.399999
          ],
          [
            -66.15393,
            -17.400709
          ],
          [
            -66.153977,
            -17.401365
          ],
          [
            -66.154027,
            -17.402254
          ],
          [
            -66.154504,
            -17.402243
          ],
          [
            -66.154511,
            -17.402304
          ],
          [
            -66.154513,
            -17.402353
          ],
          [
            -66.154515,
            -17.402434
          ],
          [
            -66.154517,
            -17.4025
          ],
          [
            -66.15452,
            -17.402584
          ],
          [
            -66.154522,
            -17.402665
          ],
          [
            -66.154523,
            -17.402697
          ],
          [
            -66.154526,
            -17.402774
          ],
          [
            -66.154528,
            -17.402846
          ],
          [
            -66.15453,
            -17.402926
          ],
          [
            -66.154532,
            -17.402994
          ],
          [
            -66.154533,
            -17.403095
          ],
          [
            -66.154504,
            -17.403108
          ],
          [
            -66.154456,
            -17.403138
          ],
          [
            -66.154394,
            -17.403181
          ],
          [
            -66.154301,
            -17.403226
          ],
          [
            -66.154231,
            -17.403253
          ],
          [
            -66.154171,
            -17.403261
          ],
          [
            -66.154097,
            -17.403268
          ],
          [
            -66.153956,
            -17.403274
          ],
          [
            -66.153442,
            -17.403298
          ],
          [
            -66.15341,
            -17.403313
          ],
          [
            -66.153388,
            -17.403336
          ],
          [
            -66.153366,
            -17.403379
          ],
          [
            -66.153397,
            -17.4048
          ],
          [
            -66.153401,
            -17.404862
          ],
          [
            -66.153416,
            -17.405281
          ],
          [
            -66.153426,
            -17.40555
          ],
          [
            -66.153445,
            -17.406098
          ],
          [
            -66.153469,
            -17.407052
          ],
          [
            -66.153476,
            -17.407557
          ],
          [
            -66.153504,
            -17.408299
          ],
          [
            -66.153572,
            -17.409841
          ],
          [
            -66.153576,
            -17.409968
          ],
          [
            -66.153569,
            -17.410285
          ],
          [
            -66.153605,
            -17.411148
          ],
          [
            -66.153646,
            -17.413154
          ],
          [
            -66.153655,
            -17.413728
          ],
          [
            -66.15364,
            -17.413932
          ],
          [
            -66.153631,
            -17.414165
          ],
          [
            -66.153609,
            -17.414281
          ],
          [
            -66.153575,
            -17.414418
          ],
          [
            -66.153534,
            -17.414562
          ],
          [
            -66.153476,
            -17.414713
          ],
          [
            -66.153397,
            -17.414902
          ],
          [
            -66.153333,
            -17.415056
          ],
          [
            -66.153244,
            -17.415228
          ],
          [
            -66.153141,
            -17.415393
          ],
          [
            -66.152786,
            -17.415849
          ],
          [
            -66.152623,
            -17.416055
          ],
          [
            -66.152152,
            -17.416652
          ],
          [
            -66.152102,
            -17.416727
          ],
          [
            -66.152019,
            -17.416871
          ],
          [
            -66.151987,
            -17.416922
          ],
          [
            -66.151934,
            -17.417057
          ],
          [
            -66.151927,
            -17.417107
          ],
          [
            -66.151906,
            -17.417154
          ],
          [
            -66.151871,
            -17.417251
          ],
          [
            -66.151859,
            -17.417288
          ],
          [
            -66.151829,
            -17.417404
          ],
          [
            -66.151806,
            -17.417526
          ],
          [
            -66.1518,
            -17.417698
          ],
          [
            -66.151808,
            -17.417921
          ],
          [
            -66.151849,
            -17.418174
          ],
          [
            -66.151896,
            -17.418344
          ],
          [
            -66.151994,
            -17.418545
          ],
          [
            -66.152308,
            -17.419084
          ],
          [
            -66.152414,
            -17.419269
          ],
          [
            -66.152708,
            -17.419825
          ],
          [
            -66.152877,
            -17.420169
          ],
          [
            -66.153136,
            -17.420748
          ],
          [
            -66.153317,
            -17.421261
          ],
          [
            -66.153368,
            -17.421416
          ],
          [
            -66.153389,
            -17.421498
          ],
          [
            -66.153433,
            -17.421623
          ],
          [
            -66.153543,
            -17.421883
          ],
          [
            -66.15357,
            -17.421967
          ],
          [
            -66.153625,
            -17.422165
          ],
          [
            -66.15369,
            -17.422426
          ],
          [
            -66.153746,
            -17.422688
          ],
          [
            -66.153801,
            -17.423024
          ],
          [
            -66.153852,
            -17.423388
          ],
          [
            -66.153867,
            -17.423539
          ],
          [
            -66.153892,
            -17.423866
          ],
          [
            -66.153912,
            -17.424291
          ],
          [
            -66.153915,
            -17.424371
          ],
          [
            -66.153915,
            -17.424636
          ],
          [
            -66.153907,
            -17.424891
          ],
          [
            -66.153904,
            -17.424972
          ],
          [
            -66.153884,
            -17.425327
          ],
          [
            -66.153867,
            -17.425449
          ],
          [
            -66.15385,
            -17.425552
          ],
          [
            -66.153768,
            -17.425886
          ],
          [
            -66.153645,
            -17.426333
          ],
          [
            -66.153616,
            -17.426432
          ],
          [
            -66.153576,
            -17.426557
          ],
          [
            -66.153509,
            -17.426746
          ],
          [
            -66.153465,
            -17.426857
          ],
          [
            -66.153368,
            -17.427078
          ],
          [
            -66.153289,
            -17.427232
          ],
          [
            -66.153204,
            -17.427385
          ],
          [
            -66.15309,
            -17.427572
          ],
          [
            -66.152931,
            -17.427798
          ],
          [
            -66.152755,
            -17.428014
          ],
          [
            -66.152634,
            -17.428146
          ],
          [
            -66.152479,
            -17.428299
          ],
          [
            -66.151687,
            -17.429052
          ],
          [
            -66.151575,
            -17.429167
          ],
          [
            -66.151488,
            -17.429273
          ],
          [
            -66.151413,
            -17.429393
          ],
          [
            -66.151344,
            -17.429537
          ],
          [
            -66.151255,
            -17.429804
          ],
          [
            -66.151216,
            -17.429894
          ],
          [
            -66.151167,
            -17.429999
          ],
          [
            -66.151104,
            -17.430112
          ],
          [
            -66.150998,
            -17.430303
          ],
          [
            -66.150945,
            -17.430395
          ],
          [
            -66.150773,
            -17.430683
          ],
          [
            -66.150502,
            -17.43113
          ],
          [
            -66.15028,
            -17.431465
          ],
          [
            -66.150135,
            -17.431662
          ],
          [
            -66.150094,
            -17.431717
          ],
          [
            -66.149664,
            -17.432308
          ],
          [
            -66.148893,
            -17.433338
          ],
          [
            -66.148231,
            -17.434234
          ],
          [
            -66.147992,
            -17.434548
          ],
          [
            -66.147239,
            -17.435568
          ],
          [
            -66.146038,
            -17.437183
          ],
          [
            -66.145919,
            -17.437364
          ],
          [
            -66.145828,
            -17.437526
          ],
          [
            -66.145734,
            -17.43771
          ],
          [
            -66.145667,
            -17.437839
          ],
          [
            -66.145631,
            -17.437907
          ],
          [
            -66.145588,
            -17.437983
          ],
          [
            -66.145568,
            -17.43802
          ],
          [
            -66.145516,
            -17.438108
          ],
          [
            -66.145421,
            -17.438234
          ],
          [
            -66.145234,
            -17.438483
          ],
          [
            -66.145144,
            -17.438604
          ],
          [
            -66.145051,
            -17.438747
          ],
          [
            -66.144522,
            -17.439661
          ],
          [
            -66.144151,
            -17.440328
          ],
          [
            -66.143944,
            -17.440645
          ],
          [
            -66.143724,
            -17.440937
          ],
          [
            -66.143591,
            -17.441086
          ],
          [
            -66.143292,
            -17.44139
          ],
          [
            -66.143095,
            -17.441584
          ],
          [
            -66.142935,
            -17.44176
          ],
          [
            -66.142834,
            -17.441875
          ],
          [
            -66.142777,
            -17.441936
          ],
          [
            -66.142692,
            -17.442017
          ],
          [
            -66.142384,
            -17.442258
          ],
          [
            -66.142141,
            -17.442467
          ],
          [
            -66.14114,
            -17.4434
          ],
          [
            -66.140951,
            -17.443567
          ],
          [
            -66.140753,
            -17.443741
          ],
          [
            -66.140492,
            -17.443942
          ],
          [
            -66.140133,
            -17.444192
          ],
          [
            -66.139695,
            -17.444458
          ],
          [
            -66.138894,
            -17.4449
          ],
          [
            -66.137138,
            -17.445871
          ],
          [
            -66.136239,
            -17.446378
          ],
          [
            -66.136209,
            -17.446395
          ],
          [
            -66.135402,
            -17.446839
          ],
          [
            -66.13521,
            -17.446931
          ],
          [
            -66.135111,
            -17.446995
          ],
          [
            -66.134951,
            -17.447129
          ],
          [
            -66.134885,
            -17.447183
          ],
          [
            -66.134761,
            -17.447272
          ],
          [
            -66.134687,
            -17.447315
          ],
          [
            -66.134629,
            -17.447347
          ],
          [
            -66.134559,
            -17.447386
          ],
          [
            -66.134165,
            -17.447576
          ],
          [
            -66.133935,
            -17.447683
          ],
          [
            -66.133794,
            -17.447768
          ],
          [
            -66.133223,
            -17.44813
          ],
          [
            -66.132618,
            -17.448545
          ],
          [
            -66.131998,
            -17.449018
          ],
          [
            -66.131476,
            -17.449447
          ],
          [
            -66.131262,
            -17.449641
          ],
          [
            -66.130715,
            -17.450145
          ],
          [
            -66.130353,
            -17.450503
          ],
          [
            -66.130072,
            -17.450805
          ],
          [
            -66.129968,
            -17.450926
          ],
          [
            -66.129852,
            -17.451061
          ],
          [
            -66.129381,
            -17.451652
          ],
          [
            -66.129253,
            -17.451802
          ],
          [
            -66.129176,
            -17.451882
          ],
          [
            -66.128975,
            -17.452096
          ],
          [
            -66.12872,
            -17.452408
          ],
          [
            -66.128634,
            -17.452508
          ],
          [
            -66.128272,
            -17.452892
          ],
          [
            -66.127993,
            -17.453188
          ],
          [
            -66.127347,
            -17.453948
          ],
          [
            -66.12678,
            -17.454618
          ],
          [
            -66.126256,
            -17.455232
          ],
          [
            -66.125955,
            -17.455633
          ],
          [
            -66.125642,
            -17.456121
          ],
          [
            -66.125545,
            -17.4563
          ],
          [
            -66.124521,
            -17.458163
          ],
          [
            -66.124384,
            -17.458385
          ],
          [
            -66.124281,
            -17.458552
          ],
          [
            -66.124115,
            -17.458828
          ],
          [
            -66.123579,
            -17.459745
          ],
          [
            -66.123168,
            -17.460451
          ],
          [
            -66.123071,
            -17.460582
          ],
          [
            -66.12265,
            -17.461023
          ],
          [
            -66.12226,
            -17.461448
          ],
          [
            -66.122159,
            -17.461561
          ],
          [
            -66.12203,
            -17.461705
          ],
          [
            -66.121817,
            -17.461937
          ],
          [
            -66.12171,
            -17.462058
          ],
          [
            -66.121566,
            -17.46222
          ],
          [
            -66.121314,
            -17.462564
          ],
          [
            -66.121254,
            -17.462687
          ],
          [
            -66.120984,
            -17.463152
          ],
          [
            -66.120764,
            -17.463617
          ],
          [
            -66.120569,
            -17.464055
          ],
          [
            -66.120415,
            -17.464402
          ],
          [
            -66.120339,
            -17.464561
          ],
          [
            -66.120243,
            -17.464752
          ],
          [
            -66.120129,
            -17.464932
          ],
          [
            -66.119969,
            -17.465135
          ],
          [
            -66.119796,
            -17.465329
          ],
          [
            -66.119634,
            -17.465486
          ],
          [
            -66.119477,
            -17.465623
          ],
          [
            -66.119265,
            -17.465768
          ],
          [
            -66.118978,
            -17.465939
          ],
          [
            -66.118731,
            -17.466047
          ],
          [
            -66.118499,
            -17.466134
          ],
          [
            -66.118213,
            -17.466213
          ],
          [
            -66.117651,
            -17.466305
          ],
          [
            -66.117495,
            -17.466335
          ],
          [
            -66.117259,
            -17.466389
          ],
          [
            -66.117124,
            -17.466417
          ],
          [
            -66.116901,
            -17.466486
          ],
          [
            -66.116864,
            -17.466497
          ],
          [
            -66.11672,
            -17.466555
          ],
          [
            -66.116553,
            -17.466645
          ],
          [
            -66.116412,
            -17.466745
          ],
          [
            -66.116234,
            -17.466917
          ],
          [
            -66.116099,
            -17.467096
          ],
          [
            -66.115977,
            -17.467297
          ],
          [
            -66.115337,
            -17.468529
          ],
          [
            -66.115103,
            -17.468921
          ],
          [
            -66.114845,
            -17.469327
          ],
          [
            -66.114658,
            -17.469562
          ],
          [
            -66.114467,
            -17.469733
          ],
          [
            -66.114385,
            -17.469794
          ],
          [
            -66.114092,
            -17.470014
          ],
          [
            -66.113725,
            -17.470289
          ],
          [
            -66.113398,
            -17.470524
          ],
          [
            -66.113187,
            -17.470706
          ],
          [
            -66.113041,
            -17.470878
          ],
          [
            -66.112868,
            -17.471249
          ],
          [
            -66.112782,
            -17.471587
          ],
          [
            -66.11278,
            -17.471665
          ],
          [
            -66.112771,
            -17.471996
          ],
          [
            -66.112777,
            -17.472579
          ],
          [
            -66.112728,
            -17.472856
          ],
          [
            -66.112465,
            -17.473664
          ],
          [
            -66.112412,
            -17.474176
          ],
          [
            -66.112444,
            -17.475168
          ],
          [
            -66.11239,
            -17.475527
          ],
          [
            -66.112267,
            -17.475874
          ],
          [
            -66.112164,
            -17.476097
          ],
          [
            -66.112035,
            -17.47636
          ],
          [
            -66.111933,
            -17.476566
          ],
          [
            -66.111792,
            -17.476854
          ],
          [
            -66.111734,
            -17.476974
          ],
          [
            -66.111624,
            -17.4772
          ],
          [
            -66.111573,
            -17.477306
          ],
          [
            -66.111544,
            -17.477367
          ],
          [
            -66.111359,
            -17.477769
          ],
          [
            -66.111158,
            -17.478205
          ],
          [
            -66.110706,
            -17.479149
          ],
          [
            -66.110512,
            -17.47956
          ],
          [
            -66.109769,
            -17.481147
          ],
          [
            -66.109742,
            -17.4813
          ],
          [
            -66.109729,
            -17.481415
          ],
          [
            -66.109733,
            -17.481474
          ],
          [
            -66.109716,
            -17.481531
          ],
          [
            -66.109681,
            -17.481579
          ],
          [
            -66.10963,
            -17.481613
          ],
          [
            -66.109571,
            -17.481628
          ],
          [
            -66.109521,
            -17.481628
          ],
          [
            -66.109471,
            -17.48161
          ],
          [
            -66.109428,
            -17.481588
          ],
          [
            -66.109402,
            -17.481551
          ],
          [
            -66.10938,
            -17.481506
          ],
          [
            -66.109374,
            -17.481453
          ],
          [
            -66.10938,
            -17.481407
          ],
          [
            -66.109268,
            -17.481365
          ],
          [
            -66.108704,
            -17.48096
          ],
          [
            -66.108514,
            -17.480833
          ],
          [
            -66.108233,
            -17.480635
          ],
          [
            -66.107942,
            -17.481212
          ],
          [
            -66.107461,
            -17.480981
          ],
          [
            -66.106902,
            -17.48073
          ],
          [
            -66.106388,
            -17.480492
          ],
          [
            -66.105884,
            -17.480258
          ],
          [
            -66.105384,
            -17.480026
          ],
          [
            -66.104859,
            -17.479782
          ],
          [
            -66.104619,
            -17.480261
          ],
          [
            -66.10438,
            -17.480739
          ],
          [
            -66.104135,
            -17.481227
          ],
          [
            -66.10388,
            -17.481735
          ],
          [
            -66.103366,
            -17.481496
          ],
          [
            -66.102855,
            -17.481257
          ],
          [
            -66.10227,
            -17.480984
          ],
          [
            -66.101525,
            -17.480647
          ],
          [
            -66.101459,
            -17.480601
          ],
          [
            -66.101416,
            -17.480559
          ]
        ]
      }
    }
  ]
}