{
  "type": "FeatureCollection",
  "features": [
    {
      "type": "Feature",
      "properties": {
        "route_id": "10667926",
        "route_short_name": "Y",
        "route_long_name": "MicroBus Y: Achumani \u2192 Avenida Melchor P\u00e9rez de Olgu\u00edn"
      },
      "geometry": {
        "type": "LineString",
        "coordinates": [
          [
            -66.159868,
            -17.487254
          ],
          [
            -66.160057,
            -17.4867
          ],
          [
            -66.160168,
            -17.48636
          ],
          [
            -66.160195,
            -17.486262
          ],
          [
            -66.16031,
            -17.485852
          ],
          [
            -66.160378,
            -17.48561
          ],
          [
            -66.16039,
            -17.485565
          ],
          [
            -66.160477,
            -17.485258
          ],
          [
            -66.160538,
            -17.485038
          ],
          [
            -66.160688,
            -17.484503
          ],
          [
            -66.160703,
            -17.48445
          ],
          [
            -66.160865,
            -17.483872
          ],
          [
            -66.160939,
            -17.483608
          ],
          [
            -66.161027,
            -17.483293
          ],
          [
            -66.161197,
            -17.482686
          ],
          [
            -66.161356,
            -17.482118
          ],
          [
            -66.161482,
            -17.481707
          ],
          [
            -66.161543,
            -17.481548
          ],
          [
            -66.161565,
            -17.481492
          ],
          [
            -66.161604,
            -17.481375
          ],
          [
            -66.161844,
            -17.480543
          ],
          [
            -66.161898,
            -17.480333
          ],
          [
            -66.161994,
            -17.47996
          ],
          [
            -66.162047,
            -17.479779
          ],
          [
            -66.162284,
            -17.478965
          ],
          [
            -66.162318,
            -17.478846
          ],
          [
            -66.162495,
            -17.478247
          ],
          [
            -66.162836,
            -17.477023
          ],
          [
            -66.162874,
            -17.476866
          ],
          [
            -66.163246,
            -17.475541
          ],
          [
            -66.163383,
            -17.47502
          ],
          [
            -66.163558,
            -17.474401
          ],
          [
            -66.163652,
            -17.474068
          ],
          [
            -66.163743,
            -17.473748
          ],
          [
            -66.163986,
            -17.472887
          ],
          [
            -66.164036,
            -17.472701
          ],
          [
            -66.164164,
            -17.472227
          ],
          [
            -66.164364,
            -17.471487
          ],
          [
            -66.164388,
            -17.471401
          ],
          [
            -66.164407,
            -17.471334
          ],
          [
            -66.164434,
            -17.471222
          ],
          [
            -66.164436,
            -17.471147
          ],
          [
            -66.164407,
            -17.470976
          ],
          [
            -66.164332,
            -17.470722
          ],
          [
            -66.164321,
            -17.470655
          ],
          [
            -66.164308,
            -17.4704
          ],
          [
            -66.164301,
            -17.470318
          ],
          [
            -66.164272,
            -17.470213
          ],
          [
            -66.164229,
            -17.470099
          ],
          [
            -66.164158,
            -17.47001
          ],
          [
            -66.164088,
            -17.469918
          ],
          [
            -66.163969,
            -17.469767
          ],
          [
            -66.1638,
            -17.469542
          ],
          [
            -66.163755,
            -17.469386
          ],
          [
            -66.16365,
            -17.468961
          ],
          [
            -66.163613,
            -17.468815
          ],
          [
            -66.163576,
            -17.468638
          ],
          [
            -66.163471,
            -17.468358
          ],
          [
            -66.163443,
            -17.468269
          ],
          [
            -66.163431,
            -17.468165
          ],
          [
            -66.163438,
            -17.468065
          ],
          [
            -66.163449,
            -17.46799
          ],
          [
            -66.163558,
            -17.467519
          ],
          [
            -66.163596,
            -17.467234
          ],
          [
            -66.163632,
            -17.466886
          ],
          [
            -66.163637,
            -17.466764
          ],
          [
            -66.163621,
            -17.466635
          ],
          [
            -66.163515,
            -17.466203
          ],
          [
            -66.163419,
            -17.465763
          ],
          [
            -66.163379,
            -17.465512
          ],
          [
            -66.163359,
            -17.465361
          ],
          [
            -66.163337,
            -17.465151
          ],
          [
            -66.163326,
            -17.464966
          ],
          [
            -66.163336,
            -17.464685
          ],
          [
            -66.163375,
            -17.464144
          ],
          [
            -66.163396,
            -17.463808
          ],
          [
            -66.163376,
            -17.463692
          ],
          [
            -66.163386,
            -17.4636
          ],
          [
            -66.163396,
            -17.463448
          ],
          [
            -66.163459,
            -17.463158
          ],
          [
            -66.163483,
            -17.462984
          ],
          [
            -66.163477,
            -17.462746
          ],
          [
            -66.163447,
            -17.462314
          ],
          [
            -66.163438,
            -17.462171
          ],
          [
            -66.16341,
            -17.461767
          ],
          [
            -66.163406,
            -17.461596
          ],
          [
            -66.163395,
            -17.461266
          ],
          [
            -66.163391,
            -17.461163
          ],
          [
            -66.163394,
            -17.460943
          ],
          [
            -66.163405,
            -17.46077
          ],
          [
            -66.163535,
            -17.460128
          ],
          [
            -66.163588,
            -17.459752
          ],
          [
            -66.163593,
            -17.459649
          ],
          [
            -66.1636,
            -17.459487
          ],
          [
            -66.163601,
            -17.459352
          ],
          [
            -66.163592,
            -17.459092
          ],
          [
            -66.163552,
            -17.458734
          ],
          [
            -66.163477,
            -17.458279
          ],
          [
            -66.16342,
            -17.458096
          ],
          [
            -66.163088,
            -17.457374
          ],
          [
            -66.163021,
            -17.45717
          ],
          [
            -66.163001,
            -17.456941
          ],
          [
            -66.163009,
            -17.456643
          ],
          [
            -66.163024,
            -17.456045
          ],
          [
            -66.162727,
            -17.456123
          ],
          [
            -66.162473,
            -17.456169
          ],
          [
            -66.162133,
            -17.45621
          ],
          [
            -66.161613,
            -17.456276
          ],
          [
            -66.161138,
            -17.456357
          ],
          [
            -66.161027,
            -17.456376
          ],
          [
            -66.16087,
            -17.456403
          ],
          [
            -66.160799,
            -17.456415
          ],
          [
            -66.160338,
            -17.456499
          ],
          [
            -66.160229,
            -17.456021
          ],
          [
            -66.160037,
            -17.455109
          ],
          [
            -66.159876,
            -17.454321
          ],
          [
            -66.15944,
            -17.454402
          ],
          [
            -66.159052,
            -17.454494
          ],
          [
            -66.159036,
            -17.454452
          ],
          [
            -66.158899,
            -17.45374
          ],
          [
            -66.158409,
            -17.453827
          ],
          [
            -66.157794,
            -17.453955
          ],
          [
            -66.15722,
            -17.454065
          ],
          [
            -66.156832,
            -17.454255
          ],
          [
            -66.156712,
            -17.454303
          ],
          [
            -66.15656,
            -17.454358
          ],
          [
            -66.156456,
            -17.454387
          ],
          [
            -66.156351,
            -17.454401
          ],
          [
            -66.156247,
            -17.454403
          ],
          [
            -66.156212,
            -17.454246
          ],
          [
            -66.156048,
            -17.45361
          ],
          [
            -66.155978,
            -17.453314
          ],
          [
            -66.155932,
            -17.452906
          ],
          [
            -66.155852,
            -17.452281
          ],
          [
            -66.155755,
            -17.451769
          ],
          [
            -66.155682,
            -17.451372
          ],
          [
            -66.155664,
            -17.451195
          ],
          [
            -66.15565,
            -17.450995
          ],
          [
            -66.155632,
            -17.450551
          ],
          [
            -66.155605,
            -17.449893
          ],
          [
            -66.155566,
            -17.449156
          ],
          [
            -66.155504,
            -17.448481
          ],
          [
            -66.155489,
            -17.448322
          ],
          [
            -66.155425,
            -17.447627
          ],
          [
            -66.155382,
            -17.447156
          ],
          [
            -66.155378,
            -17.447026
          ],
          [
            -66.155378,
            -17.446971
          ],
          [
            -66.155373,
            -17.445951
          ],
          [
            -66.155372,
            -17.445906
          ],
          [
            -66.155329,
            -17.444843
          ],
          [
            -66.155268,
            -17.443344
          ],
          [
            -66.155274,
            -17.44297
          ],
          [
            -66.15528,
            -17.442861
          ],
          [
            -66.15529,
            -17.442763
          ],
          [
            -66.155347,
            -17.442606
          ],
          [
            -66.155329,
            -17.442362
          ],
          [
            -66.155341,
            -17.442234
          ],
          [
            -66.155386,
            -17.44209
          ],
          [
            -66.155548,
            -17.441774
          ],
          [
            -66.15558,
            -17.441623
          ],
          [
            -66.155727,
            -17.441602
          ],
          [
            -66.15674,
            -17.441433
          ],
          [
            -66.156791,
            -17.441425
          ],
          [
            -66.156795,
            -17.441142
          ],
          [
            -66.156813,
            -17.440659
          ],
          [
            -66.156838,
            -17.440089
          ],
          [
            -66.156887,
            -17.439037
          ],
          [
            -66.156889,
            -17.439
          ],
          [
            -66.156957,
            -17.437897
          ],
          [
            -66.156347,
            -17.437866
          ],
          [
            -66.156404,
            -17.436796
          ],
          [
            -66.156441,
            -17.435912
          ],
          [
            -66.156447,
            -17.435713
          ],
          [
            -66.157064,
            -17.435736
          ],
          [
            -66.157395,
            -17.43575
          ],
          [
            -66.157419,
            -17.435198
          ],
          [
            -66.157148,
            -17.435183
          ],
          [
            -66.156538,
            -17.435148
          ],
          [
            -66.156473,
            -17.435147
          ],
          [
            -66.156499,
            -17.434645
          ],
          [
            -66.156579,
            -17.434648
          ],
          [
            -66.157165,
            -17.434667
          ],
          [
            -66.157184,
            -17.434126
          ],
          [
            -66.157068,
            -17.43411
          ],
          [
            -66.157037,
            -17.434093
          ],
          [
            -66.157006,
            -17.434065
          ],
          [
            -66.156995,
            -17.434009
          ],
          [
            -66.15701,
            -17.433649
          ],
          [
            -66.157026,
            -17.433606
          ],
          [
            -66.157058,
            -17.433581
          ],
          [
            -66.157097,
            -17.433568
          ],
          [
            -66.157218,
            -17.433571
          ],
          [
            -66.157239,
            -17.433041
          ],
          [
            -66.157258,
            -17.432455
          ],
          [
            -66.156623,
            -17.432428
          ],
          [
            -66.156508,
            -17.432424
          ],
          [
            -66.156529,
            -17.431928
          ],
          [
            -66.156558,
            -17.431353
          ],
          [
            -66.15661,
            -17.430231
          ],
          [
            -66.156652,
            -17.429187
          ],
          [
            -66.156097,
            -17.42918
          ],
          [
            -66.156039,
            -17.429217
          ],
          [
            -66.15601,
            -17.429216
          ],
          [
            -66.155924,
            -17.42921
          ],
          [
            -66.155773,
            -17.429204
          ],
          [
            -66.155715,
            -17.429199
          ],
          [
            -66.154756,
            -17.429122
          ],
          [
            -66.15392,
            -17.429039
          ],
          [
            -66.153063,
            -17.428958
          ],
          [
            -66.152908,
            -17.428951
          ],
          [
            -66.152772,
            -17.428962
          ],
          [
            -66.152714,
            -17.428985
          ],
          [
            -66.152651,
            -17.428987
          ],
          [
            -66.152589,
            -17.428977
          ],
          [
            -66.152534,
            -17.428946
          ],
          [
            -66.152492,
            -17.428899
          ],
          [
            -66.152468,
            -17.428843
          ],
          [
            -66.152463,
            -17.428782
          ],
          [
            -66.152479,
            -17.428723
          ],
          [
            -66.152513,
            -17.428671
          ],
          [
            -66.152549,
            -17.428641
          ],
          [
            -66.152673,
            -17.428522
          ],
          [
            -66.152741,
            -17.42845
          ],
          [
            -66.152833,
            -17.428343
          ],
          [
            -66.152987,
            -17.428166
          ],
          [
            -66.153034,
            -17.428104
          ],
          [
            -66.153101,
            -17.428013
          ],
          [
            -66.153201,
            -17.427849
          ],
          [
            -66.153277,
            -17.42771
          ],
          [
            -66.153542,
            -17.427222
          ],
          [
            -66.153596,
            -17.427101
          ],
          [
            -66.153772,
            -17.426666
          ],
          [
            -66.153934,
            -17.426224
          ],
          [
            -66.153983,
            -17.426083
          ],
          [
            -66.154021,
            -17.425953
          ],
          [
            -66.154111,
            -17.425598
          ],
          [
            -66.154125,
            -17.42554
          ],
          [
            -66.154343,
            -17.424782
          ],
          [
            -66.154427,
            -17.424491
          ],
          [
            -66.154463,
            -17.424368
          ],
          [
            -66.154572,
            -17.423934
          ],
          [
            -66.154605,
            -17.423761
          ],
          [
            -66.154622,
            -17.423645
          ],
          [
            -66.154635,
            -17.423428
          ],
          [
            -66.154697,
            -17.421653
          ],
          [
            -66.154747,
            -17.42062
          ],
          [
            -66.154791,
            -17.419598
          ],
          [
            -66.154817,
            -17.418612
          ],
          [
            -66.154858,
            -17.417597
          ],
          [
            -66.154892,
            -17.416788
          ],
          [
            -66.154905,
            -17.416571
          ],
          [
            -66.154923,
            -17.41626
          ],
          [
            -66.154951,
            -17.416114
          ],
          [
            -66.155063,
            -17.415629
          ],
          [
            -66.155077,
            -17.415565
          ],
          [
            -66.155305,
            -17.414598
          ],
          [
            -66.155386,
            -17.414261
          ],
          [
            -66.155391,
            -17.414161
          ],
          [
            -66.155563,
            -17.413411
          ],
          [
            -66.155588,
            -17.413321
          ],
          [
            -66.155526,
            -17.413301
          ],
          [
            -66.15544,
            -17.413259
          ],
          [
            -66.155028,
            -17.413039
          ],
          [
            -66.15465,
            -17.412835
          ],
          [
            -66.153954,
            -17.412484
          ],
          [
            -66.153767,
            -17.412386
          ],
          [
            -66.153577,
            -17.412215
          ],
          [
            -66.153547,
            -17.412141
          ],
          [
            -66.153537,
            -17.412104
          ],
          [
            -66.153517,
            -17.412004
          ],
          [
            -66.153503,
            -17.411921
          ],
          [
            -66.1535,
            -17.411849
          ],
          [
            -66.153445,
            -17.410312
          ],
          [
            -66.153484,
            -17.409979
          ],
          [
            -66.153479,
            -17.409859
          ],
          [
            -66.153411,
            -17.408299
          ],
          [
            -66.153385,
            -17.407559
          ],
          [
            -66.153376,
            -17.407055
          ],
          [
            -66.153342,
            -17.406101
          ],
          [
            -66.153317,
            -17.405283
          ],
          [
            -66.153303,
            -17.404861
          ],
          [
            -66.153302,
            -17.404799
          ],
          [
            -66.153296,
            -17.403607
          ],
          [
            -66.153297,
            -17.403542
          ],
          [
            -66.153293,
            -17.403209
          ],
          [
            -66.153319,
            -17.403127
          ],
          [
            -66.15332,
            -17.403075
          ],
          [
            -66.15332,
            -17.402958
          ],
          [
            -66.15332,
            -17.402878
          ],
          [
            -66.15332,
            -17.40281
          ],
          [
            -66.153319,
            -17.402737
          ],
          [
            -66.153322,
            -17.402658
          ],
          [
            -66.153323,
            -17.402572
          ],
          [
            -66.153325,
            -17.402501
          ],
          [
            -66.153323,
            -17.402429
          ],
          [
            -66.153324,
            -17.402364
          ],
          [
            -66.153324,
            -17.40229
          ],
          [
            -66.153295,
            -17.401383
          ],
          [
            -66.15325,
            -17.400725
          ],
          [
            -66.153227,
            -17.399898
          ],
          [
            -66.153197,
            -17.399102
          ],
          [
            -66.153192,
            -17.398998
          ],
          [
            -66.153184,
            -17.398846
          ],
          [
            -66.153188,
            -17.398769
          ],
          [
            -66.153253,
            -17.398424
          ],
          [
            -66.153322,
            -17.398064
          ],
          [
            -66.153532,
            -17.397006
          ],
          [
            -66.153732,
            -17.395947
          ],
          [
            -66.153922,
            -17.394892
          ],
          [
            -66.154001,
            -17.394466
          ],
          [
            -66.154011,
            -17.394412
          ],
          [
            -66.154112,
            -17.393861
          ],
          [
            -66.154297,
            -17.392943
          ],
          [
            -66.154313,
            -17.392865
          ],
          [
            -66.154321,
            -17.392824
          ],
          [
            -66.154328,
            -17.392791
          ],
          [
            -66.154493,
            -17.391925
          ],
          [
            -66.1545,
            -17.391876
          ],
          [
            -66.154518,
            -17.391787
          ],
          [
            -66.154597,
            -17.3918
          ],
          [
            -66.155536,
            -17.391967
          ],
          [
            -66.155601,
            -17.391978
          ],
          [
            -66.155662,
            -17.391988
          ],
          [
            -66.156629,
            -17.39217
          ],
          [
            -66.156673,
            -17.392178
          ],
          [
            -66.156727,
            -17.392187
          ],
          [
            -66.157322,
            -17.392289
          ],
          [
            -66.157699,
            -17.392354
          ],
          [
            -66.157753,
            -17.392363
          ],
          [
            -66.157797,
            -17.392371
          ],
          [
            -66.158706,
            -17.392529
          ],
          [
            -66.158786,
            -17.392542
          ],
          [
            -66.158879,
            -17.392559
          ],
          [
            -66.15894,
            -17.39257
          ],
          [
            -66.159876,
            -17.392724
          ],
          [
            -66.15992,
            -17.392731
          ],
          [
            -66.159972,
            -17.39274
          ],
          [
            -66.161004,
            -17.392913
          ],
          [
            -66.161061,
            -17.392926
          ],
          [
            -66.161129,
            -17.392944
          ],
          [
            -66.161993,
            -17.393095
          ],
          [
            -66.162063,
            -17.393107
          ],
          [
            -66.163928,
            -17.393418
          ],
          [
            -66.164921,
            -17.393602
          ],
          [
            -66.165917,
            -17.393779
          ],
          [
            -66.166231,
            -17.39383
          ],
          [
            -66.166439,
            -17.393829
          ],
          [
            -66.16661,
            -17.393841
          ],
          [
            -66.166791,
            -17.393901
          ],
          [
            -66.166842,
            -17.393916
          ],
          [
            -66.166937,
            -17.393937
          ],
          [
            -66.167351,
            -17.393978
          ],
          [
            -66.167446,
            -17.393974
          ],
          [
            -66.167566,
            -17.393955
          ],
          [
            -66.167642,
            -17.393945
          ],
          [
            -66.167797,
            -17.393916
          ],
          [
            -66.167983,
            -17.393884
          ],
          [
            -66.168452,
            -17.39386
          ],
          [
            -66.168603,
            -17.393852
          ],
          [
            -66.168686,
            -17.393847
          ],
          [
            -66.16904,
            -17.393829
          ],
          [
            -66.170294,
            -17.393778
          ],
          [
            -66.170407,
            -17.393766
          ],
          [
            -66.170544,
            -17.393744
          ],
          [
            -66.170598,
            -17.393719
          ],
          [
            -66.170657,
            -17.393711
          ],
          [
            -66.170715,
            -17.393721
          ],
          [
            -66.170768,
            -17.393749
          ],
          [
            -66.170811,
            -17.393791
          ],
          [
            -66.170839,
            -17.393845
          ],
          [
            -66.170849,
            -17.393905
          ],
          [
            -66.170839,
            -17.393969
          ],
          [
            -66.17081,
            -17.394025
          ],
          [
            -66.170765,
            -17.394068
          ],
          [
            -66.170744,
            -17.394103
          ],
          [
            -66.170705,
            -17.394168
          ],
          [
            -66.170694,
            -17.394221
          ],
          [
            -66.170712,
            -17.394766
          ],
          [
            -66.170738,
            -17.395392
          ],
          [
            -66.170769,
            -17.396021
          ],
          [
            -66.170776,
            -17.396151
          ],
          [
            -66.170786,
            -17.396478
          ],
          [
            -66.170789,
            -17.396555
          ],
          [
            -66.17079,
            -17.396685
          ],
          [
            -66.170781,
            -17.39676
          ],
          [
            -66.170762,
            -17.3968
          ],
          [
            -66.170388,
            -17.397304
          ],
          [
            -66.170325,
            -17.397416
          ],
          [
            -66.170115,
            -17.39784
          ],
          [
            -66.169905,
            -17.398259
          ],
          [
            -66.169868,
            -17.398318
          ],
          [
            -66.169916,
            -17.398344
          ],
          [
            -66.170435,
            -17.398628
          ],
          [
            -66.171003,
            -17.398935
          ],
          [
            -66.171576,
            -17.399248
          ],
          [
            -66.172062,
            -17.399517
          ],
          [
            -66.172103,
            -17.399541
          ],
          [
            -66.172175,
            -17.399583
          ],
          [
            -66.172122,
            -17.399672
          ],
          [
            -66.172043,
            -17.399806
          ],
          [
            -66.17197,
            -17.39993
          ],
          [
            -66.171928,
            -17.40002
          ],
          [
            -66.171924,
            -17.400108
          ],
          [
            -66.171987,
            -17.400403
          ],
          [
            -66.172036,
            -17.400619
          ],
          [
            -66.171977,
            -17.400635
          ],
          [
            -66.17113,
            -17.400861
          ],
          [
            -66.1705,
            -17.401024
          ],
          [
            -66.169855,
            -17.401204
          ],
          [
            -66.169267,
            -17.401366
          ],
          [
            -66.169219,
            -17.401379
          ],
          [
            -66.169394,
            -17.401964
          ],
          [
            -66.169449,
            -17.402129
          ],
          [
            -66.1695,
            -17.402235
          ],
          [
            -66.169571,
            -17.402372
          ],
          [
            -66.169682,
            -17.402552
          ],
          [
            -66.169731,
            -17.40262
          ],
          [
            -66.169927,
            -17.402803
          ],
          [
            -66.170119,
            -17.402963
          ],
          [
            -66.17024,
            -17.403046
          ],
          [
            -66.170965,
            -17.403439
          ],
          [
            -66.171307,
            -17.403622
          ],
          [
            -66.171426,
            -17.403685
          ],
          [
            -66.171508,
            -17.403728
          ],
          [
            -66.171751,
            -17.403862
          ],
          [
            -66.172934,
            -17.404516
          ],
          [
            -66.173254,
            -17.403967
          ],
          [
            -66.17328,
            -17.403924
          ],
          [
            -66.173585,
            -17.403398
          ],
          [
            -66.173807,
            -17.403029
          ],
          [
            -66.173923,
            -17.402854
          ],
          [
            -66.173924,
            -17.402844
          ],
          [
            -66.173932,
            -17.402821
          ],
          [
            -66.173949,
            -17.40279
          ],
          [
            -66.174206,
            -17.402373
          ],
          [
            -66.174298,
            -17.402301
          ],
          [
            -66.174302,
            -17.402292
          ],
          [
            -66.174326,
            -17.40227
          ],
          [
            -66.174429,
            -17.402165
          ],
          [
            -66.174494,
            -17.402101
          ],
          [
            -66.174767,
            -17.401836
          ],
          [
            -66.175017,
            -17.401541
          ],
          [
            -66.175085,
            -17.40146
          ],
          [
            -66.175272,
            -17.401245
          ],
          [
            -66.175568,
            -17.400892
          ],
          [
            -66.175726,
            -17.400876
          ],
          [
            -66.175948,
            -17.400847
          ],
          [
            -66.17613,
            -17.400804
          ],
          [
            -66.176288,
            -17.400771
          ],
          [
            -66.176906,
            -17.40064
          ],
          [
            -66.17699,
            -17.400622
          ],
          [
            -66.177704,
            -17.400481
          ],
          [
            -66.178434,
            -17.400334
          ],
          [
            -66.179232,
            -17.400174
          ],
          [
            -66.180169,
            -17.399982
          ],
          [
            -66.180437,
            -17.400983
          ],
          [
            -66.180551,
            -17.401381
          ],
          [
            -66.180564,
            -17.401435
          ],
          [
            -66.180576,
            -17.401486
          ],
          [
            -66.180677,
            -17.401871
          ],
          [
            -66.180847,
            -17.402463
          ],
          [
            -66.180865,
            -17.40265
          ],
          [
            -66.181357,
            -17.403006
          ],
          [
            -66.181465,
            -17.403092
          ],
          [
            -66.182028,
            -17.403488
          ],
          [
            -66.181466,
            -17.404194
          ],
          [
            -66.181484,
            -17.404275
          ],
          [
            -66.181546,
            -17.404342
          ],
          [
            -66.181628,
            -17.404371
          ],
          [
            -66.181705,
            -17.404418
          ],
          [
            -66.181803,
            -17.404513
          ],
          [
            -66.181829,
            -17.404587
          ],
          [
            -66.181847,
            -17.404675
          ],
          [
            -66.181849,
            -17.404798
          ],
          [
            -66.183125,
            -17.405497
          ],
          [
            -66.184161,
            -17.406067
          ],
          [
            -66.184351,
            -17.406138
          ],
          [
            -66.184449,
            -17.406492
          ],
          [
            -66.184594,
            -17.407024
          ],
          [
            -66.184788,
            -17.407858
          ],
          [
            -66.184719,
            -17.407857
          ]
        ]
      }
    }
  ]
}